{"type":"FeatureCollection","features":[{"type":"Feature","id":1,"geometry":{"type":"Polygon","coordinates":[[[59.374175834000027,36.488055631000066],[59.374340047000032,36.48809766800008],[59.374046398000075,36.488024919000054],[59.374126232000037,36.48804386300003],[59.374175834000027,36.488055631000066]]]},"properties":{"OBJECTID":1,"Name":"84530.761065","FolderPath":"Temporary Places/حریم 7 متری گاز/harim_gas_7","SymbolID":0,"AltMode":0,"Base":0,"Clamped":-1,"Extruded":0,"Snippet":"","PopupInfo":"\u003chtml xmlns:fo=\"http://www.w3.org/1999/XSL/Format\" xmlns:msxsl=\"urn:schemas-microsoft-com:xslt\"\u003e\n\n\u003chead\u003e\n\n\u003cMETA http-equiv=\"Content-Type\" content=\"text/html\"\u003e\n\n\u003cmeta http-equiv=\"content-type\" content=\"text/html; charset=UTF-8\"\u003e\n\n\u003c/head\u003e\n\n\u003cbody style=\"margin:0px 0px 0px 0px;overflow:auto;background:#FFFFFF;\"\u003e\n\n\u003ctable style=\"font-family:Arial,Verdana,Times;font-size:12px;text-align:left;width:100%;border-collapse:collapse;padding:3px 3px 3px 3px\"\u003e\n\n\u003ctr style=\"text-align:center;font-weight:bold;background:#9CBCE2\"\u003e\n\n\u003ctd\u003e84530.761065\u003c/td\u003e\n\n\u003c/tr\u003e\n\n\u003ctr\u003e\n\n\u003ctd\u003e\n\n\u003ctable style=\"font-family:Arial,Verdana,Times;font-size:12px;text-align:left;width:100%;border-spacing:0px; padding:3px 3px 3px 3px\"\u003e\n\n\u003ctr\u003e\n\n\u003ctd\u003eSHAPE\u003c/td\u003e\n\n\u003ctd\u003ePolygon\u003c/td\u003e\n\n\u003c/tr\u003e\n\n\u003ctr bgcolor=\"#D4E4F3\"\u003e\n\n\u003ctd\u003eSHAPE_Length\u003c/td\u003e\n\n\u003ctd\u003e84530.761065\u003c/td\u003e\n\n\u003c/tr\u003e\n\n\u003ctr\u003e\n\n\u003ctd\u003eSHAPE_Area\u003c/td\u003e\n\n\u003ctd\u003e1109114.582692\u003c/td\u003e\n\n\u003c/tr\u003e\n\n\u003c/table\u003e\n\n\u003c/td\u003e\n\n\u003c/tr\u003e\n\n\u003c/table\u003e\n\n\u003c/body\u003e\n\n\u003c/html\u003e","Shape_Length":0.00060506416549349455,"Shape_Area":1.9880885078251855e-10}},{"type":"Feature","id":2,"geometry":{"type":"Polygon","coordinates":[[[59.374175834000027,36.488055631000066],[59.37380037500003,36.487959514000067],[59.373486436000064,36.487875984000027],[59.372934616000066,36.487729157000047],[59.372664816000054,36.487657368000043],[59.372318403000065,36.487565194000069],[59.372208289000071,36.487535894000075],[59.372061926000072,36.48750515100005],[59.371844088000046,36.48745939500003],[59.37182647700007,36.48745569600004],[59.371802721000051,36.48745587500008],[59.371778545000041,36.487456462000068],[59.371702655000036,36.487461569000061],[59.371678786000075,36.487464977000059],[59.371641410000052,36.487473356000066],[59.371625806000054,36.487478200000055],[59.371599171000071,36.487488294000059],[59.371558302000039,36.487507160000064],[59.371544277000055,36.487514065000028],[59.371514770000033,36.487529298000027],[59.371378582000034,36.487597654000069],[59.371233380000035,36.487670531000049],[59.371156858000063,36.487708938000026],[59.370951668000032,36.487811925000074],[59.370751591000044,36.487912345000041],[59.37075052800003,36.487912895000079],[59.370749550000028,36.487913404000039],[59.37050761200004,36.488043203000075],[59.370188986000073,36.48821414400004],[59.36955253800005,36.488555589000043],[59.369120232000057,36.488787510000066],[59.368622266000045,36.489054653000039],[59.367949870000075,36.489415368000039],[59.367609822000077,36.489597787000037],[59.367310620000069,36.489757588000032],[59.366940060000047,36.489955198000075],[59.366538941000044,36.490169101000049],[59.366299462000029,36.49029680600006],[59.366040428000076,36.490434937000032],[59.365859158000035,36.490531600000054],[59.365529859000048,36.490707199000042],[59.365426705000061,36.490762206000056],[59.365186551000079,36.490890266000065],[59.365146108000033,36.490911832000052],[59.365144466000061,36.490912707000064],[59.365118780000046,36.490926405000039],[59.36490490400007,36.49104045200005],[59.36486109100008,36.491063814000029],[59.364523983000026,36.49124357200003],[59.364494273000048,36.491259414000069],[59.364369316000079,36.491326045000051],[59.364352864000068,36.491334818000041],[59.364342217000058,36.491339529000072],[59.364330794000068,36.49134285100007],[59.364306737000049,36.491345039000066],[59.364294686000051,36.491343853000046],[59.36428300700004,36.49134117400007],[59.36426188300004,36.491331625000043],[59.364134282000066,36.491181458000028],[59.370600073000048,36.48772321000007],[59.371366004000038,36.487338770000065],[59.371396546000028,36.48732300000006],[59.371432168000069,36.487305463000041],[59.371472378000078,36.487287538000032],[59.371516351000082,36.487270874000046],[59.371553851000044,36.487259230000063],[59.371637959000054,36.487242079000055],[59.371694668000032,36.487235424000062],[59.371696089000068,36.487236728000028],[59.371749210000075,36.487231837000024],[59.371797251000032,36.487230673000056],[59.371860876000028,36.487230191000037],[59.372287117000042,36.487319722000052],[59.372482600000069,36.487371737000046],[59.374863162000054,36.488003654000067],[59.375095281000029,36.48807075700006],[59.375192364000043,36.488082102000078],[59.375223814000037,36.488084274000073],[59.375256937000074,36.488086020000026],[59.375285029000054,36.488086570000064],[59.375316061000035,36.488085455000032],[59.375333745000034,36.488083676000031],[59.375414246000048,36.488069182000061],[59.375673279000068,36.487978828000053],[59.375970027000051,36.487883381000074],[59.376179468000032,36.487818075000064],[59.379127922000066,36.486875177000059],[59.38130835700008,36.486183050000079],[59.384284298000068,36.485244971000043],[59.385924033000038,36.484724995000079],[59.386530742000048,36.48453225600008],[59.388561864000053,36.483890937000069],[59.390978330000053,36.483119817000045],[59.391436460000079,36.482974499000079],[59.39280588400004,36.482544618000077],[59.395590761000051,36.48165986600003],[59.398125358000073,36.480853292000063],[59.401892924000038,36.479649159000076],[59.402476138000054,36.479461554000068],[59.402547051000056,36.47943815900004],[59.402622801000064,36.479413147000059],[59.40411242700003,36.478921271000047],[59.406598734000056,36.47808914400008],[59.408999755000082,36.477294986000061],[59.412178364000056,36.476236877000076],[59.413389825000081,36.47582595800003],[59.413732163000077,36.47572505100004],[59.41395145000007,36.475645845000031],[59.414381918000061,36.475504131000037],[59.417735716000038,36.474405726000043],[59.418369463000033,36.474198153000032],[59.420094219000077,36.473641366000038],[59.427976609000041,36.471097408000048],[59.428579739000043,36.470902781000063],[59.428705999000044,36.470862626000041],[59.430210860000045,36.470371353000075],[59.431420255000035,36.469962753000061],[59.432690542000046,36.469533562000038],[59.432826804000058,36.469487522000065],[59.433847463000063,36.469142658000067],[59.435695191000036,36.468518312000072],[59.43695166200007,36.468093730000078],[59.43701967100003,36.468067383000061],[59.437277011000049,36.467865403000076],[59.437552483000047,36.467753722000054],[59.437732389000075,36.467801759000054],[59.437933709000049,36.467742258000044],[59.441922934000047,36.466311255000051],[59.44252007700004,36.46609703300004],[59.443493125000032,36.465747951000026],[59.445848846000047,36.46490126100008],[59.450319129000036,36.463300878000041],[59.452240220000078,36.462614126000062],[59.452869211000063,36.462387481000064],[59.459595749000073,36.459963406000043],[59.460806020000064,36.459527199000036],[59.463473824000062,36.458586833000027],[59.464897462000067,36.458075106000024],[59.466250739000031,36.45758864700008],[59.467696026000056,36.45706909200004],[59.469390728000064,36.456462815000066],[59.470687445000067,36.45599911100004],[59.472267440000053,36.455368187000033],[59.473605776000056,36.45482035200007],[59.47516717600007,36.454181181000024],[59.476948020000066,36.45345214200006],[59.477036697000074,36.453415325000037],[59.478540321000082,36.452790858000071],[59.478544881000062,36.452788954000027],[59.478609935000065,36.452761793000036],[59.478622045000066,36.45275674100003],[59.478716315000042,36.452717377000056],[59.478983278000044,36.452605920000053],[59.479018374000077,36.452591264000034],[59.479117063000047,36.452550665000047],[59.479123027000071,36.452548211000078],[59.479146556000046,36.452538333000064],[59.479152931000044,36.452535657000055],[59.479274641000075,36.452484552000044],[59.479393408000078,36.452434684000025],[59.479626445000065,36.45233836500006],[59.48108858900008,36.451734022000039],[59.482349966000072,36.451212639000062],[59.482696822000037,36.451068707000047],[59.48443345700008,36.450352079000027],[59.486498668000081,36.449505639000051],[59.487167620000037,36.449205859000074],[59.487502188000065,36.449015303000067],[59.48814197400003,36.448646625000038],[59.488527051000062,36.448431613000025],[59.488762963000056,36.448266179000029],[59.489772813000059,36.447531920000074],[59.489954304000037,36.447399477000033],[59.489989089000062,36.447374152000066],[59.489959593000037,36.447348894000072],[59.490469369000039,36.446956159000024],[59.490461743000083,36.446905162000064],[59.490465021000034,36.446886580000069],[59.490475968000055,36.446870025000067],[59.490583486000048,36.446792370000026],[59.490708125000083,36.446699382000077],[59.490709794000054,36.446698179000066],[59.490860498000075,36.446593064000069],[59.491398052000079,36.446202559000028],[59.494406254000069,36.444010394000031],[59.496198537000055,36.442702488000066],[59.496315100000061,36.442617425000037],[59.49808919600008,36.441325979000055],[59.502182680000033,36.438343165000049],[59.504452196000045,36.436686475000045],[59.505466704000071,36.435879056000033],[59.509973185000035,36.43230198100008],[59.510979048000081,36.431501223000055],[59.510980370000027,36.431500199000027],[59.510985549000054,36.431496675000062],[59.511503771000037,36.431178810000063],[59.512854080000068,36.430412736000051],[59.513554311000064,36.430017821000035],[59.51360389000007,36.429989737000028],[59.515014025000028,36.429190959000039],[59.51614693700003,36.428549194000027],[59.519698041000026,36.426537844000052],[59.520705644000031,36.425967361000062],[59.523227546000044,36.424539441000036],[59.523677655000029,36.424284577000037],[59.52412872900004,36.424031465000041],[59.527705169000058,36.422006053000075],[59.527727753000079,36.421993229000066],[59.528695793000054,36.421445199000061],[59.529374700000062,36.421060843000078],[59.532328782000036,36.419388338000033],[59.532649625000033,36.419206557000052],[59.538716814000054,36.415769938000039],[59.539653954000073,36.415238724000062],[59.540728384000033,36.414634205000027],[59.540817916000037,36.414583830000026],[59.540843985000038,36.414569073000052],[59.541527947000077,36.414181877000033],[59.541637624000032,36.414105044000053],[59.541730191000056,36.414019233000033],[59.541880945000059,36.413848659000053],[59.544567876000031,36.410846137000078],[59.54613502400008,36.409097554000027],[59.548290233000046,36.406700096000066],[59.548986898000067,36.405926068000042],[59.549665662000052,36.405173328000046],[59.551900092000039,36.402693248000048],[59.552700379000044,36.401804310000045],[59.552738227000077,36.401762268000027],[59.552789189000066,36.401705660000061],[59.552914272000066,36.40156264400008],[59.553021107000063,36.401438536000057],[59.553022573000078,36.401436900000078],[59.553024330000028,36.401435094000078],[59.553102962000082,36.401357739000048],[59.553103931000066,36.401356806000024],[59.55319455700004,36.401280923000058],[59.553282707000051,36.401219067000056],[59.553557942000054,36.401053194000042],[59.554289530000062,36.400612292000062],[59.555175203000033,36.400078514000029],[59.556398762000072,36.399341078000077],[59.557637605000082,36.398597409000047],[59.560975533000033,36.396595690000026],[59.561800070000061,36.39610147500008],[59.561942051000074,36.396016375000045],[59.563396114000057,36.395150016000059],[59.563877434000062,36.394863229000066],[59.565479357000072,36.393907983000076],[59.568107220000059,36.392338514000073],[59.568349109000053,36.392194041000039],[59.569670084000052,36.39139553900003],[59.569673674000057,36.391393514000072],[59.569675973000074,36.391392357000029],[59.569833146000065,36.391316863000043],[59.570051144000047,36.391214090000062],[59.572753169000066,36.389968164000038],[59.574970319000045,36.388945746000047],[59.577815358000066,36.387634782000077],[59.578622322000058,36.38725830900006],[59.580238467000072,36.386504304000027],[59.582396739000046,36.385497315000066],[59.582928939000055,36.38524899600003],[59.583092239000052,36.385172802000056],[59.584316912000077,36.384601603000078],[59.584647724000035,36.384447306000027],[59.588036196000076,36.382865663000075],[59.589235905000066,36.382306647000064],[59.59224352800004,36.380905129000041],[59.593267580000031,36.380429393000043],[59.593807352000056,36.380178630000046],[59.597643548000065,36.378394847000038],[59.599366328000031,36.37759195700005],[59.601690935000079,36.37650923800004],[59.602733945000068,36.376025069000036],[59.605689535000067,36.374648262000051],[59.605802631000074,36.374595842000076],[59.605807968000079,36.374593620000041],[59.606104489000074,36.374483465000026],[59.606106215000068,36.374482847000024],[59.606115336000073,36.374480319000043],[59.606878856000037,36.374319227000058],[59.609421995000048,36.37378551900008],[59.610284322000041,36.373604536000073],[59.610484564000046,36.373560599000029],[59.610766131000048,36.373479195000073],[59.611014456000078,36.373321076000025],[59.611284397000077,36.373121309000055],[59.612414126000033,36.372234739000078],[59.614130250000073,36.370887930000038],[59.614686653000035,36.370451251000077],[59.614824143000078,36.37033318500005],[59.616737883000042,36.368423503000031],[59.61733100500004,36.367825825000068],[59.617334444000051,36.367822625000031],[59.617538059000083,36.367647537000039],[59.618449294000072,36.36712546900003],[59.619701612000028,36.366409153000063],[59.620996054000045,36.365668716000073],[59.622221367000066,36.364967798000066],[59.623244446000058,36.36438254400008],[59.623957185000052,36.363974811000048],[59.625080271000058,36.363332223000043],[59.625794932000076,36.362923298000055],[59.626863971000034,36.362311584000054],[59.627474618000065,36.361962159000029],[59.627764788000036,36.361796114000072],[59.628755903000069,36.361229447000028],[59.629736464000075,36.360671048000029],[59.630975499000044,36.35996543400006],[59.631138150000027,36.359872804000076],[59.631173536000063,36.359852653000075],[59.631699843000035,36.359539010000049],[59.632722477000073,36.358941750000042],[59.633433097000079,36.358536366000067],[59.633545565000077,36.358471020000025],[59.633564945000046,36.358459664000065],[59.633589115000063,36.358445499000027],[59.633746043000031,36.358355993000032],[59.634711894000077,36.357805099000075],[59.635597593000057,36.357299908000073],[59.636815973000068,36.356604938000032],[59.637992685000029,36.355933714000059],[59.639573598000027,36.355028990000051],[59.640746510000042,36.35435773100005],[59.641687281000031,36.353819310000063],[59.642052030000059,36.353610553000067],[59.642053304000058,36.353609841000036],[59.642054270000074,36.353609316000075],[59.642390915000078,36.353425902000026],[59.643151794000062,36.352979948000041],[59.644002044000047,36.35249273200003],[59.645382570000038,36.351701628000058],[59.646525137000083,36.351046862000032],[59.646630830000049,36.350986291000027],[59.646920247000082,36.350822592000043],[59.647794334000082,36.350328182000055],[59.648177300000043,36.350111561000062],[59.648837229000037,36.349738273000071],[59.649869936000073,36.349154110000029],[59.650958808000041,36.348538159000043],[59.651188766000075,36.348379481000052],[59.651706980000029,36.348085067000056],[59.652308550000043,36.347743925000032],[59.65297586500003,36.347365493000041],[59.654482304000055,36.346501581000041],[59.654559812000059,36.34645660800004],[59.654990326000075,36.346213345000024],[59.65507995400003,36.346162700000036],[59.655908149000027,36.345691116000069],[59.656774914000039,36.345181280000077],[59.657570535000048,36.344713280000065],[59.65757452500003,36.344710931000066],[59.657577055000047,36.344709514000044],[59.657607157000029,36.344693463000056],[59.657609796000031,36.344692054000063],[59.657612233000066,36.344690821000029],[59.657663469000056,36.344666124000071],[59.657831987000066,36.344584892000057],[59.657860868000057,36.344570971000053],[59.659270437000032,36.343903354000076],[59.66041350200004,36.343361948000052],[59.661093505000053,36.343005792000042],[59.661216869000043,36.342941178000046],[59.663332929000035,36.341832827000076],[59.663962572000059,36.341503019000072],[59.663964631000056,36.341501941000047],[59.663992875000076,36.341487393000079],[59.664022501000034,36.341472134000071],[59.664024697000059,36.341471005000074],[59.664092571000083,36.341437082000027],[59.664217032000067,36.341374880000046],[59.664254726000081,36.34135604100004],[59.664256450000039,36.341355182000029],[59.665420980000079,36.340770488000032],[59.665703768000071,36.340628502000072],[59.668124514000056,36.33941301200008],[59.668661010000051,36.339143619000026],[59.669084872000042,36.338930042000072],[59.669209113000079,36.338867438000079],[59.66933595900008,36.338803521000045],[59.669568681000044,36.338686253000049],[59.669572230000028,36.338684469000043],[59.669638662000068,36.338652036000042],[59.672197682000046,36.337389168000072],[59.673308858000041,36.336825850000025],[59.673573479000027,36.336691697000049],[59.674830005000047,36.336054667000042],[59.675140019000082,36.335897492000072],[59.675793550000037,36.335579031000066],[59.677155043000027,36.334915566000063],[59.677217573000064,36.334885094000072],[59.677219732000083,36.334884086000045],[59.677971640000067,36.334547938000071],[59.67932359100007,36.33394351700008],[59.680294841000034,36.333509283000069],[59.681584663000081,36.332917836000036],[59.68201199400005,36.332721881000055],[59.682013468000036,36.332721223000078],[59.682069811000076,36.332696885000075],[59.68209700500006,36.332685140000024],[59.682287344000031,36.332600721000063],[59.683604829000046,36.332016378000048],[59.684613228000046,36.331569108000053],[59.685756182000034,36.331062141000075],[59.68683085300006,36.330585446000043],[59.688303330000053,36.329932271000075],[59.688540049000039,36.329827263000027],[59.688766787000077,36.329721445000075],[59.689022475000058,36.329602117000036],[59.689914338000051,36.329185885000072],[59.690642446000027,36.328846069000065],[59.691139156000077,36.328592798000045],[59.692277423000064,36.328012386000069],[59.693059407000078,36.327575209000031],[59.694299939000075,36.326881657000058],[59.695459683000081,36.32623324900004],[59.69705902700008,36.325304551000045],[59.698271747000035,36.324594681000065],[59.698353720000057,36.324546697000073],[59.69842961900008,36.324488848000044],[59.698447250000072,36.324475410000048],[59.698452051000061,36.324471751000033],[59.698458005000077,36.324467727000069],[59.698538556000074,36.324419428000056],[59.69988425400004,36.323612500000024],[59.700551852000046,36.323171091000063],[59.702135546000079,36.321827625000026],[59.702313402000073,36.321676744000058],[59.702914002000057,36.321182693000026],[59.703165028000058,36.32097619700005],[59.703170844000056,36.320971944000064],[59.703177235000055,36.320968272000073],[59.703184114000067,36.32096523000007],[59.703426061000073,36.320885786000076],[59.703601291000041,36.320839597000031],[59.703606830000069,36.320838347000063],[59.703617859000076,36.320837041000061],[59.703881220000028,36.320823873000052],[59.704022615000042,36.320816803000071],[59.70403450200007,36.320817103000024],[59.704040917000043,36.320817988000044],[59.705166341000051,36.321019510000042],[59.705992409000032,36.321167582000044],[59.706535037000037,36.321235444000024],[59.707956238000065,36.321413169000039],[59.707959249000055,36.321413550000045],[59.708876516000032,36.321577620000028],[59.708950028000061,36.321590769000068],[59.710348900000042,36.321840967000071],[59.710606428000062,36.32188375000004],[59.710855274000039,36.321928707000041],[59.711048862000041,36.32195297100003],[59.711313060000066,36.321921204000034],[59.711691635000079,36.321751491000043],[59.712496310000063,36.321418977000064],[59.713581805000047,36.320939396000028],[59.715565181000045,36.320026343000052],[59.717047038000032,36.319344132000026],[59.717680659000052,36.319052419000059],[59.719860872000027,36.318072864000044],[59.719909066000071,36.31802220700007],[59.720139354000082,36.317780037000034],[59.720145725000066,36.317774247000045],[59.720256986000038,36.317686711000079],[59.720443183000043,36.317567380000071],[59.721971052000072,36.316878143000054],[59.724279873000057,36.315842144000044],[59.72437706200003,36.315817914000036],[59.72452069600007,36.315782108000064],[59.724525486000061,36.315781070000071],[59.725011118000054,36.315693116000034],[59.725012532000051,36.315692873000046],[59.727012967000064,36.315367188000039],[59.728047575000062,36.315198732000056],[59.729354511000054,36.314986753000028],[59.729400779000059,36.314979286000039],[59.729490514000076,36.314964802000077],[59.729543769000031,36.314956204000055],[59.729638870000031,36.314940853000053],[59.729846316000078,36.314907365000067],[59.73006192500003,36.314872050000076],[59.73274249900004,36.314432963000058],[59.736782097000059,36.313771141000075],[59.740501250000079,36.313164892000032],[59.74206827200004,36.312910913000053],[59.742137172000071,36.31289974200007],[59.74277014200004,36.312797144000058],[59.744214680000027,36.31255628200006],[59.744308932000081,36.31254006000006],[59.74444631700004,36.312516414000072],[59.744473432000063,36.312511746000041],[59.744474750000052,36.312511518000065],[59.744545771000048,36.312499294000077],[59.74468078600006,36.312476055000047],[59.744732444000078,36.312467163000065],[59.744734103000042,36.312466896000046],[59.744824666000056,36.312453238000046],[59.744954289000077,36.312433689000045],[59.745059021000031,36.312417895000067],[59.745169955000051,36.31240116500004],[59.745286544000066,36.312383582000052],[59.745387239000081,36.312368395000078],[59.745487697000044,36.312353245000054],[59.745585229000028,36.312338535000038],[59.745656668000038,36.312327761000063],[59.745748186000071,36.312313958000061],[59.745792650000055,36.312303153000073],[59.745835894000038,36.312292644000024],[59.745903205000047,36.312276288000078],[59.745906146000038,36.312275572000033],[59.745961270000066,36.312262177000036],[59.746062977000065,36.312237462000041],[59.746070659000054,36.312235594000072],[59.746140196000056,36.312218696000059],[59.746140490000073,36.312218625000071],[59.746207369000047,36.312202372000058],[59.746292100000062,36.312181783000028],[59.746293588000071,36.312181421000048],[59.746318705000078,36.312175317000026],[59.746371631000045,36.312162456000067],[59.746478671000034,36.312136444000032],[59.746495035000066,36.312132466000037],[59.746514495000042,36.312127738000072],[59.746515900000077,36.312127396000051],[59.746622649000074,36.312101454000071],[59.746758061000037,36.312068546000035],[59.746911082000054,36.31203135800007],[59.747064013000056,36.311992715000031],[59.747092943000041,36.311985406000076],[59.747188445000063,36.311958592000053],[59.747293037000077,36.311929228000054],[59.74741634600008,36.311894607000056],[59.747537166000029,36.311860685000056],[59.747665392000044,36.311824684000044],[59.74777492700008,36.311793929000032],[59.747895722000067,36.311760015000061],[59.748037239000041,36.311720281000078],[59.748147586000073,36.311689298000033],[59.748312871000053,36.311642892000066],[59.748428664000073,36.311610380000047],[59.748539820000076,36.311579170000073],[59.748661312000081,36.311545058000036],[59.748824751000029,36.311499169000058],[59.748976599000059,36.311456533000069],[59.749055586000054,36.311434355000074],[59.749198469000078,36.311394236000069],[59.74929211500006,36.311367942000061],[59.749345875000074,36.31135284700008],[59.749465237000038,36.311319332000039],[59.749493647000065,36.311313468000037],[59.749588429000028,36.311294733000068],[59.749604524000063,36.311290783000061],[59.749739453000075,36.31125847900006],[59.749852163000071,36.311234490000061],[59.749864079000076,36.31123129000008],[59.750124908000032,36.311161256000048],[59.750231844000041,36.311132544000031],[59.75033551100006,36.311104708000073],[59.750447799000028,36.31107455800003],[59.750561481000034,36.31104403300003],[59.75065885600003,36.311017888000038],[59.750674917000083,36.311013494000065],[59.750781336000045,36.310984384000051],[59.750840495000034,36.310968201000037],[59.750976084000058,36.310931111000059],[59.751066127000058,36.310906479000039],[59.751230517000067,36.310861511000041],[59.751343913000028,36.310830490000058],[59.751498080000033,36.31078831800005],[59.751577797000039,36.310766510000064],[59.751782509000066,36.310710510000035],[59.752018114000066,36.310646059000078],[59.752079690000073,36.310629214000073],[59.752162891000069,36.310606453000048],[59.752239639000038,36.310585458000048],[59.752333510000028,36.310559778000027],[59.752451820000033,36.310527413000045],[59.752557712000055,36.310498445000064],[59.752742734000037,36.310447829000054],[59.752769357000034,36.310440545000063],[59.753042791000041,36.310365743000034],[59.753117081000028,36.310345420000033],[59.753289989000052,36.310298117000059],[59.753531520000081,36.310232040000074],[59.753578767000079,36.310219115000052],[59.753749056000061,36.310172528000066],[59.75391423800005,36.310127338000029],[59.753936702000033,36.310121192000054],[59.754092347000039,36.310078611000051],[59.754189702000076,36.310051977000057],[59.754298741000071,36.310022146000051],[59.754396750000069,36.309995332000028],[59.75453200000004,36.30995832900004],[59.754642029000081,36.309928227000057],[59.75480165700003,36.309884555000053],[59.754926900000044,36.309850291000032],[59.755112082000039,36.309799626000029],[59.75524192000006,36.309764104000067],[59.755367162000027,36.309729838000067],[59.755472397000062,36.309701047000033],[59.755636567000067,36.309656131000054],[59.755748936000032,36.30962538700004],[59.755884220000041,36.309588374000043],[59.755992449000075,36.309558762000052],[59.756116659000043,36.309524779000071],[59.756186734000039,36.309505606000073],[59.756330448000028,36.309466286000031],[59.756507663000036,36.309417799000073],[59.756674129000032,36.309372253000049],[59.756770415000062,36.309345909000058],[59.756923965000055,36.309303896000074],[59.756995356000061,36.309284363000074],[59.757208379000076,36.309225967000032],[59.757408439000073,36.309171123000056],[59.757419648000052,36.309168051000029],[59.757610367000041,36.309115768000026],[59.757834376000062,36.309054359000072],[59.757852028000059,36.309049519000041],[59.758047997000062,36.30899579700008],[59.758161199000028,36.308964763000063],[59.758330876000059,36.308918248000055],[59.758434849000082,36.308889744000055],[59.758559777000073,36.308855496000035],[59.758690043000058,36.308819784000036],[59.758784501000036,36.308793888000025],[59.758932195000057,36.308753398000079],[59.759085301000027,36.30871142400008],[59.75918303800006,36.308684630000073],[59.759270315000037,36.308660702000054],[59.759370025000067,36.308633366000038],[59.759413989000052,36.30862131300006],[59.75949552700007,36.308598959000051],[59.759508280000034,36.308595463000074],[59.759650958000066,36.308556347000035],[59.759662005000052,36.308553318000065],[59.759827292000068,36.308508003000043],[59.759991903000071,36.308462873000053],[59.760002726000039,36.308459928000048],[59.760044420000042,36.30844858100005],[59.760100243000068,36.308433388000026],[59.760219112000073,36.308401037000067],[59.760358740000072,36.30836303500007],[59.760496090000061,36.308325653000054],[59.760652650000054,36.308283043000074],[59.760757699000067,36.308254452000028],[59.760893101000079,36.308217599000045],[59.761008113000059,36.308186296000031],[59.761145768000063,36.30814883100004],[59.761236770000039,36.308124063000037],[59.761394371000051,36.308081168000058],[59.761542797000061,36.308040770000048],[59.761758265000083,36.307982124000034],[59.761863360000063,36.307953520000069],[59.762090132000083,36.307891796000035],[59.762240145000078,36.307850966000046],[59.762249473000054,36.307848427000067],[59.762434983000048,36.307797934000064],[59.762535459000048,36.307770586000061],[59.76273399400003,36.30771654800003],[59.76284034400004,36.307687600000065],[59.763048965000053,36.307630815000039],[59.76310155200008,36.30761650200003],[59.763285343000064,36.307566476000034],[59.763471184000082,36.307515890000047],[59.763585955000053,36.307484651000038],[59.763855358000058,36.307411319000039],[59.764053735000061,36.30735732100004],[59.764141822000056,36.307333344000028],[59.764176613000075,36.30732387300003],[59.764423887000078,36.307256564000056],[59.764567296000052,36.307217528000024],[59.764606790000073,36.307206778000079],[59.764617523000027,36.307204637000041],[59.764628545000051,36.307203958000059],[59.764639554000041,36.307204761000037],[59.764650250000045,36.307207023000046],[59.764930496000034,36.307402916000058],[59.76492896600007,36.307413839000048],[59.76492264400008,36.307428402000028],[59.764919065000072,36.30743422200004],[59.764910993000058,36.307443063000051],[59.764901147000046,36.307450635000066],[59.764895397000032,36.30745371900008],[59.764877374000037,36.307461099000079],[59.763311474000034,36.307886041000074],[59.757115322000061,36.309572260000039],[59.751355299000068,36.311144349000074],[59.749611650000077,36.311620661000063],[59.749051374000032,36.311770067000054],[59.745847558000037,36.312624356000072],[59.745840878000081,36.312625874000048],[59.745838296000045,36.312626324000064],[59.744558803000075,36.312831153000047],[59.744101427000032,36.312904370000069],[59.743035320000047,36.313075023000067],[59.742167524000081,36.313213924000024],[59.74206093600003,36.313230984000029],[59.741047774000037,36.313393145000077],[59.739947243000074,36.313569289000043],[59.738810018000038,36.313751294000042],[59.737462116000074,36.313970434000055],[59.732724261000044,36.314739621000058],[59.730192921000082,36.315150499000026],[59.726910191000059,36.315670561000047],[59.726499105000073,36.315736027000071],[59.724868214000082,36.316034463000051],[59.724582901000076,36.316093652000063],[59.724407615000075,36.316130016000045],[59.720936943000027,36.317703404000042],[59.719961530000035,36.318161017000079],[59.719807383000045,36.318314916000077],[59.718269699000075,36.319059363000065],[59.717488152000044,36.319431072000043],[59.716504437000083,36.31988820600003],[59.715608527000029,36.32030452500004],[59.714136732000043,36.320988427000032],[59.712670230000072,36.32167471300005],[59.71212646500004,36.321920514000055],[59.711467613000082,36.322201436000057],[59.711068917000034,36.322242888000062],[59.708234020000077,36.321693973000038],[59.707910347000052,36.321631296000078],[59.705965712000079,36.32128275000008],[59.705068100000062,36.321170390000077],[59.704365796000047,36.321049989000073],[59.704218634000028,36.321024760000057],[59.704006522000043,36.321023130000071],[59.70359082300007,36.321019937000074],[59.703376781000031,36.321083939000061],[59.702419860000077,36.321880371000077],[59.700843297000063,36.323192472000073],[59.700219145000062,36.323711908000064],[59.700009072000057,36.323869976000026],[59.698857000000032,36.324567840000043],[59.698853335000081,36.324569929000063],[59.698666442000047,36.324670108000078],[59.698204633000046,36.324949437000043],[59.698203023000076,36.324950384000033],[59.695849686000031,36.326299354000071],[59.69581284700007,36.326320470000041],[59.69279930700003,36.328041786000028],[59.692549132000067,36.32817955400003],[59.69178339900003,36.328601211000034],[59.691778093000039,36.328603832000056],[59.691109456000049,36.328904927000053],[59.688629998000067,36.330021407000061],[59.688285633000078,36.330177809000077],[59.688134328000046,36.330246528000032],[59.686281523000048,36.331087994000029],[59.684792166000079,36.331762425000079],[59.682769248000056,36.332668392000073],[59.677221583000062,36.335158721000028],[59.676061777000029,36.335726193000028],[59.674967309000067,36.336261679000074],[59.673790832000066,36.336840325000026],[59.672575235000068,36.33745491600007],[59.671710943000051,36.33789187900004],[59.670633099000042,36.338436794000074],[59.668810479000058,36.339347474000078],[59.664530365000076,36.341516477000027],[59.664079890000039,36.341734015000043],[59.662622089000081,36.342479046000051],[59.662620288000028,36.342480008000052],[59.662619069000073,36.342480632000047],[59.660520463000069,36.343531260000077],[59.660518602000082,36.343532172000039],[59.657948948000069,36.344818543000031],[59.657807822000052,36.344890043000078],[59.657288288000075,36.345158481000055],[59.655734455000072,36.346082866000074],[59.654671915000051,36.346662926000079],[59.654559362000043,36.346694464000052],[59.65455946700007,36.346704359000057],[59.654557656000065,36.346714146000068],[59.654553976000045,36.346723583000028],[59.654548515000045,36.346732437000071],[59.654541410000036,36.346740492000038],[59.654532834000065,36.346747549000042],[59.654527009000049,36.34675164500004],[59.654520765000029,36.34675560200003],[59.654457217000072,36.34679181000007],[59.654310485000053,36.346878964000041],[59.654309008000041,36.346879821000073],[59.653775323000048,36.347181586000033],[59.653673210000079,36.347241220000058],[59.653668697000057,36.34724385700008],[59.653588971000033,36.347292275000029],[59.653587105000042,36.34729337400006],[59.652778727000054,36.347754662000057],[59.651341519000027,36.348572329000035],[59.648693556000069,36.350079295000057],[59.648005647000048,36.350473979000071],[59.64601331700004,36.35161701800007],[59.642725556000073,36.353505878000078],[59.642724285000043,36.35350658200008],[59.642720960000077,36.353508379000061],[59.642713040000046,36.353512666000029],[59.642584775000046,36.353582065000069],[59.642572783000048,36.353588554000055],[59.642571627000052,36.35358917800005],[59.642563935000055,36.353593243000034],[59.642247875000066,36.353772980000031],[59.639443982000046,36.355391299000075],[59.635129789000075,36.357859616000042],[59.631456423000031,36.359963734000075],[59.631053578000035,36.360194515000046],[59.631050595000033,36.360196171000041],[59.628241929000069,36.361804666000069],[59.627668644000039,36.362132554000027],[59.627127647000066,36.362441967000052],[59.626493985000081,36.362804375000053],[59.626477067000053,36.362814051000043],[59.621971722000069,36.365390173000037],[59.620896916000049,36.366004587000077],[59.620047494000062,36.366488558000071],[59.619980343000066,36.366526818000068],[59.61849128700004,36.367375199000037],[59.617825517000028,36.36775450600004],[59.61762364100008,36.367882017000056],[59.615282512000078,36.370239936000075],[59.614978366000059,36.370531694000078],[59.614974860000075,36.370534716000066],[59.614775345000055,36.370695724000029],[59.61177327200005,36.373048252000046],[59.611239459000046,36.373466545000042],[59.611234657000068,36.373469950000072],[59.611085797000044,36.373567028000025],[59.610956596000051,36.373651284000061],[59.610946866000063,36.373656699000037],[59.610936237000033,36.373660864000044],[59.610652089000041,36.373751423000044],[59.610643346000074,36.373753738000062],[59.606439744000056,36.374648404000027],[59.606438792000063,36.374648616000059],[59.606436389000066,36.374649163000072],[59.606127478000076,36.374719447000075],[59.603426901000034,36.375949935000051],[59.601434762000054,36.376890697000078],[59.601116332000061,36.37703894100008],[59.599563322000051,36.377761918000033],[59.599316955000063,36.377876606000029],[59.596911097000032,36.37899653900007],[59.596757905000061,36.379067847000044],[59.594742030000077,36.380011330000059],[59.592036890000031,36.38127320600006],[59.590187785000069,36.38213279100006],[59.589151356000059,36.38261443600004],[59.588367907000077,36.382978506000029],[59.586228686000027,36.383973101000038],[59.58491674000004,36.384585181000034],[59.584626291000063,36.384720681000033],[59.581627555000068,36.386117452000065],[59.578824257000065,36.387421159000041],[59.577931054000032,36.387836531000062],[59.577418390000048,36.388074933000041],[59.576374370000053,36.38855880400007],[59.576228894000053,36.388626226000042],[59.574786505000077,36.389298914000051],[59.574090248000061,36.389623391000043],[59.572827974000063,36.390211633000035],[59.571796119000055,36.390692478000062],[59.570811338000055,36.391169160000061],[59.569602559000032,36.39175424900003],[59.569290497000054,36.391905293000036],[59.569288455000049,36.391906282000036],[59.569254396000076,36.391926260000048],[59.569202397000026,36.391958339000041],[59.569199660000038,36.391959965000069],[59.569142971000076,36.391992133000031],[59.56914174700006,36.391992825000045],[59.567784756000037,36.392804929000079],[59.567322795000052,36.393081552000069],[59.565609221000045,36.394107610000049],[59.564088148000053,36.395018360000051],[59.562248149000027,36.39612134500004],[59.56102468000006,36.396854921000056],[59.560210355000038,36.397343165000052],[59.559676743000068,36.397663097000077],[59.559213795000062,36.39794065500007],[59.556974823000076,36.399284382000076],[59.554573819000041,36.400725384000054],[59.553384065000046,36.401438130000031],[59.553358403000061,36.401458361000039],[59.553317307000043,36.401493007000056],[59.553283674000056,36.401530389000072],[59.552248659000043,36.402680679000071],[59.551238416000047,36.403803400000072],[59.550493120000056,36.404634123000051],[59.549893882000049,36.405303210000056],[59.54906068400004,36.406233503000067],[59.548631559000057,36.406712625000068],[59.548339622000071,36.407037226000057],[59.547062398000037,36.408457314000032],[59.546750784000039,36.408803773000045],[59.545969378000052,36.409672545000035],[59.545491682000034,36.410203637000052],[59.544900204000044,36.410861218000036],[59.544658023000068,36.411130461000027],[59.543188718000067,36.412772048000079],[59.542216615000029,36.413859682000066],[59.542159341000058,36.413923763000071],[59.541978528000072,36.414122933000044],[59.541975897000043,36.414125637000041],[59.541823614000066,36.414270720000047],[59.541479196000068,36.414475270000025],[59.541330935000076,36.414562766000074],[59.540979247000053,36.414770313000076],[59.540886424000064,36.414825086000064],[59.540112892000082,36.415264142000069],[59.538928203000069,36.415936544000033],[59.538539481000043,36.416157168000041],[59.537183073000051,36.416924548000054],[59.534807972000067,36.418268040000044],[59.533502669000029,36.419006300000035],[59.532002359000046,36.419853296000042],[59.530976966000082,36.42043215800004],[59.530450693000034,36.420731106000062],[59.528367801000059,36.421914242000071],[59.527926400000069,36.422164961000078],[59.524975831000063,36.423830738000049],[59.524949264000043,36.423845675000052],[59.524924585000065,36.423859551000078],[59.524891025000045,36.42387842200003],[59.524748270000032,36.423958691000053],[59.524046096000063,36.424356712000076],[59.523250675000043,36.424807580000049],[59.521149766000065,36.42599535800008],[59.518478340000058,36.42751167800003],[59.518034577000037,36.427761872000076],[59.517720714000063,36.427938825000069],[59.516756853000061,36.428482232000079],[59.514579437000066,36.429713511000045],[59.514127635000079,36.429969775000075],[59.512873051000042,36.430681359000062],[59.511247727000068,36.431602576000046],[59.510488955000028,36.432207744000038],[59.508936711000047,36.433445175000031],[59.508015036000074,36.434175156000038],[59.506915652000032,36.435045860000059],[59.506562303000067,36.435325703000046],[59.50645712000005,36.435406962000059],[59.505456639000045,36.43617987500005],[59.503953071000069,36.437341397000068],[59.503502194000077,36.437689695000074],[59.503456680000056,36.437724853000077],[59.503455386000041,36.437725821000072],[59.502657111000076,36.438307820000034],[59.501059115000032,36.439472835000061],[59.500920214000075,36.439574097000047],[59.499256990000049,36.440782804000037],[59.499009533000049,36.440962633000026],[59.498050609000074,36.441659475000051],[59.496945509000057,36.442465696000056],[59.49591027200006,36.443221129000051],[59.494891391000067,36.443964582000035],[59.493553297000062,36.444940963000079],[59.49227382600003,36.445872693000069],[59.49114404200003,36.446690929000056],[59.490244549000067,36.447345814000073],[59.49044419300003,36.447532496000065],[59.489356032000046,36.448293342000056],[59.488765476000083,36.448564641000075],[59.488672851000047,36.448591036000039],[59.488495882000052,36.448658493000039],[59.488408857000081,36.448714039000038],[59.487704480000048,36.449187520000066],[59.487703886000077,36.449188003000074],[59.487631080000028,36.44924724100008],[59.487351353000065,36.449428537000074],[59.486642843000027,36.449738914000079],[59.48560595500004,36.450159350000035],[59.48189724000008,36.451677581000069],[59.479339547000052,36.452727882000033],[59.479317571000081,36.452736427000048],[59.479317286000082,36.452736537000078],[59.479217555000048,36.452774633000047],[59.479179076000037,36.452790930000049],[59.479141949000052,36.452805377000061],[59.479141801000083,36.452805433000037],[59.478869614000075,36.452910744000064],[59.478778828000031,36.452954243000079],[59.478777359000048,36.452954897000041],[59.478769786000043,36.452958196000054],[59.478709362000075,36.452986415000055],[59.478707396000061,36.452987328000063],[59.478073236000057,36.453247182000041],[59.474392218000048,36.454751888000033],[59.473766239000042,36.455007532000025],[59.471475551000083,36.455953044000069],[59.468926833000069,36.456869522000034],[59.467960548000065,36.457216964000054],[59.467350510000074,36.45743572400005],[59.462427980000029,36.459205182000062],[59.461962859000039,36.459373726000024],[59.461961758000029,36.459374125000068],[59.46161401300003,36.459493101000078],[59.461613838000062,36.459493162000058],[59.461528900000076,36.459522221000043],[59.461504409000042,36.459529544000077],[59.456413690000034,36.461355366000078],[59.453410614000063,36.462432301000035],[59.448889791000056,36.464057017000073],[59.447162168000034,36.464677836000078],[59.446894562000068,36.464773998000055],[59.446870374000071,36.464783401000034],[59.446868520000066,36.464784031000079],[59.446864151000057,36.464785523000046],[59.44686404600003,36.464785559000063],[59.446799755000029,36.464807502000042],[59.445967594000081,36.465108440000051],[59.441537316000051,36.466713728000059],[59.441248892000033,36.466818581000041],[59.441220527000041,36.466828895000049],[59.44114625800006,36.466855893000059],[59.439505875000066,36.46743686700006],[59.438030819000062,36.467950146000078],[59.437649294000039,36.468086879000055],[59.437520474000053,36.468018710000024],[59.437440508000066,36.46805112900006],[59.437189886000056,36.468247835000057],[59.437178556000049,36.468255058000068],[59.43716984100007,36.468259006000039],[59.437067641000056,36.468298598000047],[59.437064175000046,36.46829985800008],[59.432934425000042,36.469695305000073],[59.432270079000034,36.469919769000057],[59.429839633000029,36.47074090600006],[59.429676444000052,36.47079603800006],[59.428681984000036,36.471112327000071],[59.425938254000073,36.471997682000051],[59.420802337000055,36.473655320000034],[59.420026623000069,36.473905746000071],[59.418305424000039,36.474462177000078],[59.416638135000028,36.475008256000024],[59.416305021000028,36.475117355000066],[59.415444501000081,36.475399181000057],[59.414486442000054,36.475712944000065],[59.414061372000049,36.475852871000029],[59.413838835000035,36.475933247000057],[59.413834443000042,36.475934667000047],[59.413491687000032,36.476035697000043],[59.411842746000048,36.476592219000054],[59.410391434000076,36.477075346000049],[59.409758311000076,36.477286099000025],[59.409105747000069,36.477503318000061],[59.409023078000075,36.477530663000039],[59.408486838000044,36.477708035000035],[59.407821194000064,36.477928204000079],[59.407267016000048,36.478111501000058],[59.406705762000058,36.478297135000048],[59.406616456000052,36.478327568000054],[59.406027796000046,36.478528158000074],[59.405652063000048,36.478656190000038],[59.405499500000076,36.478706570000043],[59.404980820000048,36.478877849000071],[59.404321848000052,36.479095451000035],[59.403746856000055,36.479285318000052],[59.403087980000066,36.479502879000052],[59.402581575000056,36.479670063000071],[59.402580370000067,36.479670461000069],[59.401996598000039,36.479858253000032],[59.401961651000079,36.479869647000044],[59.401540995000062,36.480006797000044],[59.400923624000029,36.480208079000079],[59.400479576000066,36.480352850000031],[59.399926277000077,36.480533238000078],[59.399390909000033,36.480700489000071],[59.398861565000061,36.480861837000077],[59.398448035000058,36.480992693000076],[59.397811458000035,36.48119527700004],[59.397437210000078,36.481314375000068],[59.396897567000053,36.481486105000045],[59.39645574900004,36.481626702000028],[59.395933548000073,36.481792875000053],[59.39562114000006,36.481892650000077],[59.395005419000029,36.482091657000069],[59.395000017000029,36.482093402000032],[59.39456159000008,36.48223510400004],[59.394550116000062,36.482238706000032],[59.394152912000038,36.482363403000079],[59.39369600100008,36.482506841000031],[59.393278666000072,36.482637854000075],[59.392914139000027,36.482752287000039],[59.392296393000038,36.482946209000033],[59.392128635000063,36.482998870000074],[59.391776193000055,36.483109505000073],[59.391180821000034,36.483297571000037],[59.39084289200008,36.483404759000052],[59.390233142000056,36.483598165000046],[59.389791574000071,36.483738223000046],[59.38936663000004,36.483874327000024],[59.389001699000062,36.483992213000079],[59.388949721000074,36.484009262000029],[59.388421678000043,36.48417700300007],[59.388122931000055,36.484271309000064],[59.387615304000064,36.484431552000046],[59.387247722000041,36.48454758500003],[59.387057089000052,36.484607761000063],[59.386638907000076,36.484739764000039],[59.386634492000042,36.484741325000073],[59.386632579000036,36.484741942000028],[59.386454547000028,36.484798498000032],[59.386398215000042,36.484816394000063],[59.386314423000044,36.484843012000056],[59.38592495100005,36.484966738000026],[59.385583616000076,36.485075170000073],[59.385157570000047,36.485210511000048],[59.384855262000031,36.485306543000036],[59.384798756000066,36.485324492000075],[59.384743196000045,36.485342096000068],[59.384546511000053,36.48540409900005],[59.384103072000073,36.485543887000063],[59.383719299000063,36.485664865000047],[59.383277500000077,36.485804132000055],[59.382936774000029,36.48591153700005],[59.382612671000061,36.486013700000058],[59.382179281000049,36.486150312000063],[59.381738080000048,36.486289382000052],[59.381152243000031,36.486474042000054],[59.380747930000041,36.486602325000035],[59.380413846000067,36.486708408000027],[59.37987333500007,36.48688003400008],[59.379525706000038,36.486990414000047],[59.379195367000079,36.487095862000047],[59.378775374000043,36.487230179000051],[59.378482726000072,36.487323768000067],[59.37809680600003,36.487447186000054],[59.377715802000068,36.487569029000042],[59.377393144000052,36.487672212000064],[59.37718189800006,36.487739767000051],[59.376894103000041,36.487831799000048],[59.376613847000044,36.487921420000077],[59.376281414000061,36.488027725000052],[59.376256765000051,36.488035412000045],[59.375878893000049,36.488153241000077],[59.375857701000029,36.488159850000045],[59.375510130000066,36.488281086000029],[59.375454273000059,36.488293316000068],[59.375420603000066,36.488299656000038],[59.375417306000031,36.48830021200007],[59.375378898000065,36.488305992000051],[59.375374246000035,36.48830657600007],[59.375342629000045,36.488309757000025],[59.375336704000063,36.488310168000055],[59.375290533000054,36.488311829000054],[59.375285162000068,36.488311874000033],[59.375246057000027,36.488311106000026],[59.375242871000069,36.488310991000048],[59.375202844000057,36.48830887500003],[59.375186115000076,36.488307722000059],[59.375020244000041,36.488288298000043],[59.374864842000079,36.488243374000035],[59.374500911000041,36.488141858000063],[59.374346052000078,36.488099206000072],[59.374340047000032,36.48809766800008],[59.374344260000044,36.488098712000067],[59.374262720000047,36.488076254000077],[59.374209288000031,36.48806357400008],[59.374208105000037,36.488063286000056],[59.374175834000027,36.488055631000066]]]},"properties":{"OBJECTID":2,"Name":"84530.761065","FolderPath":"Temporary Places/حریم 7 متری گاز/harim_gas_7","SymbolID":0,"AltMode":0,"Base":0,"Clamped":-1,"Extruded":0,"Snippet":"","PopupInfo":"\u003chtml xmlns:fo=\"http://www.w3.org/1999/XSL/Format\" xmlns:msxsl=\"urn:schemas-microsoft-com:xslt\"\u003e\n\n\u003chead\u003e\n\n\u003cMETA http-equiv=\"Content-Type\" content=\"text/html\"\u003e\n\n\u003cmeta http-equiv=\"content-type\" content=\"text/html; charset=UTF-8\"\u003e\n\n\u003c/head\u003e\n\n\u003cbody style=\"margin:0px 0px 0px 0px;overflow:auto;background:#FFFFFF;\"\u003e\n\n\u003ctable style=\"font-family:Arial,Verdana,Times;font-size:12px;text-align:left;width:100%;border-collapse:collapse;padding:3px 3px 3px 3px\"\u003e\n\n\u003ctr style=\"text-align:center;font-weight:bold;background:#9CBCE2\"\u003e\n\n\u003ctd\u003e84530.761065\u003c/td\u003e\n\n\u003c/tr\u003e\n\n\u003ctr\u003e\n\n\u003ctd\u003e\n\n\u003ctable style=\"font-family:Arial,Verdana,Times;font-size:12px;text-align:left;width:100%;border-spacing:0px; padding:3px 3px 3px 3px\"\u003e\n\n\u003ctr\u003e\n\n\u003ctd\u003eSHAPE\u003c/td\u003e\n\n\u003ctd\u003ePolygon\u003c/td\u003e\n\n\u003c/tr\u003e\n\n\u003ctr bgcolor=\"#D4E4F3\"\u003e\n\n\u003ctd\u003eSHAPE_Length\u003c/td\u003e\n\n\u003ctd\u003e84530.761065\u003c/td\u003e\n\n\u003c/tr\u003e\n\n\u003ctr\u003e\n\n\u003ctd\u003eSHAPE_Area\u003c/td\u003e\n\n\u003ctd\u003e1109114.582692\u003c/td\u003e\n\n\u003c/tr\u003e\n\n\u003c/table\u003e\n\n\u003c/td\u003e\n\n\u003c/tr\u003e\n\n\u003c/table\u003e\n\n\u003c/body\u003e\n\n\u003c/html\u003e","Shape_Length":0.89666110676633448,"Shape_Area":0.00011135706529274042}}]}