{"type":"FeatureCollection","features":[{"type":"Feature","id":1,"geometry":{"type":"LineString","coordinates":[[59.490446998000039,36.447356052000032],[59.490502640000045,36.447408059000054],[59.490523410000037,36.447430887000053],[59.490539493000028,36.44745606400005],[59.490550491000079,36.447482966000052],[59.490556133000041,36.447510928000042],[59.490556278000042,36.447539261000031],[59.490550923000058,36.447567260000028],[59.490540202000034,36.447594235000054],[59.490524379000078,36.447619519000057],[59.490503845000035,36.447642485000074],[59.490479107000056,36.447662567000066],[59.490421724000043,36.447702341000024],[59.489456755000049,36.44837775700006],[59.489426566000077,36.448395451000067],[59.488843166000038,36.448663640000063],[59.48881357700003,36.448674904000029],[59.488723974000038,36.448700623000036],[59.488626080000074,36.448732389000043],[59.488577994000082,36.448755300000073],[59.488500119000037,36.448805004000064],[59.48780246900003,36.449273965000032],[59.487728734000029,36.449333353000043],[59.487434673000052,36.449523427000031],[59.486709880000035,36.449842686000068],[59.484739540000078,36.450641655000027],[59.48258441400003,36.451526727000044],[59.47939184300003,36.45283747600007],[59.479282195000053,36.452879453000037],[59.479244161000054,36.452895503000036],[59.479204047000053,36.452911167000025],[59.478938022000079,36.453014095000071],[59.478847123000037,36.453057469000044],[59.478776392000043,36.453090195000073],[59.477143143000035,36.45375957300007],[59.474784815000078,36.454722747000062],[59.473831657000062,36.455112008000071],[59.471537970000043,36.456058616000064],[59.468019386000037,36.457323965000057],[59.463636492000035,36.458895571000028],[59.462019784000063,36.459481400000072],[59.461670558000037,36.459600905000059],[59.46157067300004,36.45963452500007],[59.453471446000037,36.462538557000073],[59.446955469000045,36.464880255000025],[59.446926785000073,36.464891171000033],[59.446857605000048,36.464914860000079],[59.443266718000075,36.466213393000032],[59.44129420400003,36.466930501000036],[59.441205108000077,36.466962885000044],[59.439563657000065,36.467544241000041],[59.438088867000033,36.468057429000055],[59.437780933000056,36.468167774000051],[59.437746200000049,36.46817855300003],[59.437709762000054,36.468184636000046],[59.43767258400004,36.468185861000052],[59.437635653000029,36.468182195000054],[59.437599949000059,36.46817373600004],[59.437566418000074,36.468160708000028],[59.437535951000029,36.468143456000064]]},"properties":{"OBJECTID":1,"Name":"Placemark","FolderPath":"حریم 20 متری گاز/Harim20_Gaz_Project","SymbolID":0,"AltMode":0,"Base":0,"Clamped":-1,"Extruded":0,"Snippet":"","PopupInfo":"\u003chtml xmlns:fo=\"http://www.w3.org/1999/XSL/Format\" xmlns:msxsl=\"urn:schemas-microsoft-com:xslt\"\u003e\n\n\u003chead\u003e\n\n\u003cMETA http-equiv=\"Content-Type\" content=\"text/html\"\u003e\n\n\u003cmeta http-equiv=\"content-type\" content=\"text/html; charset=UTF-8\"\u003e\n\n\u003c/head\u003e\n\n\u003cbody style=\"margin:0px 0px 0px 0px;overflow:auto;background:#FFFFFF;\"\u003e\n\n\u003ctable style=\"font-family:Arial,Verdana,Times;font-size:12px;text-align:left;width:100%;border-collapse:collapse;padding:3px 3px 3px 3px\"\u003e\n\n\u003ctr style=\"text-align:center;font-weight:bold;background:#9CBCE2\"\u003e\n\n\u003ctd\u003e\u003c/td\u003e\n\n\u003c/tr\u003e\n\n\u003ctr\u003e\n\n\u003ctd\u003e\n\n\u003ctable style=\"font-family:Arial,Verdana,Times;font-size:12px;text-align:left;width:100%;border-spacing:0px; padding:3px 3px 3px 3px\"\u003e\n\n\u003ctr\u003e\n\n\u003ctd\u003eEntity\u003c/td\u003e\n\n\u003ctd\u003eLWPolyline\u003c/td\u003e\n\n\u003c/tr\u003e\n\n\u003ctr bgcolor=\"#D4E4F3\"\u003e\n\n\u003ctd\u003eLayer\u003c/td\u003e\n\n\u003ctd\u003eall_20\u003c/td\u003e\n\n\u003c/tr\u003e\n\n\u003ctr\u003e\n\n\u003ctd\u003eColor\u003c/td\u003e\n\n\u003ctd\u003e5\u003c/td\u003e\n\n\u003c/tr\u003e\n\n\u003ctr bgcolor=\"#D4E4F3\"\u003e\n\n\u003ctd\u003eLinetype\u003c/td\u003e\n\n\u003ctd\u003eContinuous\u003c/td\u003e\n\n\u003c/tr\u003e\n\n\u003ctr\u003e\n\n\u003ctd\u003eElevation\u003c/td\u003e\n\n\u003ctd\u003e0\u003c/td\u003e\n\n\u003c/tr\u003e\n\n\u003ctr bgcolor=\"#D4E4F3\"\u003e\n\n\u003ctd\u003eLineWt\u003c/td\u003e\n\n\u003ctd\u003e25\u003c/td\u003e\n\n\u003c/tr\u003e\n\n\u003ctr\u003e\n\n\u003ctd\u003eRefName\u003c/td\u003e\n\n\u003ctd\u003e\u003c/td\u003e\n\n\u003c/tr\u003e\n\n\u003c/table\u003e\n\n\u003c/td\u003e\n\n\u003c/tr\u003e\n\n\u003c/table\u003e\n\n\u003c/body\u003e\n\n\u003c/html\u003e","Shape_Length":0.057263431567526071}},{"type":"Feature","id":2,"geometry":{"type":"LineString","coordinates":[[59.719755981000048,36.317976281000028],[59.719785563000073,36.317945275000056],[59.72001584000003,36.317703116000075],[59.720037080000054,36.317683817000045],[59.720156907000046,36.317590160000066],[59.72034885000005,36.317467042000033],[59.724015761000032,36.315811332000067],[59.724135250000074,36.31576024900005],[59.724198527000055,36.315733438000052],[59.724233992000052,36.315721606000068],[59.724331182000071,36.31569737600006],[59.724482798000054,36.31565984100007],[59.724979440000027,36.315569628000048],[59.725890407000065,36.315421317000073],[59.728016564000029,36.315075127000057],[59.729323958000066,36.314863073000026],[59.729370298000049,36.31485559500004],[59.729459741000028,36.314841158000036],[59.729513284000063,36.314832514000045],[59.729608454000072,36.314817150000067],[59.729815547000044,36.314783720000037],[59.738703907000058,36.313327548000075],[59.73987414000004,36.313137895000068],[59.742037420000031,36.312787282000045],[59.742106566000075,36.312776070000041],[59.743513678000056,36.312547987000073],[59.743824274000076,36.312494529000048],[59.744441628000061,36.312388272000078],[59.744702791000066,36.312343349000059],[59.745711396000047,36.312191208000058],[59.746132699000043,36.312088826000036],[59.746248014000059,36.312060804000055],[59.746470349000049,36.312006774000054],[59.746648968000045,36.311963367000033],[59.746864698000081,36.311910946000069],[59.747001645000068,36.311876343000051],[59.747044197000037,36.311865590000025],[59.748749131000068,36.31138689800008],[59.749426038000081,36.311197410000034],[59.749547308000047,36.311173026000063],[59.749672218000057,36.311142437000058],[59.749807756000052,36.311113525000053],[59.750609378000036,36.310898286000054],[59.752894180000055,36.310273260000031],[59.756945407000046,36.309164888000055],[59.759941746000038,36.308343457000035],[59.764557115000059,36.307087228000057],[59.764594095000064,36.30707958000005],[59.76463214100005,36.307077095000068],[59.764670158000058,36.307079844000043],[59.764707056000077,36.307087748000072],[59.764741776000051,36.307100581000043],[59.764773319000028,36.307117973000061],[59.764800784000045,36.307139427000038],[59.764823379000063,36.307164325000031],[59.764840456000059,36.307191954000075],[59.76485152500004,36.307221519000052]]},"properties":{"OBJECTID":2,"Name":"Placemark","FolderPath":"حریم 20 متری گاز/Harim20_Gaz_Project","SymbolID":0,"AltMode":0,"Base":0,"Clamped":-1,"Extruded":0,"Snippet":"","PopupInfo":"\u003chtml xmlns:fo=\"http://www.w3.org/1999/XSL/Format\" xmlns:msxsl=\"urn:schemas-microsoft-com:xslt\"\u003e\n\n\u003chead\u003e\n\n\u003cMETA http-equiv=\"Content-Type\" content=\"text/html\"\u003e\n\n\u003cmeta http-equiv=\"content-type\" content=\"text/html; charset=UTF-8\"\u003e\n\n\u003c/head\u003e\n\n\u003cbody style=\"margin:0px 0px 0px 0px;overflow:auto;background:#FFFFFF;\"\u003e\n\n\u003ctable style=\"font-family:Arial,Verdana,Times;font-size:12px;text-align:left;width:100%;border-collapse:collapse;padding:3px 3px 3px 3px\"\u003e\n\n\u003ctr style=\"text-align:center;font-weight:bold;background:#9CBCE2\"\u003e\n\n\u003ctd\u003e\u003c/td\u003e\n\n\u003c/tr\u003e\n\n\u003ctr\u003e\n\n\u003ctd\u003e\n\n\u003ctable style=\"font-family:Arial,Verdana,Times;font-size:12px;text-align:left;width:100%;border-spacing:0px; padding:3px 3px 3px 3px\"\u003e\n\n\u003ctr\u003e\n\n\u003ctd\u003eEntity\u003c/td\u003e\n\n\u003ctd\u003eLWPolyline\u003c/td\u003e\n\n\u003c/tr\u003e\n\n\u003ctr bgcolor=\"#D4E4F3\"\u003e\n\n\u003ctd\u003eLayer\u003c/td\u003e\n\n\u003ctd\u003eall_20\u003c/td\u003e\n\n\u003c/tr\u003e\n\n\u003ctr\u003e\n\n\u003ctd\u003eColor\u003c/td\u003e\n\n\u003ctd\u003e5\u003c/td\u003e\n\n\u003c/tr\u003e\n\n\u003ctr bgcolor=\"#D4E4F3\"\u003e\n\n\u003ctd\u003eLinetype\u003c/td\u003e\n\n\u003ctd\u003eContinuous\u003c/td\u003e\n\n\u003c/tr\u003e\n\n\u003ctr\u003e\n\n\u003ctd\u003eElevation\u003c/td\u003e\n\n\u003ctd\u003e0\u003c/td\u003e\n\n\u003c/tr\u003e\n\n\u003ctr bgcolor=\"#D4E4F3\"\u003e\n\n\u003ctd\u003eLineWt\u003c/td\u003e\n\n\u003ctd\u003e25\u003c/td\u003e\n\n\u003c/tr\u003e\n\n\u003ctr\u003e\n\n\u003ctd\u003eRefName\u003c/td\u003e\n\n\u003ctd\u003e\u003c/td\u003e\n\n\u003c/tr\u003e\n\n\u003c/table\u003e\n\n\u003c/td\u003e\n\n\u003c/tr\u003e\n\n\u003c/table\u003e\n\n\u003c/body\u003e\n\n\u003c/html\u003e","Shape_Length":0.046694987672315773}},{"type":"Feature","id":3,"geometry":{"type":"LineString","coordinates":[[59.720032069000069,36.318263300000069],[59.720022509000046,36.318286134000061],[59.719928500000037,36.31837998900005],[59.719901158000027,36.318402427000024],[59.719869843000083,36.318421155000067],[59.717904121000061,36.319372808000026],[59.713156458000071,36.321578969000029],[59.712461950000034,36.321909735000077],[59.711547524000082,36.322299745000066],[59.711510763000035,36.322311825000043],[59.711472106000031,36.322319050000033],[59.711088112000027,36.322358312000063],[59.711034591000043,36.322355991000052],[59.707877837000069,36.321745426000064],[59.705938960000083,36.321397912000066]]},"properties":{"OBJECTID":3,"Name":"Placemark","FolderPath":"حریم 20 متری گاز/Harim20_Gaz_Project","SymbolID":0,"AltMode":0,"Base":0,"Clamped":-1,"Extruded":0,"Snippet":"","PopupInfo":"\u003chtml xmlns:fo=\"http://www.w3.org/1999/XSL/Format\" xmlns:msxsl=\"urn:schemas-microsoft-com:xslt\"\u003e\n\n\u003chead\u003e\n\n\u003cMETA http-equiv=\"Content-Type\" content=\"text/html\"\u003e\n\n\u003cmeta http-equiv=\"content-type\" content=\"text/html; charset=UTF-8\"\u003e\n\n\u003c/head\u003e\n\n\u003cbody style=\"margin:0px 0px 0px 0px;overflow:auto;background:#FFFFFF;\"\u003e\n\n\u003ctable style=\"font-family:Arial,Verdana,Times;font-size:12px;text-align:left;width:100%;border-collapse:collapse;padding:3px 3px 3px 3px\"\u003e\n\n\u003ctr style=\"text-align:center;font-weight:bold;background:#9CBCE2\"\u003e\n\n\u003ctd\u003e\u003c/td\u003e\n\n\u003c/tr\u003e\n\n\u003ctr\u003e\n\n\u003ctd\u003e\n\n\u003ctable style=\"font-family:Arial,Verdana,Times;font-size:12px;text-align:left;width:100%;border-spacing:0px; padding:3px 3px 3px 3px\"\u003e\n\n\u003ctr\u003e\n\n\u003ctd\u003eEntity\u003c/td\u003e\n\n\u003ctd\u003eLWPolyline\u003c/td\u003e\n\n\u003c/tr\u003e\n\n\u003ctr bgcolor=\"#D4E4F3\"\u003e\n\n\u003ctd\u003eLayer\u003c/td\u003e\n\n\u003ctd\u003eall_20\u003c/td\u003e\n\n\u003c/tr\u003e\n\n\u003ctr\u003e\n\n\u003ctd\u003eColor\u003c/td\u003e\n\n\u003ctd\u003e5\u003c/td\u003e\n\n\u003c/tr\u003e\n\n\u003ctr bgcolor=\"#D4E4F3\"\u003e\n\n\u003ctd\u003eLinetype\u003c/td\u003e\n\n\u003ctd\u003eContinuous\u003c/td\u003e\n\n\u003c/tr\u003e\n\n\u003ctr\u003e\n\n\u003ctd\u003eElevation\u003c/td\u003e\n\n\u003ctd\u003e0\u003c/td\u003e\n\n\u003c/tr\u003e\n\n\u003ctr bgcolor=\"#D4E4F3\"\u003e\n\n\u003ctd\u003eLineWt\u003c/td\u003e\n\n\u003ctd\u003e25\u003c/td\u003e\n\n\u003c/tr\u003e\n\n\u003ctr\u003e\n\n\u003ctd\u003eRefName\u003c/td\u003e\n\n\u003ctd\u003e\u003c/td\u003e\n\n\u003c/tr\u003e\n\n\u003c/table\u003e\n\n\u003c/td\u003e\n\n\u003c/tr\u003e\n\n\u003c/table\u003e\n\n\u003c/body\u003e\n\n\u003c/html\u003e","Shape_Length":0.015114627087064915}},{"type":"Feature","id":4,"geometry":{"type":"LineString","coordinates":[[59.530765925000082,36.420119217000035],[59.532239231000062,36.419285062000029],[59.532560056000079,36.419103291000056],[59.532609003000061,36.419075559000078],[59.535898349000036,36.417211795000071],[59.538263119000078,36.415873118000036],[59.539564589000065,36.415135347000046],[59.540639239000029,36.414530702000036],[59.540728417000082,36.41448052700008],[59.540754475000028,36.414465776000043],[59.541431834000036,36.414082319000045],[59.541527184000074,36.414015521000067],[59.541607624000051,36.413940955000044],[59.54175387600003,36.413775474000033],[59.541944350000051,36.413559299000042],[59.542151334000039,36.413328506000028],[59.543989339000063,36.411276669000074],[59.546634316000052,36.408325467000054],[59.548860782000077,36.405851827000049],[59.549539585000048,36.405099043000064],[59.549782895000078,36.404829213000028],[59.550577514000054,36.403947965000043],[59.551075469000068,36.40339487500006],[59.552574240000069,36.401730101000055],[59.552612087000057,36.401688059000037],[59.552662415000043,36.401632156000062],[59.552786599000058,36.401490169000056],[59.552898263000031,36.401360858000032],[59.552983820000065,36.401276331000076],[59.553041807000056,36.401222587000063],[59.553092099000082,36.401185819000034],[59.553182522000043,36.401122501000032],[59.556305640000062,36.399239897000029],[59.55869496300005,36.397805578000032],[59.560129257000028,36.396945929000026],[59.56170716400004,36.396000167000068],[59.561849324000036,36.395914958000049],[59.564843127000074,36.394131155000025],[59.568256240000039,36.392092712000078],[59.568876035000073,36.391714281000077],[59.568922210000039,36.39168455600003],[59.568956074000027,36.391661270000043],[59.569361452000066,36.391424651000079],[59.569587203000083,36.391288753000026],[59.569754022000041,36.391208178000056],[59.569973219000076,36.391104840000025],[59.574990107000076,36.38879148400008],[59.575060749000045,36.388760965000074],[59.575117444000057,36.388736091000055],[59.57612875600006,36.388269878000074],[59.577242631000047,36.387756367000065],[59.578544367000063,36.387149073000046],[59.582850980000046,36.385139762000051],[59.58301429200003,36.385063561000038],[59.584238977000041,36.384492358000045],[59.586230021000063,36.383563679000076],[59.586715578000053,36.383336569000051],[59.587346370000034,36.383041528000035],[59.592165740000041,36.380795815000056],[59.593189883000036,36.380320038000036],[59.594633480000027,36.379649378000067],[59.596507951000035,36.378778499000077],[59.599759831000028,36.37726299600007],[59.59989353800006,36.377200681000033],[59.601237314000059,36.376574387000062],[59.603947276000042,36.375316395000027],[59.604048229000057,36.375266001000057],[59.60411394700003,36.375233253000033],[59.605733973000042,36.374482719000071],[59.606042264000052,36.374367831000029],[59.606075542000042,36.374358375000043],[59.606319401000064,36.374306337000064],[59.61041453100006,36.373446910000041],[59.61065418000004,36.373377624000057],[59.610689655000044,36.373367367000071],[59.610913427000071,36.373224884000024],[59.611177424000061,36.373029518000067],[59.614575535000029,36.370362715000056],[59.61479263800004,36.370176283000035],[59.614919116000067,36.37004647100008],[59.615957829000081,36.369008045000044],[59.616124332000027,36.368840266000063],[59.616616263000083,36.368344562000061],[59.617215117000057,36.367741552000041],[59.617429550000054,36.367557032000036],[59.617455686000028,36.367538872000068],[59.617728471000078,36.367378403000032],[59.617775274000053,36.367352034000078],[59.618267510000067,36.367074970000033],[59.619611567000049,36.366306184000052],[59.620815679000032,36.365617418000056],[59.62405539000008,36.363764149000076],[59.627384557000028,36.361859200000026],[59.628490360000058,36.361226420000037],[59.631048381000028,36.359769682000035],[59.631082421000031,36.359750297000062],[59.632092997000029,36.359148068000025],[59.632217436000076,36.359075952000069],[59.632249718000082,36.359057246000077],[59.632356482000034,36.358995386000061],[59.632561682000073,36.358878004000076],[59.632633385000076,36.358838239000079],[59.633342628000037,36.358433643000069],[59.633463928000083,36.358363119000046],[59.633498250000059,36.358343008000077],[59.63790272600005,36.35583070000007],[59.641964417000054,36.353506237000033],[59.642297371000041,36.353324806000046],[59.642335460000027,36.353299269000047],[59.64238152300004,36.353269261000037],[59.642450714000063,36.35322717400004],[59.646541093000053,36.35088315400003],[59.648087955000051,36.350008201000037],[59.650863326000035,36.348438271000077],[59.651097264000043,36.348277378000034],[59.653659860000062,36.346823565000079],[59.654469741000071,36.346353667000074],[59.655662015000075,36.345679953000058],[59.657484306000072,36.344608142000027],[59.657527623000078,36.344584929000064],[59.65758366600005,36.344557777000034],[59.657752186000039,36.344476545000077],[59.657781837000073,36.344462254000064],[59.658392486000082,36.344173030000036],[59.660331711000083,36.343254539000043],[59.663879137000038,36.341396472000042],[59.663909149000062,36.341381002000048],[59.663941281000064,36.341364464000037],[59.664010639000082,36.34132978100007],[59.664135101000056,36.341267579000032],[59.66417334700003,36.341248464000046],[59.666954647000068,36.339851988000078],[59.668578723000053,36.339036497000052],[59.669002457000033,36.338822985000036],[59.66912669900006,36.338760380000053],[59.66948852400003,36.338578062000067],[59.669775193000078,36.338438140000051],[59.669927530000052,36.338366819000044],[59.670129945000042,36.338272060000065],[59.670807038000078,36.337945302000037],[59.675058420000028,36.33579003400007],[59.677140745000031,36.33477537300007],[59.680218674000059,36.333399241000052],[59.680980242000032,36.333050024000045],[59.681507805000081,36.332808109000041],[59.681937595000079,36.332611058000055],[59.682009634000053,36.332579905000046],[59.688146018000054,36.329858218000027],[59.688228396000056,36.329821676000051],[59.688463629000069,36.329717325000047],[59.688688908000074,36.329612190000034],[59.690561917000082,36.328738051000073],[59.692191536000053,36.327907100000061],[59.695536743000048,36.326036879000071],[59.695603808000044,36.326000673000067],[59.698254198000029,36.324449286000061],[59.698332814000082,36.324389367000038],[59.698365210000077,36.32436639000008],[59.69856156700007,36.324248651000062],[59.699788489000071,36.323512944000072],[59.70044574800005,36.323078371000065],[59.702201459000037,36.321588990000066],[59.703053921000048,36.320887746000039],[59.703083958000036,36.320867449000048],[59.703117539000061,36.320851189000052],[59.703260731000057,36.320797280000079],[59.70356225300003,36.320717590000072],[59.703608246000044,36.320711155000026],[59.704013584000052,36.320690890000037],[59.704063898000072,36.320693365000068],[59.705200030000071,36.320896365000067],[59.706021141000065,36.32104355000007]]},"properties":{"OBJECTID":4,"Name":"Placemark","FolderPath":"حریم 20 متری گاز/Harim20_Gaz_Project","SymbolID":0,"AltMode":0,"Base":0,"Clamped":-1,"Extruded":0,"Snippet":"","PopupInfo":"\u003chtml xmlns:fo=\"http://www.w3.org/1999/XSL/Format\" xmlns:msxsl=\"urn:schemas-microsoft-com:xslt\"\u003e\n\n\u003chead\u003e\n\n\u003cMETA http-equiv=\"Content-Type\" content=\"text/html\"\u003e\n\n\u003cmeta http-equiv=\"content-type\" content=\"text/html; charset=UTF-8\"\u003e\n\n\u003c/head\u003e\n\n\u003cbody style=\"margin:0px 0px 0px 0px;overflow:auto;background:#FFFFFF;\"\u003e\n\n\u003ctable style=\"font-family:Arial,Verdana,Times;font-size:12px;text-align:left;width:100%;border-collapse:collapse;padding:3px 3px 3px 3px\"\u003e\n\n\u003ctr style=\"text-align:center;font-weight:bold;background:#9CBCE2\"\u003e\n\n\u003ctd\u003e\u003c/td\u003e\n\n\u003c/tr\u003e\n\n\u003ctr\u003e\n\n\u003ctd\u003e\n\n\u003ctable style=\"font-family:Arial,Verdana,Times;font-size:12px;text-align:left;width:100%;border-spacing:0px; padding:3px 3px 3px 3px\"\u003e\n\n\u003ctr\u003e\n\n\u003ctd\u003eEntity\u003c/td\u003e\n\n\u003ctd\u003eLWPolyline\u003c/td\u003e\n\n\u003c/tr\u003e\n\n\u003ctr bgcolor=\"#D4E4F3\"\u003e\n\n\u003ctd\u003eLayer\u003c/td\u003e\n\n\u003ctd\u003eall_20\u003c/td\u003e\n\n\u003c/tr\u003e\n\n\u003ctr\u003e\n\n\u003ctd\u003eColor\u003c/td\u003e\n\n\u003ctd\u003e5\u003c/td\u003e\n\n\u003c/tr\u003e\n\n\u003ctr bgcolor=\"#D4E4F3\"\u003e\n\n\u003ctd\u003eLinetype\u003c/td\u003e\n\n\u003ctd\u003eContinuous\u003c/td\u003e\n\n\u003c/tr\u003e\n\n\u003ctr\u003e\n\n\u003ctd\u003eElevation\u003c/td\u003e\n\n\u003ctd\u003e0\u003c/td\u003e\n\n\u003c/tr\u003e\n\n\u003ctr bgcolor=\"#D4E4F3\"\u003e\n\n\u003ctd\u003eLineWt\u003c/td\u003e\n\n\u003ctd\u003e25\u003c/td\u003e\n\n\u003c/tr\u003e\n\n\u003ctr\u003e\n\n\u003ctd\u003eRefName\u003c/td\u003e\n\n\u003ctd\u003e\u003c/td\u003e\n\n\u003c/tr\u003e\n\n\u003c/table\u003e\n\n\u003c/td\u003e\n\n\u003c/tr\u003e\n\n\u003c/table\u003e\n\n\u003c/body\u003e\n\n\u003c/html\u003e","Shape_Length":0.203440941699043}},{"type":"Feature","id":5,"geometry":{"type":"LineString","coordinates":[[59.490321091000055,36.44696269800005],[59.490311117000033,36.446932795000066],[59.490307672000029,36.446901953000065],[59.490310858000043,36.446871091000048],[59.49032057800008,36.446841136000046],[59.490336543000069,36.446812981000051],[59.490358274000073,36.44678747100005],[59.490385122000077,36.446765367000069],[59.490479035000078,36.446698645000026],[59.49060501200006,36.446604729000057],[59.490757292000069,36.446498448000057],[59.491293688000042,36.446108786000025],[59.492327471000067,36.445357820000027],[59.493050433000064,36.444829923000043],[59.493265228000041,36.444673087000069],[59.496093918000042,36.442608902000075],[59.496210555000062,36.442523787000027],[59.498720691000074,36.440696523000042],[59.500643321000041,36.43929685300003],[59.504345068000077,36.436594726000067],[59.505357186000083,36.435789211000042],[59.506858539000064,36.434594283000024],[59.506920406000063,36.434545369000034],[59.508737563000068,36.433108588000039],[59.510881460000064,36.431402952000042],[59.51140941500006,36.431078361000061],[59.511504159000083,36.431020346000025],[59.51153262400004,36.431004205000079],[59.513464706000036,36.42991457100004],[59.513514311000051,36.429886471000032],[59.51492445000008,36.429087693000042],[59.517194117000031,36.427801964000025],[59.518548483000075,36.427034700000036],[59.520616103000066,36.425864077000028],[59.523138003000042,36.424436159000038],[59.52358838300006,36.424181142000066],[59.52463036100005,36.423596452000027],[59.524670143000037,36.423572160000049],[59.524736967000081,36.423537287000045],[59.527638273000036,36.421889911000051],[59.528606264000075,36.421341908000045],[59.529285172000073,36.42095755400004],[59.53040072400006,36.420325981000076]]},"properties":{"OBJECTID":5,"Name":"Placemark","FolderPath":"حریم 20 متری گاز/Harim20_Gaz_Project","SymbolID":0,"AltMode":0,"Base":0,"Clamped":-1,"Extruded":0,"Snippet":"","PopupInfo":"\u003chtml xmlns:fo=\"http://www.w3.org/1999/XSL/Format\" xmlns:msxsl=\"urn:schemas-microsoft-com:xslt\"\u003e\n\n\u003chead\u003e\n\n\u003cMETA http-equiv=\"Content-Type\" content=\"text/html\"\u003e\n\n\u003cmeta http-equiv=\"content-type\" content=\"text/html; charset=UTF-8\"\u003e\n\n\u003c/head\u003e\n\n\u003cbody style=\"margin:0px 0px 0px 0px;overflow:auto;background:#FFFFFF;\"\u003e\n\n\u003ctable style=\"font-family:Arial,Verdana,Times;font-size:12px;text-align:left;width:100%;border-collapse:collapse;padding:3px 3px 3px 3px\"\u003e\n\n\u003ctr style=\"text-align:center;font-weight:bold;background:#9CBCE2\"\u003e\n\n\u003ctd\u003e\u003c/td\u003e\n\n\u003c/tr\u003e\n\n\u003ctr\u003e\n\n\u003ctd\u003e\n\n\u003ctable style=\"font-family:Arial,Verdana,Times;font-size:12px;text-align:left;width:100%;border-spacing:0px; padding:3px 3px 3px 3px\"\u003e\n\n\u003ctr\u003e\n\n\u003ctd\u003eEntity\u003c/td\u003e\n\n\u003ctd\u003eLWPolyline\u003c/td\u003e\n\n\u003c/tr\u003e\n\n\u003ctr bgcolor=\"#D4E4F3\"\u003e\n\n\u003ctd\u003eLayer\u003c/td\u003e\n\n\u003ctd\u003eall_20\u003c/td\u003e\n\n\u003c/tr\u003e\n\n\u003ctr\u003e\n\n\u003ctd\u003eColor\u003c/td\u003e\n\n\u003ctd\u003e5\u003c/td\u003e\n\n\u003c/tr\u003e\n\n\u003ctr bgcolor=\"#D4E4F3\"\u003e\n\n\u003ctd\u003eLinetype\u003c/td\u003e\n\n\u003ctd\u003eContinuous\u003c/td\u003e\n\n\u003c/tr\u003e\n\n\u003ctr\u003e\n\n\u003ctd\u003eElevation\u003c/td\u003e\n\n\u003ctd\u003e0\u003c/td\u003e\n\n\u003c/tr\u003e\n\n\u003ctr bgcolor=\"#D4E4F3\"\u003e\n\n\u003ctd\u003eLineWt\u003c/td\u003e\n\n\u003ctd\u003e25\u003c/td\u003e\n\n\u003c/tr\u003e\n\n\u003ctr\u003e\n\n\u003ctd\u003eRefName\u003c/td\u003e\n\n\u003ctd\u003e\u003c/td\u003e\n\n\u003c/tr\u003e\n\n\u003c/table\u003e\n\n\u003c/td\u003e\n\n\u003c/tr\u003e\n\n\u003c/table\u003e\n\n\u003c/body\u003e\n\n\u003c/html\u003e","Shape_Length":0.048289015528394048}},{"type":"Feature","id":6,"geometry":{"type":"LineString","coordinates":[[59.437535951000029,36.468143456000064],[59.43728980700007,36.468332669000063],[59.437244987000042,36.46835894700007],[59.437125386000048,36.468405979000067],[59.432990375000031,36.469803330000047],[59.429730979000055,36.470904527000073],[59.428734362000057,36.471221515000025],[59.423448416000042,36.472927134000031],[59.422642711000037,36.473187264000046],[59.422166188000062,36.47334111300006],[59.418527785000038,36.474515705000044],[59.414540442000032,36.475821616000076],[59.414118356000074,36.475960563000058],[59.413890427000069,36.476042636000045],[59.413544625000043,36.476144746000045],[59.412341477000041,36.476552843000036],[59.409160851000081,36.477611628000034],[59.406761501000062,36.478405234000036],[59.405707685000039,36.478764324000053],[59.402782886000068,36.479730124000071],[59.402706962000082,36.479755193000074],[59.402628180000079,36.479781046000028],[59.402050261000056,36.479967032000047],[59.399786708000079,36.48070498900006],[59.399744817000055,36.480717771000059],[59.398858182000083,36.480988025000045],[59.395747093000068,36.481978065000078],[59.394614797000031,36.482344028000057],[59.391589329000055,36.48329379300003],[59.389646018000064,36.483910190000074],[59.389056155000048,36.484100736000073],[59.388918285000045,36.484145953000052],[59.386693366000031,36.484848268000064],[59.384851780000076,36.485433477000072],[59.384796044000041,36.485451137000041],[59.381162515000028,36.486596502000054],[59.379492321000043,36.487126837000062],[59.37633489500007,36.488136563000069],[59.375912603000074,36.488268250000033],[59.375567130000036,36.488388753000038],[59.375534908000077,36.488397597000073],[59.375494324000044,36.488405987000078],[59.375448585000072,36.488414530000057],[59.375398822000079,36.488421938000045],[59.375352096000029,36.488426540000034],[59.375289312000064,36.488428869000074],[59.375237981000055,36.488428000000056],[59.375191944000051,36.48842563200003],[59.375145041000053,36.488422300000025],[59.37501461100004,36.488407224000071],[59.374976220000065,36.488399842000035],[59.374723244000052,36.488326811000036],[59.374218831000064,36.48818788400007],[59.374166688000059,36.488175503000036],[59.374085343000047,36.488156206000042],[59.374003062000043,36.488136648000079],[59.373758789000078,36.488071710000042],[59.372167282000078,36.487648271000069],[59.371807100000069,36.487572941000053],[59.371760137000081,36.487574326000072],[59.37171937200003,36.487578094000071],[59.371674948000077,36.487588997000046],[59.371633079000048,36.487607487000048],[59.371592110000051,36.487628346000065],[59.370828992000042,36.488011383000071],[59.367613095000081,36.489736611000069],[59.364432230000034,36.491432816000042],[59.36439800200003,36.491447629000049],[59.36436111200004,36.491457424000032],[59.364322677000075,36.49146190600004],[59.364283862000036,36.491460938000046],[59.364245844000038,36.491454551000061],[59.364209771000048,36.491442937000045],[59.364176741000051,36.491426450000063],[59.364147751000075,36.491405586000042],[59.364123680000034,36.491380980000031],[59.364105259000041,36.491353377000053],[59.36409304600005,36.491323612000031],[59.364087408000046,36.491292588000078],[59.364088518000074,36.491261245000032],[59.364096344000075,36.491230532000031],[59.364110646000029,36.491201380000064],[59.364130991000081,36.491174672000056],[59.364156764000029,36.491151218000027],[59.364187184000059,36.491131727000038],[59.367366692000076,36.489436242000068],[59.370588671000064,36.487707820000026],[59.371354190000034,36.487323553000067],[59.37138477600007,36.487307783000062],[59.371421050000038,36.487289999000041],[59.371462379000036,36.487271703000033],[59.371507910000048,36.487254453000048],[59.37154703200008,36.487242552000055],[59.371612028000072,36.48722790000005],[59.371664324000051,36.48722026400003],[59.371711445000074,36.487215938000077],[59.371748966000041,36.487213914000051],[59.37179681300006,36.487212733000035],[59.371834020000051,36.487212433000025],[59.371877923000056,36.487216012000033],[59.372292260000052,36.487302382000053],[59.373895725000068,36.487728827000069],[59.374134051000055,36.487792239000044],[59.374211152000044,36.48781053600004],[59.37429589900006,36.487830656000028],[59.374354441000037,36.48784463100003],[59.374870497000074,36.48798670900004],[59.375100675000056,36.488053239000067],[59.37521018800004,36.488065306000067],[59.375271368000028,36.488068336000026],[59.375322264000033,36.48806673100006],[59.375357215000065,36.488061873000049],[59.375397600000042,36.488054090000048],[59.375744127000075,36.487934627000072],[59.376170354000067,36.487801669000078],[59.379328409000038,36.486791741000047],[59.380999596000038,36.486261090000028],[59.384633434000079,36.485115628000074],[59.384688630000028,36.485098139000058],[59.386522497000044,36.484515575000046],[59.388753106000081,36.483811264000053],[59.388888714000075,36.483766781000043],[59.389479251000068,36.483576018000065],[59.391429560000063,36.482957398000053],[59.394451081000057,36.482008870000072],[59.395582551000075,36.48164317100003],[59.398697578000053,36.480651887000079],[59.399587268000062,36.48038069100005],[59.399625229000037,36.480369121000024],[59.401885145000051,36.479632325000068],[59.402474363000067,36.479442845000051],[59.402539148000074,36.47942136100005],[59.402614781000068,36.479396388000055],[59.405536489000042,36.478431613000055],[59.40659019800006,36.478072560000044],[59.408991098000058,36.477278437000052],[59.412169672000061,36.476220339000065],[59.413381746000027,36.475809323000078],[59.413723789000073,36.475708393000048],[59.413942229000043,36.475629531000038],[59.414374101000078,36.475487306000048],[59.41836115600006,36.474181488000056],[59.422000596000032,36.473006558000066],[59.422477120000053,36.472852709000051],[59.423282871000083,36.472592564000024],[59.428572408000036,36.470885806000069],[59.42956319700005,36.47057068600003],[59.432818218000079,36.469470945000069],[59.436942538000039,36.468077333000053],[59.437006772000075,36.468052451000062],[59.437241007000068,36.46786862700003],[59.437285688000031,36.46784221300004],[59.43734362500004,36.467818289000036]]},"properties":{"OBJECTID":6,"Name":"Placemark","FolderPath":"حریم 20 متری گاز/Harim20_Gaz_Project","SymbolID":0,"AltMode":0,"Base":0,"Clamped":-1,"Extruded":0,"Snippet":"","PopupInfo":"\u003chtml xmlns:fo=\"http://www.w3.org/1999/XSL/Format\" xmlns:msxsl=\"urn:schemas-microsoft-com:xslt\"\u003e\n\n\u003chead\u003e\n\n\u003cMETA http-equiv=\"Content-Type\" content=\"text/html\"\u003e\n\n\u003cmeta http-equiv=\"content-type\" content=\"text/html; charset=UTF-8\"\u003e\n\n\u003c/head\u003e\n\n\u003cbody style=\"margin:0px 0px 0px 0px;overflow:auto;background:#FFFFFF;\"\u003e\n\n\u003ctable style=\"font-family:Arial,Verdana,Times;font-size:12px;text-align:left;width:100%;border-collapse:collapse;padding:3px 3px 3px 3px\"\u003e\n\n\u003ctr style=\"text-align:center;font-weight:bold;background:#9CBCE2\"\u003e\n\n\u003ctd\u003e\u003c/td\u003e\n\n\u003c/tr\u003e\n\n\u003ctr\u003e\n\n\u003ctd\u003e\n\n\u003ctable style=\"font-family:Arial,Verdana,Times;font-size:12px;text-align:left;width:100%;border-spacing:0px; padding:3px 3px 3px 3px\"\u003e\n\n\u003ctr\u003e\n\n\u003ctd\u003eEntity\u003c/td\u003e\n\n\u003ctd\u003eLWPolyline\u003c/td\u003e\n\n\u003c/tr\u003e\n\n\u003ctr bgcolor=\"#D4E4F3\"\u003e\n\n\u003ctd\u003eLayer\u003c/td\u003e\n\n\u003ctd\u003eall_20\u003c/td\u003e\n\n\u003c/tr\u003e\n\n\u003ctr\u003e\n\n\u003ctd\u003eColor\u003c/td\u003e\n\n\u003ctd\u003e5\u003c/td\u003e\n\n\u003c/tr\u003e\n\n\u003ctr bgcolor=\"#D4E4F3\"\u003e\n\n\u003ctd\u003eLinetype\u003c/td\u003e\n\n\u003ctd\u003eContinuous\u003c/td\u003e\n\n\u003c/tr\u003e\n\n\u003ctr\u003e\n\n\u003ctd\u003eElevation\u003c/td\u003e\n\n\u003ctd\u003e0\u003c/td\u003e\n\n\u003c/tr\u003e\n\n\u003ctr bgcolor=\"#D4E4F3\"\u003e\n\n\u003ctd\u003eLineWt\u003c/td\u003e\n\n\u003ctd\u003e25\u003c/td\u003e\n\n\u003c/tr\u003e\n\n\u003ctr\u003e\n\n\u003ctd\u003eRefName\u003c/td\u003e\n\n\u003ctd\u003e\u003c/td\u003e\n\n\u003c/tr\u003e\n\n\u003c/table\u003e\n\n\u003c/td\u003e\n\n\u003c/tr\u003e\n\n\u003c/table\u003e\n\n\u003c/body\u003e\n\n\u003c/html\u003e","Shape_Length":0.15553034435882782}},{"type":"Feature","id":7,"geometry":{"type":"LineString","coordinates":[[59.705938960000083,36.321397912000066],[59.705044174000079,36.32128586400006],[59.704202792000046,36.321141761000035],[59.703616039000053,36.321137254000064],[59.703457695000054,36.321184601000027],[59.70018735900004,36.323906217000058],[59.700164897000036,36.323921881000047],[59.698938499000064,36.324664583000072],[59.69874980000003,36.324765908000074],[59.69828898600008,36.325044598000034],[59.695933308000065,36.326394945000061],[59.695896688000062,36.326415935000057],[59.692881756000077,36.328138038000077],[59.692630566000048,36.328276377000066],[59.691856058000042,36.328702423000038],[59.690820950000045,36.329168864000053],[59.688700720000043,36.330123592000064],[59.68835647800006,36.330279938000047],[59.688205174000075,36.330348656000069],[59.685172499000032,36.331725944000027],[59.682276236000064,36.333023038000078],[59.682170195000083,36.33307054200003],[59.680477643000074,36.333828715000038],[59.677294218000043,36.335260047000077],[59.674053348000029,36.336845698000047],[59.671095639000043,36.338341054000068],[59.670709520000059,36.338536258000033],[59.670420510000042,36.338680854000074],[59.669826457000056,36.338981820000072],[59.669312417000071,36.339236309000057],[59.668886025000063,36.339447376000066],[59.664605883000036,36.341616384000076],[59.66415567100006,36.341833811000072],[59.662696308000079,36.342579676000071],[59.66059397600003,36.34363215500008],[59.65802586600006,36.344917758000065],[59.65788552600003,36.344988855000054],[59.657369546000041,36.345255458000054],[59.656641504000049,36.345678498000041],[59.656015016000083,36.346061325000051],[59.655959369000072,36.346094442000037],[59.65581661300007,36.346179273000075],[59.654867646000071,36.346698328000059],[59.654783003000034,36.346747325000024],[59.654680599000073,36.346780445000036],[59.654657254000028,36.346810101000074],[59.654624881000075,36.346837998000069],[59.654604127000027,36.346851351000055],[59.654541730000062,36.346886902000051],[59.654394057000047,36.34697458800008],[59.653858993000028,36.347277166000026],[59.653756263000048,36.347337162000031],[59.653673221000076,36.347387504000039],[59.652862584000047,36.347850128000061],[59.651424508000048,36.34866829300006],[59.64877720100003,36.350174884000069],[59.648089403000029,36.350569504000077],[59.646097113000053,36.351712522000071],[59.642801988000031,36.353605426000058],[59.642649547000076,36.353687885000056],[59.642331248000062,36.35386872600003],[59.63952783600007,36.355486770000027],[59.633841532000076,36.358740063000027],[59.63371963000003,36.358809800000074],[59.633152582000037,36.359133630000031],[59.632958177000035,36.359245357000077],[59.632871139000031,36.359295387000031],[59.632650223000041,36.359422348000066],[59.632548029000077,36.35948187200006],[59.632479062000073,36.359521388000076],[59.631137239000054,36.360290099000053],[59.628325564000079,36.361900266000077],[59.627752245000067,36.362228173000062],[59.627211247000048,36.362537587000077],[59.624201222000067,36.364259032000064],[59.620980252000038,36.366100359000029],[59.620130889000052,36.366584297000031],[59.620063739000045,36.366622557000028],[59.617911820000074,36.367848590000051],[59.61772553000003,36.367966256000045],[59.617576885000062,36.368113403000052],[59.616630861000033,36.369064257000048],[59.616348107000078,36.369348448000039],[59.615266023000061,36.370444151000072],[59.615082158000064,36.370613296000045],[59.614876876000039,36.370779223000056],[59.611332421000043,36.373556247000067],[59.611047502000076,36.373742445000062],[59.611019705000047,36.37375791900007],[59.610989336000046,36.373769818000028],[59.610692696000058,36.373863684000071],[59.606477530000063,36.374761464000073],[59.606180024000082,36.37482914800006],[59.605886136000038,36.374948324000059],[59.60434732300007,36.375666145000025],[59.60428440000004,36.375690282000051],[59.604191916000048,36.375724268000056],[59.601507406000053,36.376992008000059],[59.596830398000066,36.37916922900007],[59.593436831000076,36.380757476000042],[59.590259961000072,36.382234323000034],[59.586594858000069,36.383937458000048],[59.584989121000035,36.384686617000057],[59.583221547000051,36.385511201000043],[59.583064763000039,36.385584121000079],[59.578755523000041,36.387588220000055],[59.57749070400007,36.388176401000067],[59.576446400000066,36.388660404000063],[59.576021745000048,36.388857214000041],[59.575405707000073,36.389142711000034],[59.57536415800007,36.389162500000054],[59.575282149000031,36.389203059000067],[59.571869494000055,36.390793452000025],[59.569368338000061,36.392004107000048],[59.569340593000049,36.392020382000055],[59.569286627000054,36.39205359500005],[59.569227083000044,36.392087463000053],[59.568549202000042,36.392492900000036],[59.563833342000066,36.395316647000072],[59.559763031000045,36.397757159000037],[59.559126154000069,36.398138995000068],[59.553599990000066,36.401455655000063],[59.553549203000046,36.401485617000048],[59.553469437000047,36.401534402000038],[59.553428685000029,36.401568310000073],[59.553400827000075,36.401599272000055],[59.553105369000036,36.401927640000054],[59.551133417000074,36.404119167000033],[59.551071001000082,36.404188566000073],[59.54874882200005,36.406781393000074],[59.54444019400006,36.411571768000044],[59.542276469000058,36.413992689000054],[59.542091047000042,36.414196657000048],[59.541948792000028,36.414335111000071],[59.541919449000034,36.414358357000026],[59.541564810000068,36.414569742000026],[59.54141637400005,36.414657342000055],[59.541064786000049,36.414864829000066],[59.540970777000041,36.414920290000055],[59.540196156000036,36.415359977000037],[59.53862265600003,36.416253055000027],[59.536247995000053,36.417596485000047],[59.533585693000077,36.419102273000078],[59.531060076000074,36.420528082000033],[59.529517537000061,36.421404305000067],[59.528833896000037,36.421792628000048],[59.528788026000029,36.421818682000037],[59.52801184100008,36.422259544000042],[59.525058699000056,36.423926800000061],[59.525019680000071,36.423948740000071],[59.524973782000075,36.423974548000047],[59.52483126900006,36.424054679000051],[59.523333789000048,36.424903504000042],[59.521560319000059,36.42590541800007],[59.518561440000042,36.427607611000042],[59.517803627000035,36.428034865000029],[59.515743490000034,36.42919631500007],[59.515232946000083,36.429485906000025],[59.514210887000047,36.430065622000029],[59.512728199000037,36.43090658300008],[59.511861314000043,36.43139824900004],[59.511779906000072,36.431446814000026],[59.511340601000029,36.43169303600007],[59.509135803000049,36.433451461000061],[59.506663099000036,36.435409838000055],[59.50355432300006,36.437811380000028],[59.501017216000037,36.43966110100007],[59.499106450000056,36.441049698000029],[59.498077274000082,36.441797591000068],[59.495160431000045,36.443926043000033],[59.492712704000041,36.445712095000033],[59.491240854000068,36.446778076000044],[59.490446998000039,36.447356052000032]]},"properties":{"OBJECTID":7,"Name":"Placemark","FolderPath":"حریم 20 متری گاز/Harim20_Gaz_Project","SymbolID":0,"AltMode":0,"Base":0,"Clamped":-1,"Extruded":0,"Snippet":"","PopupInfo":"\u003chtml xmlns:fo=\"http://www.w3.org/1999/XSL/Format\" xmlns:msxsl=\"urn:schemas-microsoft-com:xslt\"\u003e\n\n\u003chead\u003e\n\n\u003cMETA http-equiv=\"Content-Type\" content=\"text/html\"\u003e\n\n\u003cmeta http-equiv=\"content-type\" content=\"text/html; charset=UTF-8\"\u003e\n\n\u003c/head\u003e\n\n\u003cbody style=\"margin:0px 0px 0px 0px;overflow:auto;background:#FFFFFF;\"\u003e\n\n\u003ctable style=\"font-family:Arial,Verdana,Times;font-size:12px;text-align:left;width:100%;border-collapse:collapse;padding:3px 3px 3px 3px\"\u003e\n\n\u003ctr style=\"text-align:center;font-weight:bold;background:#9CBCE2\"\u003e\n\n\u003ctd\u003e\u003c/td\u003e\n\n\u003c/tr\u003e\n\n\u003ctr\u003e\n\n\u003ctd\u003e\n\n\u003ctable style=\"font-family:Arial,Verdana,Times;font-size:12px;text-align:left;width:100%;border-spacing:0px; padding:3px 3px 3px 3px\"\u003e\n\n\u003ctr\u003e\n\n\u003ctd\u003eEntity\u003c/td\u003e\n\n\u003ctd\u003eLWPolyline\u003c/td\u003e\n\n\u003c/tr\u003e\n\n\u003ctr bgcolor=\"#D4E4F3\"\u003e\n\n\u003ctd\u003eLayer\u003c/td\u003e\n\n\u003ctd\u003eall_20\u003c/td\u003e\n\n\u003c/tr\u003e\n\n\u003ctr\u003e\n\n\u003ctd\u003eColor\u003c/td\u003e\n\n\u003ctd\u003e5\u003c/td\u003e\n\n\u003c/tr\u003e\n\n\u003ctr bgcolor=\"#D4E4F3\"\u003e\n\n\u003ctd\u003eLinetype\u003c/td\u003e\n\n\u003ctd\u003eContinuous\u003c/td\u003e\n\n\u003c/tr\u003e\n\n\u003ctr\u003e\n\n\u003ctd\u003eElevation\u003c/td\u003e\n\n\u003ctd\u003e0\u003c/td\u003e\n\n\u003c/tr\u003e\n\n\u003ctr bgcolor=\"#D4E4F3\"\u003e\n\n\u003ctd\u003eLineWt\u003c/td\u003e\n\n\u003ctd\u003e25\u003c/td\u003e\n\n\u003c/tr\u003e\n\n\u003ctr\u003e\n\n\u003ctd\u003eRefName\u003c/td\u003e\n\n\u003ctd\u003e\u003c/td\u003e\n\n\u003c/tr\u003e\n\n\u003c/table\u003e\n\n\u003c/td\u003e\n\n\u003c/tr\u003e\n\n\u003c/table\u003e\n\n\u003c/body\u003e\n\n\u003c/html\u003e","Shape_Length":0.25185890900726909}},{"type":"Feature","id":8,"geometry":{"type":"LineString","coordinates":[[59.76485152500004,36.307221519000052],[59.764888301000042,36.307223840000063],[59.764924097000062,36.307231050000041],[59.764957927000069,36.307242951000035],[59.764988862000052,36.307259214000055],[59.765016051000032,36.307279392000055],[59.765038742000058,36.307302931000038],[59.765056314000049,36.307329182000046],[59.765068282000072,36.307357422000052],[59.765074318000075,36.307386876000066],[59.765074255000059,36.307416733000025],[59.765068095000061,36.307446169000059],[59.765056007000055,36.307474377000062],[59.765038324000045,36.307500579000077],[59.765015532000064,36.307524054000055],[59.764988259000063,36.307544158000042],[59.764957256000059,36.307560335000062],[59.76492337500008,36.307572141000037],[59.760173525000027,36.30886104700005],[59.751401558000055,36.311255323000069],[59.749657432000049,36.311731763000068],[59.747013448000075,36.312436797000032],[59.746817110000052,36.312489151000079],[59.746686141000055,36.312524072000031],[59.746443012000043,36.312588899000048],[59.74626683200006,36.312635875000069],[59.74617930200003,36.312659212000028],[59.745877657000051,36.312738913000032],[59.744586883000068,36.312946046000036],[59.744129505000046,36.313019262000068],[59.743063398000061,36.313189915000066],[59.742195601000049,36.31332881700007],[59.742089012000065,36.313345878000064],[59.741075850000072,36.313508039000055],[59.739975319000052,36.313684182000031],[59.73883819200006,36.313866171000029],[59.737490600000058,36.314085261000059],[59.729750511000077,36.315341755000077],[59.729698408000047,36.315350205000072],[59.729621903000066,36.315361908000057],[59.729361161000043,36.315401774000065],[59.728144479000036,36.315593354000043],[59.726529019000054,36.315850627000032],[59.724902119000035,36.316148334000047],[59.724618837000037,36.316207102000078],[59.724451495000039,36.316241819000027],[59.721008687000051,36.31780511900007],[59.720461947000047,36.318061663000037],[59.720147635000046,36.318209094000053],[59.720076953000046,36.318242247000057],[59.720032069000069,36.318263300000069]]},"properties":{"OBJECTID":8,"Name":"Placemark","FolderPath":"حریم 20 متری گاز/Harim20_Gaz_Project","SymbolID":0,"AltMode":0,"Base":0,"Clamped":-1,"Extruded":0,"Snippet":"","PopupInfo":"\u003chtml xmlns:fo=\"http://www.w3.org/1999/XSL/Format\" xmlns:msxsl=\"urn:schemas-microsoft-com:xslt\"\u003e\n\n\u003chead\u003e\n\n\u003cMETA http-equiv=\"Content-Type\" content=\"text/html\"\u003e\n\n\u003cmeta http-equiv=\"content-type\" content=\"text/html; charset=UTF-8\"\u003e\n\n\u003c/head\u003e\n\n\u003cbody style=\"margin:0px 0px 0px 0px;overflow:auto;background:#FFFFFF;\"\u003e\n\n\u003ctable style=\"font-family:Arial,Verdana,Times;font-size:12px;text-align:left;width:100%;border-collapse:collapse;padding:3px 3px 3px 3px\"\u003e\n\n\u003ctr style=\"text-align:center;font-weight:bold;background:#9CBCE2\"\u003e\n\n\u003ctd\u003e\u003c/td\u003e\n\n\u003c/tr\u003e\n\n\u003ctr\u003e\n\n\u003ctd\u003e\n\n\u003ctable style=\"font-family:Arial,Verdana,Times;font-size:12px;text-align:left;width:100%;border-spacing:0px; padding:3px 3px 3px 3px\"\u003e\n\n\u003ctr\u003e\n\n\u003ctd\u003eEntity\u003c/td\u003e\n\n\u003ctd\u003eLWPolyline\u003c/td\u003e\n\n\u003c/tr\u003e\n\n\u003ctr bgcolor=\"#D4E4F3\"\u003e\n\n\u003ctd\u003eLayer\u003c/td\u003e\n\n\u003ctd\u003eall_20\u003c/td\u003e\n\n\u003c/tr\u003e\n\n\u003ctr\u003e\n\n\u003ctd\u003eColor\u003c/td\u003e\n\n\u003ctd\u003e5\u003c/td\u003e\n\n\u003c/tr\u003e\n\n\u003ctr bgcolor=\"#D4E4F3\"\u003e\n\n\u003ctd\u003eLinetype\u003c/td\u003e\n\n\u003ctd\u003eContinuous\u003c/td\u003e\n\n\u003c/tr\u003e\n\n\u003ctr\u003e\n\n\u003ctd\u003eElevation\u003c/td\u003e\n\n\u003ctd\u003e0\u003c/td\u003e\n\n\u003c/tr\u003e\n\n\u003ctr bgcolor=\"#D4E4F3\"\u003e\n\n\u003ctd\u003eLineWt\u003c/td\u003e\n\n\u003ctd\u003e25\u003c/td\u003e\n\n\u003c/tr\u003e\n\n\u003ctr\u003e\n\n\u003ctd\u003eRefName\u003c/td\u003e\n\n\u003ctd\u003e\u003c/td\u003e\n\n\u003c/tr\u003e\n\n\u003c/table\u003e\n\n\u003c/td\u003e\n\n\u003c/tr\u003e\n\n\u003c/table\u003e\n\n\u003c/body\u003e\n\n\u003c/html\u003e","Shape_Length":0.04686818928165784}},{"type":"Feature","id":9,"geometry":{"type":"LineString","coordinates":[[59.706021141000065,36.32104355000007],[59.707987752000065,36.32128967400007],[59.710381386000051,36.32171760600005],[59.710639079000032,36.321760429000051],[59.710884217000057,36.321804704000044],[59.711056161000045,36.32182625400003],[59.711183120000044,36.321820032000062],[59.711253150000061,36.321803874000068],[59.711618439000063,36.321640175000027],[59.712849265000045,36.321131502000071],[59.71760408800003,36.318942563000064],[59.718842190000032,36.31838224300003],[59.718921027000079,36.318346568000038],[59.719269311000062,36.318191357000046],[59.719543964000081,36.318075727000064],[59.719755981000048,36.317976281000028]]},"properties":{"OBJECTID":9,"Name":"Placemark","FolderPath":"حریم 20 متری گاز/Harim20_Gaz_Project","SymbolID":0,"AltMode":0,"Base":0,"Clamped":-1,"Extruded":0,"Snippet":"","PopupInfo":"\u003chtml xmlns:fo=\"http://www.w3.org/1999/XSL/Format\" xmlns:msxsl=\"urn:schemas-microsoft-com:xslt\"\u003e\n\n\u003chead\u003e\n\n\u003cMETA http-equiv=\"Content-Type\" content=\"text/html\"\u003e\n\n\u003cmeta http-equiv=\"content-type\" content=\"text/html; charset=UTF-8\"\u003e\n\n\u003c/head\u003e\n\n\u003cbody style=\"margin:0px 0px 0px 0px;overflow:auto;background:#FFFFFF;\"\u003e\n\n\u003ctable style=\"font-family:Arial,Verdana,Times;font-size:12px;text-align:left;width:100%;border-collapse:collapse;padding:3px 3px 3px 3px\"\u003e\n\n\u003ctr style=\"text-align:center;font-weight:bold;background:#9CBCE2\"\u003e\n\n\u003ctd\u003e\u003c/td\u003e\n\n\u003c/tr\u003e\n\n\u003ctr\u003e\n\n\u003ctd\u003e\n\n\u003ctable style=\"font-family:Arial,Verdana,Times;font-size:12px;text-align:left;width:100%;border-spacing:0px; padding:3px 3px 3px 3px\"\u003e\n\n\u003ctr\u003e\n\n\u003ctd\u003eEntity\u003c/td\u003e\n\n\u003ctd\u003eLWPolyline\u003c/td\u003e\n\n\u003c/tr\u003e\n\n\u003ctr bgcolor=\"#D4E4F3\"\u003e\n\n\u003ctd\u003eLayer\u003c/td\u003e\n\n\u003ctd\u003eall_20\u003c/td\u003e\n\n\u003c/tr\u003e\n\n\u003ctr\u003e\n\n\u003ctd\u003eColor\u003c/td\u003e\n\n\u003ctd\u003e5\u003c/td\u003e\n\n\u003c/tr\u003e\n\n\u003ctr bgcolor=\"#D4E4F3\"\u003e\n\n\u003ctd\u003eLinetype\u003c/td\u003e\n\n\u003ctd\u003eContinuous\u003c/td\u003e\n\n\u003c/tr\u003e\n\n\u003ctr\u003e\n\n\u003ctd\u003eElevation\u003c/td\u003e\n\n\u003ctd\u003e0\u003c/td\u003e\n\n\u003c/tr\u003e\n\n\u003ctr bgcolor=\"#D4E4F3\"\u003e\n\n\u003ctd\u003eLineWt\u003c/td\u003e\n\n\u003ctd\u003e25\u003c/td\u003e\n\n\u003c/tr\u003e\n\n\u003ctr\u003e\n\n\u003ctd\u003eRefName\u003c/td\u003e\n\n\u003ctd\u003e\u003c/td\u003e\n\n\u003c/tr\u003e\n\n\u003c/table\u003e\n\n\u003c/td\u003e\n\n\u003c/tr\u003e\n\n\u003c/table\u003e\n\n\u003c/body\u003e\n\n\u003c/html\u003e","Shape_Length":0.014621717847787997}},{"type":"Feature","id":10,"geometry":{"type":"LineString","coordinates":[[59.437746315000027,36.467663378000054],[59.437875142000053,36.467625302000044],[59.439307366000037,36.467111560000035],[59.440929459000074,36.466529683000033],[59.440992900000083,36.466506926000079],[59.442455879000079,36.465982101000066],[59.443429731000037,36.46563272700007],[59.446583712000063,36.464499118000049],[59.446648763000042,36.464475295000057],[59.452175605000036,36.462499342000058],[59.461488225000039,36.459143697000059],[59.461519595000027,36.45913482900005],[59.461597042000051,36.45911381500008],[59.46185282700003,36.459031464000077],[59.467780116000029,36.456900848000032],[59.470926184000064,36.455775840000058],[59.474547923000046,36.454293322000069],[59.476877180000031,36.453339782000057],[59.478387927000028,36.452712543000075],[59.478470937000054,36.452677889000029],[59.478541458000052,36.452648454000041],[59.478644247000034,36.452605530000028],[59.478912174000072,36.45249367100007],[59.478946099000041,36.452479507000078],[59.479048951000038,36.452437185000065],[59.479077755000048,36.45242511500004],[59.479202220000047,36.452372854000032],[59.47932103200003,36.452322967000043],[59.482279238000046,36.45110023400008],[59.483579162000069,36.450560811000059],[59.486425483000062,36.449394242000039],[59.487084914000036,36.449098728000024],[59.487249797000061,36.449005860000057],[59.488052291000031,36.448543434000044],[59.488434274000042,36.448330138000074],[59.488468088000047,36.448308606000069],[59.488496821000069,36.448290024000073],[59.489668259000041,36.447438301000034],[59.48984975500008,36.447305854000035],[59.489946973000031,36.447235074000048],[59.490030580000052,36.447174205000067],[59.490321091000055,36.44696269800005]]},"properties":{"OBJECTID":10,"Name":"Placemark","FolderPath":"حریم 20 متری گاز/Harim20_Gaz_Project","SymbolID":0,"AltMode":0,"Base":0,"Clamped":-1,"Extruded":0,"Snippet":"","PopupInfo":"\u003chtml xmlns:fo=\"http://www.w3.org/1999/XSL/Format\" xmlns:msxsl=\"urn:schemas-microsoft-com:xslt\"\u003e\n\n\u003chead\u003e\n\n\u003cMETA http-equiv=\"Content-Type\" content=\"text/html\"\u003e\n\n\u003cmeta http-equiv=\"content-type\" content=\"text/html; charset=UTF-8\"\u003e\n\n\u003c/head\u003e\n\n\u003cbody style=\"margin:0px 0px 0px 0px;overflow:auto;background:#FFFFFF;\"\u003e\n\n\u003ctable style=\"font-family:Arial,Verdana,Times;font-size:12px;text-align:left;width:100%;border-collapse:collapse;padding:3px 3px 3px 3px\"\u003e\n\n\u003ctr style=\"text-align:center;font-weight:bold;background:#9CBCE2\"\u003e\n\n\u003ctd\u003e\u003c/td\u003e\n\n\u003c/tr\u003e\n\n\u003ctr\u003e\n\n\u003ctd\u003e\n\n\u003ctable style=\"font-family:Arial,Verdana,Times;font-size:12px;text-align:left;width:100%;border-spacing:0px; padding:3px 3px 3px 3px\"\u003e\n\n\u003ctr\u003e\n\n\u003ctd\u003eEntity\u003c/td\u003e\n\n\u003ctd\u003eLWPolyline\u003c/td\u003e\n\n\u003c/tr\u003e\n\n\u003ctr bgcolor=\"#D4E4F3\"\u003e\n\n\u003ctd\u003eLayer\u003c/td\u003e\n\n\u003ctd\u003eall_20\u003c/td\u003e\n\n\u003c/tr\u003e\n\n\u003ctr\u003e\n\n\u003ctd\u003eColor\u003c/td\u003e\n\n\u003ctd\u003e5\u003c/td\u003e\n\n\u003c/tr\u003e\n\n\u003ctr bgcolor=\"#D4E4F3\"\u003e\n\n\u003ctd\u003eLinetype\u003c/td\u003e\n\n\u003ctd\u003eContinuous\u003c/td\u003e\n\n\u003c/tr\u003e\n\n\u003ctr\u003e\n\n\u003ctd\u003eElevation\u003c/td\u003e\n\n\u003ctd\u003e0\u003c/td\u003e\n\n\u003c/tr\u003e\n\n\u003ctr bgcolor=\"#D4E4F3\"\u003e\n\n\u003ctd\u003eLineWt\u003c/td\u003e\n\n\u003ctd\u003e25\u003c/td\u003e\n\n\u003c/tr\u003e\n\n\u003ctr\u003e\n\n\u003ctd\u003eRefName\u003c/td\u003e\n\n\u003ctd\u003e\u003c/td\u003e\n\n\u003c/tr\u003e\n\n\u003c/table\u003e\n\n\u003c/td\u003e\n\n\u003c/tr\u003e\n\n\u003c/table\u003e\n\n\u003c/body\u003e\n\n\u003c/html\u003e","Shape_Length":0.056613419548587375}}]}