{"type":"FeatureCollection","features":[{"type":"Feature","id":1,"geometry":{"type":"Polygon","coordinates":[[[59.490062979927551,36.397925687241667],[59.486670980933788,36.399194687783215],[59.483368981106743,36.400535688265307],[59.48130698112471,36.402008688439544],[59.479939981437155,36.401172688528526],[59.479857980828115,36.401103688473341],[59.477667980724021,36.399127689427331],[59.476589092056308,36.398044171300526],[59.476059703790405,36.398078202667229],[59.475013530600947,36.398321654478053],[59.473969263240043,36.398688794937307],[59.473433980920262,36.39869168938835],[59.472021060763289,36.398674320188171],[59.471241980538508,36.398494690132672],[59.471207980959747,36.398483689970533],[59.4711319804737,36.398478689453825],[59.471075980480087,36.398441690227756],[59.470896980590737,36.39838468981187],[59.470901980285589,36.398327690039572],[59.470892980584772,36.398321689925588],[59.47078298084449,36.398222689638985],[59.470613980056996,36.398146690024355],[59.469957980642533,36.39806769003512],[59.469749980596852,36.398048690365229],[59.469256980698425,36.397918689846676],[59.46889998110322,36.39791669038285],[59.468427980957593,36.397936689992171],[59.468501980265202,36.397624690466742],[59.468420979975718,36.395088690315063],[59.468431915719471,36.394057276678716],[59.466963979813997,36.393603690705021],[59.46498397937124,36.393496690801179],[59.463462979662346,36.392511691259472],[59.459819979894675,36.391692691270094],[59.458477978827446,36.390650691201223],[59.456939979547379,36.389680691775013],[59.455241979067424,36.389369691527534],[59.452390978724573,36.388322692216391],[59.452148978829108,36.388121692727793],[59.452048979135078,36.387467691960708],[59.451839978761505,36.387165692302041],[59.450592978428979,36.386892692826407],[59.449914978527019,36.386399692774908],[59.44671497924832,36.390099693331088],[59.438373878048104,36.385065143541283],[59.436510568972807,36.38255136189359],[59.435396022920912,36.38200262210151],[59.435207682376983,36.382120488441913],[59.434644313705533,36.381954586966287],[59.433620912565495,36.381689723906042],[59.432704333457863,36.381028652051789],[59.432776459400579,36.380898599220487],[59.430798010030173,36.379712042549592],[59.429922161227751,36.378805855479058],[59.429021964433439,36.37776839021614],[59.428222701346577,36.37631697546805],[59.427107317807526,36.374529771734778],[59.426782623823094,36.372973243012183],[59.426266278247418,36.371711135916257],[59.424794999635886,36.369254640593162],[59.424653728296938,36.368475199669128],[59.424188722387314,36.366793228732085],[59.423885330295718,36.366241484623281],[59.421573145177042,36.36364836144817],[59.420836554344682,36.36267043080715],[59.420587461334073,36.362278276267034],[59.420272465112419,36.361840423520739],[59.420429235655092,36.361753097978848],[59.420948471717516,36.361586835833251],[59.421558146980935,36.361394327607918],[59.422006701233848,36.361239220170532],[59.423478214428194,36.360642651853034],[59.427052180852257,36.359223361180774],[59.429512082059325,36.358300973618618],[59.430143656339084,36.358018813113404],[59.433351997708513,36.35662610900544],[59.434953492373204,36.355894726544996],[59.436016751734599,36.355490644283975],[59.436703769895821,36.355096133874518],[59.437032123971477,36.354822669579526],[59.437388527630439,36.354379166552533],[59.438403185325676,36.353116513448704],[59.439371352144143,36.351791115197749],[59.439353972523243,36.351765694020663],[59.439457971698687,36.351613694010076],[59.439512971619884,36.351533694468884],[59.442170971159456,36.347633693618029],[59.440951971358956,36.345292694297676],[59.438863970722487,36.342585693989697],[59.439180970408685,36.342445694126909],[59.43937397021184,36.342360694228752],[59.442654970290242,36.342096694219023],[59.442675970583288,36.342078693944302],[59.442675969622321,36.342060694163123],[59.442684970155632,36.342060693950607],[59.442695970550105,36.342000694058626],[59.442373970157533,36.341734693585785],[59.442198969939987,36.34118969398363],[59.442211969994709,36.341003694257459],[59.442169970398574,36.340742693767517],[59.442201969950482,36.340567694334815],[59.442357970149466,36.340463693434678],[59.442215970267689,36.339947694107714],[59.441438969508411,36.339498693629196],[59.440695969986017,36.339008694287735],[59.440898969865998,36.338671693979308],[59.440235969473875,36.338265694349708],[59.440233969797227,36.338264694204973],[59.439846969511734,36.338026694535706],[59.439285969785573,36.337682694386132],[59.439031969489953,36.337526694136145],[59.439258968774347,36.337381693972645],[59.43978996942748,36.33723269407367],[59.440205968701562,36.337000693854336],[59.441253968866505,36.336646694355068],[59.4413519695592,36.336570693857297],[59.441396969481097,36.336548693619399],[59.441397969389804,36.336534694051579],[59.44200996911362,36.336060693617483],[59.442002968585442,36.336053693957005],[59.442003968894227,36.336052693795175],[59.441990969370117,36.336040693805344],[59.441908969073403,36.335950693838129],[59.441915968644807,36.335933693765412],[59.442089968656369,36.335527694278767],[59.44229896892768,36.335477693655463],[59.442305968352436,36.335434693825903],[59.442322968418445,36.335428694182376],[59.442244969143339,36.335400694018944],[59.441631968797338,36.335185693594177],[59.441062968698361,36.335160693794002],[59.440642968827973,36.335038694589635],[59.440582969281067,36.334772693742302],[59.441052969331459,36.33470269440113],[59.441146968434388,36.334614693967424],[59.441883968863969,36.334584693982009],[59.442002968732197,36.334528694308737],[59.441824968699954,36.334333694413182],[59.441762968314272,36.334123693992126],[59.441798968781718,36.333780693702913],[59.440357968317151,36.33306869410977],[59.440393968574995,36.333006693742377],[59.439983968472042,36.332750694386938],[59.440226968278189,36.332507693786702],[59.441216968224929,36.332667693880502],[59.441243968245431,36.332685694391309],[59.441250968459599,36.332695693633433],[59.441272968108365,36.332676694386393],[59.441388968356129,36.332595694256973],[59.439790967899071,36.331649694018189],[59.439911967611891,36.331470694124668],[59.439520968051362,36.331343694412311],[59.439337967666539,36.331372694187678],[59.439341967737732,36.331375694041427],[59.439241968329902,36.331392694090532],[59.438680967772981,36.33133469464957],[59.438672967652067,36.331331694419369],[59.438669967900225,36.331330694832808],[59.439488967929229,36.331199693978213],[59.439580968046307,36.331184693947066],[59.439261967826575,36.330946694297722],[59.43897196779622,36.330729694046688],[59.438518967492108,36.33039269414386],[59.439010967586213,36.330266694435672],[59.439610968413064,36.330149694678333],[59.439932967498869,36.330086693895304],[59.440752967654021,36.330041694044127],[59.454760966730866,36.326044692466823],[59.457098966561311,36.325377692191765],[59.458092255233126,36.324936325813219],[59.458248121389744,36.324381798407209],[59.458591905600954,36.323585286385793],[59.459056613187897,36.322902135071139],[59.459785151218931,36.322577293036773],[59.461094966351936,36.321144691813352],[59.462060965728575,36.320780692013642],[59.462918183331752,36.320392060575394],[59.463783575669865,36.320145724072532],[59.463702808147836,36.319695836276331],[59.463641217768732,36.318369791952598],[59.463660964628389,36.31649569096696],[59.463784965010127,36.314732691032233],[59.463749964504117,36.314695691788067],[59.463826964915448,36.314549690974125],[59.463840964116805,36.314455691814814],[59.463912964064249,36.314182691498985],[59.463991964196353,36.313884691723217],[59.464223963892053,36.313227690992875],[59.464618963899568,36.312386691406417],[59.465135964504697,36.311541691627966],[59.46612596366537,36.310133691048513],[59.466568964185797,36.309425691091143],[59.46697296322133,36.308591690617568],[59.467290963635527,36.307645690553116],[59.467339963795894,36.30743769059054],[59.467372962862861,36.307300690781773],[59.467420962711017,36.307257691010129],[59.467401963178609,36.307144691298994],[59.467439963071961,36.306936691333519],[59.467514963071125,36.306209690877459],[59.467503963007076,36.305309690611907],[59.46715296204875,36.303100690987264],[59.466916962530888,36.301491690651218],[59.46692596228236,36.30032769145464],[59.46691396147385,36.30031469105262],[59.466938961605003,36.300239690807196],[59.466954962366735,36.300046691060338],[59.467037961662925,36.299615691380204],[59.467151961557079,36.299020691426286],[59.467486961174181,36.298022691401378],[59.468036961807776,36.296921691278499],[59.468496960859738,36.296222690690932],[59.468816960868395,36.295808690618479],[59.469205960980439,36.295362691037681],[59.469620960477492,36.294939691189988],[59.470113960583355,36.294496691152872],[59.470663960725879,36.29406169036227],[59.471193960996203,36.293693690350665],[59.471999960123426,36.293211690740051],[59.472816960942609,36.292805690758051],[59.474067960709391,36.292317690226128],[59.474899959879863,36.29207169019606],[59.477051960086037,36.291593689672233],[59.47899996003553,36.291178689737478],[59.481073960193946,36.290631689344515],[59.482384959433503,36.290159689160461],[59.484674959642845,36.289251688545221],[59.485956959638898,36.288698689195051],[59.488538959334356,36.287398688882071],[59.490048958677932,36.286633688198826],[59.492099958465715,36.285573688118205],[59.493606958882808,36.284647688092569],[59.495322958677008,36.283452687904017],[59.496690957890188,36.282621687886298],[59.498730567699091,36.28129801884274],[59.502287572362832,36.279413511881785],[59.504855211899226,36.278282807951221],[59.507564189361851,36.277175660076026],[59.509354470307976,36.276539639042369],[59.51293503191885,36.275526716388441],[59.514601326459868,36.275158202335604],[59.518766956387566,36.274196684804544],[59.521425955740447,36.273581684489791],[59.522548956329246,36.273284684766168],[59.523536955814173,36.272933684405949],[59.524398955516837,36.272543684259055],[59.525361955342333,36.271997684165271],[59.526210955691312,36.271395683450599],[59.527181955866432,36.270543683831164],[59.528265954863983,36.269525683673649],[59.528284955386106,36.269509684065632],[59.528878871877517,36.268996558545709],[59.529639894051471,36.26842082054862],[59.53055176740726,36.26787439547175],[59.531138720011612,36.267589304372947],[59.532025383397894,36.267244438924465],[59.533682181287283,36.266689309174275],[59.534548636440384,36.266359497796387],[59.535269748829364,36.266046456391088],[59.536002042839733,36.265688694064707],[59.537231848180888,36.265057020778151],[59.538531855003789,36.264404852325448],[59.539255437819641,36.264095536528302],[59.540043631894669,36.263827214739301],[59.540900974816672,36.263631432476444],[59.54243616278454,36.263318522241747],[59.543632429139222,36.263022250645299],[59.544370312377339,36.26279305963498],[59.545560988275945,36.262373807515445],[59.546617502315833,36.261915424711518],[59.54783612823352,36.261423502499774],[59.54881997333456,36.261054560838133],[59.550211889465707,36.260640898697972],[59.550994492858621,36.260456427376965],[59.552101318954314,36.260216056109684],[59.553426154363471,36.260031585129475],[59.554745401087025,36.259897424105247],[59.55627947006947,36.259850363971687],[59.559025826033277,36.259844405579734],[59.56018196216224,36.259728665679113],[59.56418032828082,36.259027346489113],[59.565497402740704,36.258769479588494],[59.570266213935056,36.25759564543867],[59.576574765098187,36.2560928910708],[59.577927050506688,36.255820628408514],[59.583030897039031,36.255264386144155],[59.584523842077012,36.254795911969687],[59.585803551568155,36.254074037740864],[59.586838951321766,36.25333567672152],[59.587020951338232,36.253195676783029],[59.587079951780282,36.253182676113951],[59.588161951018293,36.251943676743537],[59.588603951226034,36.250940675923594],[59.58764995118915,36.250795676784868],[59.587620950984451,36.250767676322532],[59.587610950526219,36.250788676255915],[59.586975951165329,36.250571676020037],[59.58643395140254,36.250582676384695],[59.585599950601065,36.250720676791801],[59.584772951420334,36.251078677133947],[59.584361951023226,36.251306676412518],[59.583604951667645,36.25156267649097],[59.583210951806159,36.251571676790952],[59.582938950805065,36.251557677291387],[59.582456950949542,36.251627676906423],[59.581927950951659,36.251369676899074],[59.581518951615109,36.251128676986276],[59.581323950746871,36.25045367742284],[59.58120895132506,36.249936677521958],[59.580807951237816,36.249765677651865],[59.580117950744601,36.249760677608862],[59.579542950791435,36.249533677388804],[59.5789969514055,36.249444677272706],[59.577649950867205,36.249809677994854],[59.578052950763492,36.249049677201548],[59.578185950353763,36.24795567772172],[59.578536949980368,36.247094677226059],[59.579422950262376,36.245881677066542],[59.579620949885204,36.245502677832604],[59.579758949833135,36.244578677262155],[59.579653949882079,36.243540677856934],[59.580244950033354,36.242492677578277],[59.580253949417916,36.242509677082623],[59.580544949090473,36.241372676946263],[59.5815859494828,36.239925677419471],[59.583302948501391,36.23881367724654],[59.583795949336341,36.238571677273356],[59.586374948455727,36.237876676718997],[59.589814948722335,36.237599676564365],[59.590514948284202,36.237749675811585],[59.590558949050724,36.2376826758371],[59.590585948190288,36.237497675670582],[59.590719948674582,36.236582676139975],[59.591436947277153,36.232363676161746],[59.592348270959221,36.227844733017889],[59.593550158508833,36.223509781311378],[59.594255483461502,36.221286993019262],[59.594674818727867,36.220167521824102],[59.595194038496899,36.219297376607379],[59.597065328741209,36.216183267103112],[59.60040778094978,36.210263156102002],[59.602131195093875,36.20727563660104],[59.603436942071298,36.205070674915177],[59.6042581591512,36.203620999887605],[59.605627284774059,36.201599603358765],[59.606946783200605,36.199872043508741],[59.60961531833135,36.196400950237511],[59.610491528631485,36.195387742119777],[59.611622231887452,36.194421932741236],[59.613050439166329,36.193487406033626],[59.616108465638078,36.191909020309517],[59.617605539156756,36.191194714882833],[59.619395819779015,36.190535138106888],[59.621053230252997,36.190182328464232],[59.622950187355016,36.189795929275782],[59.623544056607756,36.189663868994906],[59.626456822558332,36.189327769303624],[59.628559229694936,36.189404433202078],[59.630962769809308,36.189812031772142],[59.633824221270807,36.19066487106182],[59.63643559545153,36.191263975713547],[59.639668207248796,36.192057264046113],[59.642488663206699,36.192648793936783],[59.645407940110374,36.194023669219163],[59.645682940229761,36.194655669563367],[59.645920940059085,36.197319669197569],[59.645969940721109,36.199644669447423],[59.646187940756199,36.199639669108855],[59.646485940520883,36.199555669276997],[59.64675394112637,36.199343669788348],[59.647065940474171,36.199240669090237],[59.647757941082205,36.199288669377822],[59.648351941088976,36.199387669145388],[59.649494941011056,36.199378669448301],[59.650462940531227,36.199436669046641],[59.651445941008916,36.199382668976035],[59.652443940610304,36.199169668661703],[59.653161940439226,36.199232668292836],[59.65336694007047,36.19920466885965],[59.654067940119504,36.199321668379447],[59.654316940409238,36.199448668247136],[59.654742940677281,36.19951666796063],[59.656005940340961,36.199742668328852],[59.6564009407398,36.199774667895333],[59.656697940639553,36.199815668267924],[59.657217940650426,36.199875667811177],[59.65779894044536,36.200018668350836],[59.658360940588175,36.200018667646944],[59.658815940288321,36.199936667978442],[59.659615940004251,36.199978668161755],[59.660090940905214,36.200027667961557],[59.660669940902146,36.200122667602344],[59.661233940319761,36.200169667680882],[59.661784940694879,36.200301667224302],[59.662481940928366,36.200357667548474],[59.663352940990336,36.200326667249712],[59.663809940982475,36.200292666851212],[59.664219940099265,36.200175667595857],[59.665148940481636,36.200118666661531],[59.666021940112046,36.200159666790732],[59.667162940837059,36.200217666810815],[59.669575940536255,36.200343666846898],[59.670626940724652,36.200367666582963],[59.668879940800565,36.203293666298308],[59.671603941576414,36.204288665893934],[59.67218594123959,36.204187666221067],[59.67412894159407,36.205163666194039],[59.672012941014579,36.206107666392711],[59.674457941885038,36.207811666282325],[59.673932941989705,36.209617666129844],[59.671855943544827,36.213913665905835],[59.669383944354792,36.21807266656225],[59.667944943880443,36.220197666644552],[59.666545944269224,36.222759667146676],[59.665628944505627,36.22319866690237],[59.66229894506467,36.225907667010922],[59.659409946287582,36.228263667410808],[59.658524945319797,36.22754866803924],[59.655521946434959,36.229974667985005],[59.655677946491643,36.230325668253229],[59.655390945867133,36.2305916681563],[59.658703947011901,36.235517667437279],[59.646702949037838,36.241348669334251],[59.651290949655021,36.2452426683097],[59.651840540416977,36.245600689998049],[59.653620833386562,36.247013713437283],[59.65566694994159,36.247676667605973],[59.66161394999304,36.250490666776606],[59.666885613482343,36.244147813921742],[59.671970699220502,36.247139144921221],[59.676593189051069,36.249857954733741],[59.677351277328263,36.249427864818635],[59.678302252406283,36.24888833053749],[59.682095780714121,36.246328530316461],[59.683663229859455,36.2475521480224],[59.686898764717988,36.250036977384347],[59.687693985662548,36.250647652695619],[59.693479024070953,36.255089708288381],[59.691188965553479,36.256151891166006],[59.689828813114104,36.256839308598003],[59.691093547948896,36.258523973543085],[59.691730469048224,36.259507086891595],[59.69258555246472,36.260958950306936],[59.693788769724272,36.26285382467173],[59.699132764634328,36.267166205421127],[59.69830085807795,36.267419667899539],[59.697261841063856,36.267667978016839],[59.69652581911874,36.267924760166117],[59.695851677273488,36.268216410262625],[59.69390195302109,36.269148663051737],[59.692928953828833,36.269622662779071],[59.692428953388706,36.269916663498158],[59.692295952928056,36.269963663351824],[59.69153595387381,36.270443663176067],[59.693661953707462,36.272344663263844],[59.694530954589268,36.273583662705903],[59.695541953907679,36.275037662395512],[59.698645955165908,36.279518662656592],[59.700034955954912,36.281624662148495],[59.700274955708387,36.281973661823827],[59.700396763223118,36.282155770865572],[59.70110204674598,36.282839192973654],[59.701181921517325,36.283084823604632],[59.701059956060632,36.283089661533388],[59.700776956349131,36.283071662149972],[59.682526243760499,36.278989537314487],[59.682703456298853,36.279330221166667],[59.68904395721448,36.292177663226973],[59.689111957596296,36.292435663313178],[59.689125957744864,36.292465663596687],[59.689531958472585,36.293209663599029],[59.690045957825376,36.293818662931336],[59.694272959277932,36.299018662397103],[59.698893959661795,36.304701662207435],[59.702500960909063,36.309172661171623],[59.706577961512153,36.314181660862737],[59.706591961680012,36.315340660947051],[59.706113962507914,36.316278660816778],[59.70611496254255,36.316278660692802],[59.705902962709111,36.31682166098809],[59.705231962183426,36.317924660806717],[59.705023962912193,36.318268660838122],[59.704962962117015,36.318367661386944],[59.704960962132596,36.31837066095521],[59.704633962898718,36.318904661531462],[59.703789962615737,36.32018466095829],[59.703603962732714,36.320389661067246],[59.702739963000681,36.321504661108769],[59.701826963137194,36.322144661418065],[59.701554963393434,36.322335661625296],[59.701553963274698,36.322336661194505],[59.70166049899202,36.322309344780074],[59.701479962999755,36.322470661895458],[59.700979381055276,36.32289022913421],[59.698974964199024,36.324454661814904],[59.697635963940655,36.325205661814422],[59.69271196406001,36.327968662434913],[59.676688965655643,36.335252665016242],[59.672166966854306,36.337621665080015],[59.666660967626704,36.340283665644677],[59.664478967526819,36.34141866614582],[59.660830967794091,36.343262666082666],[59.659619770623159,36.34390048780427],[59.659167704904974,36.344100651381197],[59.66017739862265,36.345533651672135],[59.660730542186116,36.346107110758687],[59.661328447344445,36.346645165191312],[59.661791918898302,36.346999590246874],[59.662248719796672,36.346525796904203],[59.661698139080173,36.345873574627461],[59.661890827871417,36.345793808913889],[59.66169588866363,36.345488109481529],[59.662129564601365,36.345302467068848],[59.662075220469617,36.345193768326396],[59.662243318761554,36.345123906124833],[59.662308161973904,36.345193002301542],[59.662465734004975,36.345131890376813],[59.662724208786159,36.345471269244442],[59.662930257902566,36.34578399496953],[59.662809992644583,36.345986944458822],[59.662845394833198,36.346018054792872],[59.663402130465734,36.346616968640362],[59.663603213122407,36.346508910174514],[59.663715793019932,36.346354785332622],[59.663795254347946,36.34629687668027],[59.663870615316995,36.346346189223176],[59.663983532127524,36.345955119815955],[59.664720098672923,36.346339773749015],[59.665331874196944,36.346401802258363],[59.665758203333993,36.346733959585102],[59.665857925642918,36.346819634075004],[59.666052195132742,36.34710104083829],[59.665924706442112,36.347196465202543],[59.665865153591341,36.347118716366481],[59.665321697784648,36.347822689751915],[59.665231785963556,36.348109976237282],[59.665222779732623,36.348423927404568],[59.665191398488844,36.348628761692737],[59.665086327590487,36.349150613896661],[59.664981098962961,36.349328852894452],[59.664858731864307,36.349406679448386],[59.664581069004001,36.349163067239374],[59.664409969314896,36.34921566606458],[59.663945144924043,36.34917580904898],[59.663863276473926,36.349112006400738],[59.663612554379938,36.349066620050245],[59.663166443205384,36.349339655724719],[59.663205036205859,36.349382646217151],[59.662811921642316,36.349701424914613],[59.662621882926558,36.349702235039082],[59.66220232173076,36.349710806364328],[59.661956514599026,36.349832916034792],[59.661894585938654,36.35015027747351],[59.66138575504425,36.350431296533799],[59.660712927847982,36.350773204339333],[59.660400488955148,36.35083946613527],[59.659953969637179,36.351681666654585],[59.659058127050379,36.352209830353601],[59.658174506304356,36.35226923824365],[59.658148658573303,36.352136655679594],[59.657906659486457,36.352169791122726],[59.657794071631265,36.35178325158445],[59.656865824399276,36.35173831739742],[59.656022606008776,36.351732733163722],[59.655363563354626,36.351776070839314],[59.654954550927656,36.351833313925908],[59.654636095496514,36.351885489019352],[59.654134904753306,36.352162094561017],[59.653826296618575,36.352391211244012],[59.654113852912054,36.352700333752523],[59.653990393839983,36.352871887603321],[59.653593693586068,36.353122278158303],[59.653209820761759,36.352752142051763],[59.653074005417317,36.352852354292729],[59.652921449662053,36.352730656328312],[59.653166045672016,36.352484910359351],[59.652895115721186,36.352272647620374],[59.652570386196743,36.352434328940085],[59.652417551147884,36.352210259707917],[59.652020542296135,36.352223579446708],[59.65191682180739,36.351966341359471],[59.65140938148086,36.351887206063182],[59.650944164242951,36.352105433956652],[59.650655173724047,36.352404701257306],[59.650100191133291,36.352006290873767],[59.649770701775914,36.352147317156913],[59.64968894058179,36.35203929402455],[59.649728328602755,36.351984900036157],[59.649520866766572,36.351827659253139],[59.649589875358778,36.351735111467654],[59.649424019120275,36.351544555390056],[59.650094947836038,36.351144803707449],[59.649718870110689,36.350804389928712],[59.649560943833933,36.350602694285797],[59.649449836962354,36.350413697414631],[59.649369125077399,36.350302114198762],[59.649391183552915,36.350221372751093],[59.64935284894635,36.350086525262228],[59.649101628671858,36.349685553500748],[59.648758503162711,36.349879325090043],[59.648125722519403,36.350255181831166],[59.63263997148065,36.359110669757548],[59.61968197275786,36.366530671369638],[59.617983973540099,36.367533671957453],[59.616885973013666,36.368374672060348],[59.615125973240005,36.370255672459315],[59.612937974388423,36.371891672062212],[59.610886865795798,36.373549206593268],[59.610056974741461,36.373796672736731],[59.606366973990113,36.374528673440047],[59.60422624090431,36.375453040229232],[59.603928618295612,36.37342599774955],[59.603523907151285,36.37136041059054],[59.602707451388184,36.370661285116434],[59.603164824555087,36.369991570230631],[59.603368191378557,36.369637021517512],[59.603701870059574,36.36905241666863],[59.603932890814342,36.368620573018632],[59.603546089054596,36.368110948745986],[59.602620394588946,36.366952562752473],[59.601712471764166,36.367358841123306],[59.601738784647289,36.367399915901117],[59.601633284240755,36.367466173722214],[59.601548980674224,36.367332633202061],[59.601410182170618,36.367413573304539],[59.601365035967405,36.367346226965104],[59.600972661199187,36.366657695954061],[59.600576759063109,36.366154297168265],[59.601338210520488,36.365908345642268],[59.601993321373399,36.36565664417823],[59.601923058744475,36.365445524649786],[59.602213031270225,36.365349758562239],[59.603041535413098,36.365087410974425],[59.602388144740985,36.364663918012901],[59.599813972023796,36.362715673971081],[59.600785325214545,36.361839746037013],[59.598936972024504,36.360348674092798],[59.597396971490916,36.359176673928886],[59.598336795380256,36.358281458987243],[59.596574260226262,36.356923678309357],[59.595437971846046,36.357842674203333],[59.59378074577792,36.356470262434193],[59.595702970986956,36.354805674541055],[59.596779781567768,36.353954355342459],[59.595664970969423,36.353036674466949],[59.595357667803363,36.353076518622871],[59.594992725093356,36.353183150004092],[59.594657466987385,36.353313143156193],[59.593710305014881,36.353589014706152],[59.593288396146413,36.353504824260476],[59.592567010706098,36.353329537608992],[59.591712820875081,36.353128323647198],[59.591145618810941,36.352952642441345],[59.590563539774067,36.352683013415138],[59.590119807469065,36.352526214956605],[59.589860818856984,36.35257737045589],[59.58970716543142,36.352660996539285],[59.589531306089135,36.35274391791247],[59.589397263521988,36.352796368966622],[59.589281476861736,36.352830065250728],[59.589128642544935,36.352830881713508],[59.588980813355455,36.352770842378696],[59.588611625839881,36.352614087579859],[59.588470208181491,36.352464073168193],[59.588183736831404,36.352111909590747],[59.587886177822377,36.35185518804392],[59.58730697057392,36.351536676031891],[59.587276069211299,36.351450399534869],[59.586265150131453,36.351655310973719],[59.586120258484833,36.351623502331485],[59.586014969874157,36.351576676093437],[59.585621970704508,36.3516686758175],[59.585214430545911,36.351841290983238],[59.584867625420877,36.351936273590475],[59.584485970983202,36.351903676327211],[59.584385969950013,36.351737676004461],[59.583680970218516,36.351786675910155],[59.583426970101662,36.351994675931039],[59.582772970056546,36.352042676226588],[59.582340970796736,36.352169676678926],[59.581959970785213,36.352295676546298],[59.581686970919307,36.352225676102584],[59.581420970939732,36.352037676732486],[59.581216970631061,36.35184867637787],[59.580917970014305,36.351610676649571],[59.580678752513705,36.351532134206252],[59.580265930130039,36.351505871302642],[59.580083784414974,36.351499504486938],[59.579973227811188,36.351619427398468],[59.579775970055792,36.35184367666136],[59.5805314539964,36.352607688375684],[59.580427971144857,36.35266767689108],[59.565814972848358,36.361453678369379],[59.567069972832151,36.363021678136157],[59.56710897279833,36.363028677984531],[59.562622973068919,36.364082678653432],[59.562262973464698,36.364121678637041],[59.56095697289291,36.364441679218004],[59.562243973722502,36.366291679070045],[59.562074973734532,36.366349678333151],[59.561197973835718,36.366653679218452],[59.56017297336053,36.367134678857958],[59.559221973981131,36.367012678938323],[59.559018973255043,36.367599679376305],[59.559082973941941,36.369428679262299],[59.558077973825604,36.368974679156196],[59.557064973766487,36.370455679231853],[59.55467897378896,36.369319679225377],[59.554313974127886,36.369560679735812],[59.553435974764582,36.370228680027459],[59.549346975201928,36.374645680596245],[59.553017975526224,36.376330679497627],[59.55302997587831,36.376354679656025],[59.553333975507996,36.376452679651294],[59.553464975397169,36.376571679964883],[59.557090975550139,36.378224678957992],[59.557196976070799,36.378272679435028],[59.557117975328488,36.378582679512824],[59.556985976449305,36.379326678831937],[59.557213976059934,36.379466679538034],[59.557230976165435,36.379972678834264],[59.557060976716038,36.380265678900251],[59.556386976432549,36.380858679699166],[59.555586976597546,36.381439679026585],[59.554880976862734,36.382075679316657],[59.554721976919041,36.38224867927044],[59.553999831791735,36.383153863204356],[59.553194814699125,36.383979993236338],[59.551592144956039,36.383809470219994],[59.54927707239009,36.383134593994839],[59.548807976389575,36.382867679986035],[59.547921977251804,36.383690679891849],[59.547916977178026,36.383694680099055],[59.54705897705405,36.384491680231207],[59.546878976797977,36.384670680779784],[59.546230976852129,36.385312680667177],[59.544956976822654,36.385009681068105],[59.544915976974231,36.384995680567847],[59.543622976881778,36.384551681061147],[59.543585977161165,36.384492680917745],[59.542312976591205,36.384144681282748],[59.542001977289289,36.384064681135222],[59.541561976968019,36.383938681440192],[59.541469977299592,36.383954681019894],[59.541360977442906,36.384164681541797],[59.541021977661799,36.384642680760358],[59.540447977762284,36.385451681153292],[59.539919977036,36.385116681303238],[59.53991897697373,36.385115681440524],[59.537799977288891,36.383780681380905],[59.534463978055818,36.388658682305106],[59.526452980080357,36.398289682836086],[59.52657298046082,36.398542682450767],[59.526567979762639,36.398570682700857],[59.526359522720476,36.399383284528859],[59.525681024975938,36.399825732332388],[59.525262491835214,36.399738005852967],[59.524422980074405,36.399886683568141],[59.524110980332154,36.400068683305193],[59.524162980248775,36.400336683061063],[59.523668980304556,36.400708683082343],[59.523100980253787,36.400568683698161],[59.522260979963633,36.400106683508859],[59.522257980926348,36.40010168352984],[59.52223797990807,36.400066683435519],[59.523111980551775,36.398204682965044],[59.521945979361185,36.397383683266341],[59.521675979824977,36.397691683159316],[59.520209979649565,36.396861683690204],[59.519408980066245,36.397497683426614],[59.516774980704497,36.399834684018273],[59.516763980696481,36.399844683980014],[59.516513980827305,36.399565684110947],[59.513679979786936,36.396866684781422],[59.513501979795443,36.396698684303871],[59.512751979503044,36.397374684295102],[59.509653980068677,36.400167685092192],[59.508808981232079,36.400916685457858],[59.508673980952992,36.400826685246571],[59.5081859805953,36.400419685353747],[59.507916980362538,36.400164685078984],[59.507623980569107,36.399947685085017],[59.507005980965744,36.399306685464595],[59.506733980809372,36.39903968536742],[59.506664980472216,36.398910685446218],[59.506667980263636,36.398787685568664],[59.506631980731925,36.398621685522514],[59.506546980270535,36.398499685570101],[59.506361980442939,36.398346685112443],[59.506157980189521,36.398224685260793],[59.506126979723611,36.398201685748056],[59.506032980303942,36.398128685713118],[59.505959980020577,36.398073685759599],[59.505634980026045,36.397839685574773],[59.505535979846243,36.397784685866846],[59.505351979716643,36.397681685471781],[59.505090979710495,36.397605685321444],[59.504854979942152,36.397537686034156],[59.504496980044344,36.397439685747401],[59.504356980092119,36.39740168538264],[59.504190979957421,36.397397685760737],[59.503998980605253,36.397393686056638],[59.503703979922001,36.397337686143011],[59.503595979958853,36.39731768541477],[59.503033980490542,36.397232685549248],[59.502778980484599,36.397234686226433],[59.502713980603367,36.397235685913593],[59.502530979718834,36.397279685592231],[59.502374979541578,36.397334685937345],[59.502213979677798,36.397391686279583],[59.502074980455006,36.397437685683066],[59.501868980354537,36.397482685606278],[59.50180798058031,36.397512686104513],[59.501695979824014,36.397568685767837],[59.501492980709138,36.397679685840728],[59.50119498037288,36.397819685857563],[59.50106098057865,36.397879686143483],[59.501059980565834,36.397879686368121],[59.50093898022611,36.397933686508495],[59.500671980639972,36.398029686008712],[59.500404980376075,36.398085686203473],[59.500328979751266,36.398101686099537],[59.500048980681328,36.39814268653798],[59.499712980187191,36.398116686445874],[59.499522980039679,36.398051686025418],[59.499490980189591,36.398048686120887],[59.499456980310001,36.398045686630226],[59.499439979823563,36.398030686641725],[59.499401979990715,36.398015686552405],[59.498821980791611,36.398156686064915],[59.49763398055029,36.398218686385142],[59.495479980223735,36.398330686627787],[59.492409980169931,36.398490687396958],[59.491127979864743,36.398217687302498],[59.490967980324299,36.398099687110673],[59.490868980862182,36.398072687717118],[59.490413979830777,36.398022687536312],[59.490275980520892,36.397911687258897],[59.490062979927551,36.397925687241667]]]},"properties":{"OBJECTID":1,"AreaHectar":null,"Name":"متصل","Shape_Length":104450.60777166046,"Shape_Area":305772366.58018339}}]}