{"type":"FeatureCollection","features":[{"type":"Feature","id":1,"geometry":{"type":"Point","coordinates":[59.512887656000032,36.420725517000051]},"properties":{"OBJECTID":1,"Name":"به طرف کمربند غربی","FolderPath":"60m_V4","SymbolID":0,"AltMode":-1,"Base":0,"Snippet":"","PopupInfo":"","HasLabel":-1,"LabelID":0}},{"type":"Feature","id":2,"geometry":{"type":"Point","coordinates":[59.704973331000076,36.316857871000025]},"properties":{"OBJECTID":2,"Name":"به طرف کمربند شرقی","FolderPath":"60m_V4","SymbolID":0,"AltMode":-1,"Base":0,"Snippet":"","PopupInfo":"","HasLabel":-1,"LabelID":0}}]}