{"type":"FeatureCollection","features":[{"type":"Feature","id":1,"geometry":{"type":"Polygon","coordinates":[[[59.514010374000065,36.419533391000073],[59.513740888000029,36.419722453000077],[59.514518992000035,36.42049391300003],[59.513794874000041,36.420872493000047],[59.513051697000037,36.420136225000078],[59.512757858000043,36.42026708800006],[59.513019614000029,36.419595676000029],[59.514010374000065,36.419533391000073]]]},"properties":{"OBJECTID":1,"Name":"Untitled Polygon","FolderPath":"60m_V4","SymbolID":0,"AltMode":0,"Base":0,"Clamped":-1,"Extruded":0,"Snippet":"","PopupInfo":"","Shape_Length":0.0053231663049979061,"Shape_Area":1.1937586686175191e-06}},{"type":"Feature","id":2,"geometry":{"type":"Polygon","coordinates":[[[59.70525441400008,36.317047547000072],[59.70449242400008,36.316742721000026],[59.705128431000048,36.31557255000007],[59.704769788000078,36.315459417000056],[59.70566838600007,36.315065925000056],[59.706188332000067,36.315831294000077],[59.70583317300003,36.315801005000026],[59.70525441400008,36.317047547000072]]]},"properties":{"OBJECTID":2,"Name":"Untitled Polygon","FolderPath":"60m_V4","SymbolID":0,"AltMode":0,"Base":0,"Clamped":-1,"Extruded":0,"Snippet":"","PopupInfo":"","Shape_Length":0.0061656519021801174,"Shape_Area":1.5377497889875893e-06}}]}