{"type":"FeatureCollection","features":[{"type":"Feature","id":1,"geometry":{"type":"LineString","coordinates":[[59.512345864000054,36.418505076000031],[59.515206655000043,36.421253353000054],[59.515857406000066,36.421826381000074],[59.517014180000047,36.422631564000028],[59.518032035000033,36.42316164600004],[59.518879235000043,36.423497227000041],[59.519755098000076,36.423754694000024],[59.520836474000077,36.423957293000058],[59.522134487000073,36.424041893000037],[59.523545338000076,36.423941868000043],[59.525061070000049,36.423604064000074],[59.525937798000029,36.423290397000073],[59.526972597000054,36.422793618000071],[59.539917790000061,36.41563728400007],[59.540731589000075,36.415153254000074],[59.541149472000029,36.414876567000078],[59.541718337000077,36.414466195000045],[59.542079840000042,36.414183530000059],[59.542567377000069,36.413772746000063],[59.542722344000083,36.413634525000077],[59.543266222000057,36.413117304000025],[59.543957729000056,36.412377597000045],[59.551831170000071,36.40336381700007],[59.552236120000032,36.402918571000043],[59.552485682000054,36.402661228000056],[59.552865022000049,36.402292537000051],[59.553109259000053,36.402055156000074],[59.553505490000077,36.40172510900004],[59.553816512000083,36.401471994000076],[59.554097188000071,36.401255095000067],[59.554483781000044,36.40097313900003],[59.554897019000066,36.400691923000068],[59.555275195000036,36.400451688000032],[59.555414551000069,36.400367096000025],[59.566817813000057,36.393529615000034],[59.570951228000069,36.391237928000066],[59.58212280500004,36.386022197000045],[59.582605983000064,36.385797486000058],[59.590107639000053,36.382299698000054],[59.598113664000039,36.378569220000031],[59.609572011000068,36.37323163800005],[59.610149014000058,36.372947648000036],[59.611072878000073,36.37242578300004],[59.611816146000081,36.371939695000037],[59.612340657000061,36.37155692400006],[59.613072398000043,36.370960901000046],[59.613804647000052,36.370281043000034],[59.616727151000077,36.367380506000075],[59.617328926000027,36.366806889000031],[59.618293126000083,36.365977476000069],[59.618731834000073,36.365632775000051],[59.619993961000034,36.364741379000066],[59.626511570000048,36.360495380000032],[59.630797797000071,36.358167044000027],[59.637500887000044,36.355191053000055],[59.640274389000069,36.353779481000061],[59.648937985000032,36.348776011000041],[59.649767657000041,36.348278472000061],[59.654620360000081,36.345258745000024],[59.656447890000038,36.344246297000041],[59.676912297000058,36.334229890000074],[59.677490679000073,36.33395783800006],[59.688254110000059,36.329097545000025],[59.689577173000032,36.328419258000054],[59.698753710000062,36.323124743000051],[59.699302722000027,36.322769712000024],[59.699777365000045,36.322438614000077],[59.700180714000055,36.322135021000065],[59.700553183000068,36.32183505900008],[59.700793766000061,36.321630581000079],[59.701499965000039,36.320976547000043],[59.701720191000049,36.320754470000054],[59.702035260000059,36.320419955000034],[59.702429350000045,36.319970840000053],[59.702912824000066,36.319366208000076],[59.703209891000029,36.318960425000057],[59.703534902000058,36.318481117000033],[59.703857750000054,36.317961764000074],[59.705048477000048,36.315956234000055]]},"properties":{"OBJECTID":1,"Name":"Placemark","FolderPath":"60m_V4/60m_V4","SymbolID":0,"AltMode":-1,"Base":0,"Clamped":0,"Extruded":0,"Snippet":"","PopupInfo":"\u003chtml xmlns:fo=\"http://www.w3.org/1999/XSL/Format\" xmlns:msxsl=\"urn:schemas-microsoft-com:xslt\"\u003e\n\n\u003chead\u003e\n\n\u003cMETA http-equiv=\"Content-Type\" content=\"text/html\"\u003e\n\n\u003cmeta http-equiv=\"content-type\" content=\"text/html; charset=UTF-8\"\u003e\n\n\u003c/head\u003e\n\n\u003cbody style=\"margin:0px 0px 0px 0px;overflow:auto;background:#FFFFFF;\"\u003e\n\n\u003ctable style=\"font-family:Arial,Verdana,Times;font-size:12px;text-align:left;width:100%;border-collapse:collapse;padding:3px 3px 3px 3px\"\u003e\n\n\u003ctr style=\"text-align:center;font-weight:bold;background:#9CBCE2\"\u003e\n\n\u003ctd\u003e \u003c/td\u003e\n\n\u003c/tr\u003e\n\n\u003ctr\u003e\n\n\u003ctd\u003e\n\n\u003ctable style=\"font-family:Arial,Verdana,Times;font-size:12px;text-align:left;width:100%;border-spacing:0px; padding:3px 3px 3px 3px\"\u003e\n\n\u003ctr\u003e\n\n\u003ctd\u003eFID\u003c/td\u003e\n\n\u003ctd\u003e0\u003c/td\u003e\n\n\u003c/tr\u003e\n\n\u003ctr bgcolor=\"#D4E4F3\"\u003e\n\n\u003ctd\u003eFID_\u003c/td\u003e\n\n\u003ctd\u003e0\u003c/td\u003e\n\n\u003c/tr\u003e\n\n\u003ctr\u003e\n\n\u003ctd\u003eEntity\u003c/td\u003e\n\n\u003ctd\u003eLWPolyline\u003c/td\u003e\n\n\u003c/tr\u003e\n\n\u003ctr bgcolor=\"#D4E4F3\"\u003e\n\n\u003ctd\u003eLayer\u003c/td\u003e\n\n\u003ctd\u003egaz20m\u003c/td\u003e\n\n\u003c/tr\u003e\n\n\u003ctr\u003e\n\n\u003ctd\u003eColor\u003c/td\u003e\n\n\u003ctd\u003e64\u003c/td\u003e\n\n\u003c/tr\u003e\n\n\u003ctr bgcolor=\"#D4E4F3\"\u003e\n\n\u003ctd\u003eLinetype\u003c/td\u003e\n\n\u003ctd\u003eContinuous\u003c/td\u003e\n\n\u003c/tr\u003e\n\n\u003ctr\u003e\n\n\u003ctd\u003eElevation\u003c/td\u003e\n\n\u003ctd\u003e0\u003c/td\u003e\n\n\u003c/tr\u003e\n\n\u003ctr bgcolor=\"#D4E4F3\"\u003e\n\n\u003ctd\u003eLineWt\u003c/td\u003e\n\n\u003ctd\u003e30\u003c/td\u003e\n\n\u003c/tr\u003e\n\n\u003ctr\u003e\n\n\u003ctd\u003eRefName\u003c/td\u003e\n\n\u003ctd\u003e\u003c/td\u003e\n\n\u003c/tr\u003e\n\n\u003c/table\u003e\n\n\u003c/td\u003e\n\n\u003c/tr\u003e\n\n\u003c/table\u003e\n\n\u003c/body\u003e\n\n\u003c/html\u003e","Shape_Length":0.22633018830633811}},{"type":"Feature","id":2,"geometry":{"type":"LineString","coordinates":[[59.511930194000058,36.418937764000077],[59.514800369000056,36.421695055000043],[59.515486557000031,36.422299288000033],[59.51670295100007,36.423145971000054],[59.517782323000063,36.423708089000058],[59.518683740000029,36.424065146000032],[59.51961489100006,36.424338866000028],[59.520761447000041,36.424553676000073],[59.522136199000045,36.424643278000076],[59.523632291000069,36.42453720900005],[59.52522803100004,36.424181574000045],[59.52616931700004,36.423844810000048],[59.527247802000034,36.42332705900003],[59.540216366000038,36.416157806000058],[59.541050754000082,36.415661529000033],[59.541490744000043,36.415370205000045],[59.542078777000029,36.414946006000037],[59.542458061000048,36.414649437000037],[59.542960447000041,36.414226141000029],[59.543128875000036,36.41407591400008],[59.543692480000061,36.413539933000038],[59.544402950000062,36.412779941000053],[59.552279094000028,36.403763067000057],[59.552673532000028,36.40332937900007],[59.552910229000076,36.403085302000079],[59.553283203000035,36.40272279800007],[59.553510945000028,36.402501449000056],[59.553886870000042,36.402188316000036],[59.554189375000078,36.401942132000045],[59.554457477000028,36.401734950000048],[59.554829432000076,36.401463671000045],[59.555226743000048,36.401193293000063],[59.555591759000038,36.400961418000065],[59.555724498000075,36.400880843000039],[59.56713983700007,36.394036121000056],[59.57120053500006,36.391783703000044],[59.582379530000082,36.386564510000028],[59.582855961000064,36.38634294600007],[59.59035962400003,36.382844222000074],[59.598368548000053,36.379112393000071],[59.609831196000073,36.373772808000069],[59.61042926600004,36.373478448000071],[59.611384956000052,36.372938607000037],[59.612157417000049,36.372433427000033],[59.612707224000076,36.372032195000031],[59.613466394000056,36.371413831000041],[59.614220214000056,36.370713945000034],[59.617145514000072,36.367810632000044],[59.617731818000038,36.36725176300007],[59.618674301000055,36.366441031000079],[59.619090482000047,36.366114029000073],[59.620330902000035,36.365237965000063],[59.626839081000071,36.360998109000036],[59.631041264000032,36.35871542700005],[59.637744354000063,36.355739436000079],[59.64057445800006,36.354299056000059],[59.649238055000069,36.349295586000039],[59.650084658000083,36.348787893000065],[59.654937361000066,36.345768166000028],[59.656711663000067,36.344785207000029],[59.677176069000041,36.334768800000063],[59.677737605000061,36.334504672000037],[59.688501036000048,36.329644379000058],[59.689877022000076,36.328938960000073],[59.69906674200007,36.323636839000073],[59.699637369000072,36.323267830000077],[59.700129528000048,36.322924514000078],[59.700549392000028,36.32260849100004],[59.700935702000038,36.322297381000055],[59.701192078000076,36.32207948100006],[59.701917018000074,36.321408090000034],[59.702151665000031,36.321171471000071],[59.702479278000055,36.320823638000036],[59.702889390000053,36.320356264000054],[59.703389410000057,36.319730939000067],[59.703700415000071,36.319306117000053],[59.704038184000069,36.318807996000032],[59.704370547000053,36.318273335000072],[59.705564396000057,36.316262546000075]]},"properties":{"OBJECTID":2,"Name":"Placemark","FolderPath":"60m_V4/60m_V4","SymbolID":0,"AltMode":-1,"Base":0,"Clamped":0,"Extruded":0,"Snippet":"","PopupInfo":"\u003chtml xmlns:fo=\"http://www.w3.org/1999/XSL/Format\" xmlns:msxsl=\"urn:schemas-microsoft-com:xslt\"\u003e\n\n\u003chead\u003e\n\n\u003cMETA http-equiv=\"Content-Type\" content=\"text/html\"\u003e\n\n\u003cmeta http-equiv=\"content-type\" content=\"text/html; charset=UTF-8\"\u003e\n\n\u003c/head\u003e\n\n\u003cbody style=\"margin:0px 0px 0px 0px;overflow:auto;background:#FFFFFF;\"\u003e\n\n\u003ctable style=\"font-family:Arial,Verdana,Times;font-size:12px;text-align:left;width:100%;border-collapse:collapse;padding:3px 3px 3px 3px\"\u003e\n\n\u003ctr style=\"text-align:center;font-weight:bold;background:#9CBCE2\"\u003e\n\n\u003ctd\u003e \u003c/td\u003e\n\n\u003c/tr\u003e\n\n\u003ctr\u003e\n\n\u003ctd\u003e\n\n\u003ctable style=\"font-family:Arial,Verdana,Times;font-size:12px;text-align:left;width:100%;border-spacing:0px; padding:3px 3px 3px 3px\"\u003e\n\n\u003ctr\u003e\n\n\u003ctd\u003eFID\u003c/td\u003e\n\n\u003ctd\u003e1\u003c/td\u003e\n\n\u003c/tr\u003e\n\n\u003ctr bgcolor=\"#D4E4F3\"\u003e\n\n\u003ctd\u003eFID_\u003c/td\u003e\n\n\u003ctd\u003e0\u003c/td\u003e\n\n\u003c/tr\u003e\n\n\u003ctr\u003e\n\n\u003ctd\u003eEntity\u003c/td\u003e\n\n\u003ctd\u003eLWPolyline\u003c/td\u003e\n\n\u003c/tr\u003e\n\n\u003ctr bgcolor=\"#D4E4F3\"\u003e\n\n\u003ctd\u003eLayer\u003c/td\u003e\n\n\u003ctd\u003egaz20m\u003c/td\u003e\n\n\u003c/tr\u003e\n\n\u003ctr\u003e\n\n\u003ctd\u003eColor\u003c/td\u003e\n\n\u003ctd\u003e64\u003c/td\u003e\n\n\u003c/tr\u003e\n\n\u003ctr bgcolor=\"#D4E4F3\"\u003e\n\n\u003ctd\u003eLinetype\u003c/td\u003e\n\n\u003ctd\u003eContinuous\u003c/td\u003e\n\n\u003c/tr\u003e\n\n\u003ctr\u003e\n\n\u003ctd\u003eElevation\u003c/td\u003e\n\n\u003ctd\u003e0\u003c/td\u003e\n\n\u003c/tr\u003e\n\n\u003ctr bgcolor=\"#D4E4F3\"\u003e\n\n\u003ctd\u003eLineWt\u003c/td\u003e\n\n\u003ctd\u003e30\u003c/td\u003e\n\n\u003c/tr\u003e\n\n\u003ctr\u003e\n\n\u003ctd\u003eRefName\u003c/td\u003e\n\n\u003ctd\u003e\u003c/td\u003e\n\n\u003c/tr\u003e\n\n\u003c/table\u003e\n\n\u003c/td\u003e\n\n\u003c/tr\u003e\n\n\u003c/table\u003e\n\n\u003c/body\u003e\n\n\u003c/html\u003e","Shape_Length":0.22741146446512783}}]}