{"type":"FeatureCollection","features":[{"type":"Feature","id":1,"geometry":{"type":"LineString","coordinates":[[59.646434532206008,36.203718493822706],[59.646134911252169,36.203639469043054]]},"properties":{"OBJECTID":1,"LAYER":"250p-mojood","capacity":"8\"","Shape_Length":28.344639509551822}},{"type":"Feature","id":2,"geometry":{"type":"LineString","coordinates":[[59.654370364573246,36.206266748301161],[59.65104966233357,36.204935669450222],[59.646434532206008,36.203718493822706]]},"properties":{"OBJECTID":2,"LAYER":"250p-mojood","capacity":"12\"","Shape_Length":769.85179771946036}},{"type":"Feature","id":3,"geometry":{"type":"LineString","coordinates":[[59.654370364573246,36.206266748301161],[59.653687944571438,36.207917726138206]]},"properties":{"OBJECTID":3,"LAYER":"250p-mojood","capacity":"12\"","Shape_Length":193.2609248768695}},{"type":"Feature","id":4,"geometry":{"type":"LineString","coordinates":[[59.658228303347556,36.237076263965953],[59.658644955527286,36.236491621719374],[59.658683050360899,36.235102191464065],[59.661164933104736,36.230854733107087],[59.662812115044773,36.23075730657628],[59.666690403764193,36.225342213820795],[59.666478582901547,36.222039039578824],[59.667952476855383,36.214791966811148],[59.660540889519254,36.208739788936548],[59.654370364573246,36.206266748301161]]},"properties":{"OBJECTID":4,"LAYER":"250p-mojood","capacity":"12\"","Shape_Length":4342.3055323730769}},{"type":"Feature","id":5,"geometry":{"type":"LineString","coordinates":[[59.653687944571438,36.207917726138206],[59.653356193533043,36.20872029770068],[59.65367105373354,36.208819538001784],[59.652729504331873,36.210553270767321],[59.650903698606356,36.212083329220995]]},"properties":{"OBJECTID":5,"LAYER":"250p-mojood","capacity":"12\"","Shape_Length":570.83798122143719}},{"type":"Feature","id":6,"geometry":{"type":"LineString","coordinates":[[59.650903698606356,36.212083329220995],[59.636873963776942,36.223837652056133],[59.636650712007977,36.228070784967123],[59.633188276003423,36.230684009481074],[59.628883265803388,36.232879364863912],[59.626104160648779,36.23414133491309],[59.623388678289686,36.23467759347124],[59.622615603769937,36.243925651894585],[59.614086951695981,36.252719102619203]]},"properties":{"OBJECTID":6,"LAYER":"250p-mojood","capacity":"8\"","Shape_Length":5976.1818013414768}},{"type":"Feature","id":7,"geometry":{"type":"LineString","coordinates":[[59.604024151285095,36.244279750308159],[59.603064137607241,36.242984136847859],[59.601538096423269,36.240951353407077],[59.599668817272729,36.238158194640391],[59.598855526873862,36.237052899737698],[59.598446835141949,36.236454878648843],[59.597981221783236,36.235804480357309],[59.597730878641322,36.235353149582501],[59.59739062900465,36.23465593347705],[59.596750751721295,36.233148454254895],[59.596526619201988,36.232676241860858],[59.596128692774975,36.232183678962002],[59.595416553912131,36.23175145874692],[59.594332398898892,36.231305216941024],[59.592983146469223,36.230801840023396]]},"properties":{"OBJECTID":7,"LAYER":"250p-mojood","capacity":"8\"","Shape_Length":1846.098804830448}},{"type":"Feature","id":8,"geometry":{"type":"LineString","coordinates":[[59.656362108308187,36.270626846618732],[59.655121046291534,36.268193188660248],[59.651221132518749,36.263143652475549],[59.648631806086904,36.261301652134783],[59.649485576175891,36.259120312050641],[59.651976242930822,36.24584796268315],[59.658228303347556,36.237076263965953]]},"properties":{"OBJECTID":8,"LAYER":"250p-mojood","capacity":"20\"","Shape_Length":4131.5132329833214}},{"type":"Feature","id":9,"geometry":{"type":"LineString","coordinates":[[59.605425117207581,36.250435820192088],[59.607020849566041,36.248788325092505],[59.60644265354788,36.247660540661492],[59.604860671208968,36.245430977836399],[59.604024151285095,36.244279750308159]]},"properties":{"OBJECTID":9,"LAYER":"250p-mojood","capacity":"8\"","Shape_Length":801.66480518840967}},{"type":"Feature","id":10,"geometry":{"type":"LineString","coordinates":[[59.60809812578583,36.251233803310534],[59.607683720874988,36.250391040180475],[59.607631448271974,36.250284735983264],[59.607423301603433,36.249781360610022],[59.60707177828224,36.249904155048903]]},"properties":{"OBJECTID":10,"LAYER":"250p-mojood","capacity":"8\"","Shape_Length":206.72782596762966}},{"type":"Feature","id":11,"geometry":{"type":"LineString","coordinates":[[59.607683720874988,36.250391040180475],[59.606623255733837,36.250951095506018],[59.605850144783147,36.250806686457381],[59.605425117207581,36.250435820192088]]},"properties":{"OBJECTID":11,"LAYER":"250p-mojood","capacity":"8\"","Shape_Length":241.30785638380314}},{"type":"Feature","id":12,"geometry":{"type":"LineString","coordinates":[[59.636319241031607,36.269766294458911],[59.636091229534571,36.269384815272083],[59.626160915048864,36.258287293437462],[59.623490970699464,36.257515889805525],[59.617821220169077,36.254787320409136],[59.614086951695981,36.252719102619203],[59.612043167296022,36.251587048751844],[59.608349628487318,36.251091486443258],[59.60809812578583,36.251233803310534],[59.589200409819611,36.261924574695563],[59.570297442039696,36.272612546477937],[59.557529373260621,36.273011341530761],[59.557446048704072,36.273015117269601],[59.557362931219984,36.273021248075032],[59.557280130387291,36.273029715379941],[59.557197747445329,36.273040517920286],[59.557115878684847,36.273053639216407],[59.55703462045566,36.273069064590153],[59.55695408113715,36.273086772797306],[59.556874344638928,36.273106743117431],[59.556795524931857,36.273128955088474],[59.556717706744685,36.273153378960096],[59.55664098467021,36.273179980264743],[59.556565461381389,36.273208733375007],[59.55649121581191,36.273239601454883],[59.556418348058564,36.273272548117063],[59.556346942441124,36.273307531002942],[59.556277084362819,36.273344506829609],[59.556208861569495,36.27338343586927],[59.556142354605072,36.273424262325243],[59.556077645655165,36.27346694658889],[59.556014818425481,36.273511427388385],[59.555953941461652,36.273557656394154],[59.555895090684636,36.273605572500969],[59.555838338972912,36.273655123681536],[59.555783757770115,36.273706248025157],[59.555731409504787,36.273758880208788],[59.555681359065531,36.273812962066998],[59.555633666393092,36.273868420218356],[59.55558838844437,36.273925192160526],[59.555545584019598,36.273983203635105],[59.555505307881553,36.274042393087782],[59.555467598634024,36.274102681284113],[59.555432509781646,36.274164002190105],[59.555400084231479,36.27422627197263],[59.555370355174063,36.274289416018966],[59.555343370436411,36.274353364811013],[59.555319149715423,36.274418039517847],[59.555297725850288,36.274483354718392],[59.555279136394049,36.274549233002169],[59.554937084028474,36.275548967933275],[59.554705313036386,36.277841997491805],[59.55649191289924,36.285013897950016]]},"properties":{"OBJECTID":12,"LAYER":"250p-mojood","capacity":"16\"","Shape_Length":10169.76276274486}},{"type":"Feature","id":13,"geometry":{"type":"LineString","coordinates":[[59.636320696415396,36.269768730921015],[59.636319241031607,36.269766294458911]]},"properties":{"OBJECTID":13,"LAYER":"250p-mojood","capacity":"16\"","Shape_Length":0.30041433086419284}},{"type":"Feature","id":14,"geometry":{"type":"LineString","coordinates":[[59.656362108308187,36.270626846618732],[59.640613573715513,36.276950187589648],[59.636320696415396,36.269768730921015]]},"properties":{"OBJECTID":14,"LAYER":"250p-mojood","capacity":"16\"","Shape_Length":2465.4917879088766}},{"type":"Feature","id":15,"geometry":{"type":"LineString","coordinates":[[59.659034798020535,36.287887167729025],[59.655683509204152,36.28016074323245],[59.655607446746409,36.27791683495095],[59.657050424435667,36.27496639811676],[59.657749001396411,36.272186421073762],[59.657026377605249,36.270360057536422],[59.656362108308187,36.270626846618732]]},"properties":{"OBJECTID":15,"LAYER":"250p-mojood","capacity":"16\"","Shape_Length":2104.769131451882}},{"type":"Feature","id":16,"geometry":{"type":"LineString","coordinates":[[59.688729549831187,36.277378121856849],[59.688754713995785,36.277368576504578],[59.689044020938802,36.277273225991053],[59.689572005110861,36.278022057181637]]},"properties":{"OBJECTID":16,"LAYER":"250p-mojood","capacity":"4\"","Shape_Length":126.28214612281127}},{"type":"Feature","id":17,"geometry":{"type":"LineString","coordinates":[[59.680310910820438,36.282571512404395],[59.685954554556353,36.280617161899599],[59.686399617662929,36.27982476560873],[59.687582294022405,36.278545775239543],[59.688729549831187,36.277378121856849]]},"properties":{"OBJECTID":17,"LAYER":"250p-mojood","capacity":"4\"","Shape_Length":991.23283711989893}},{"type":"Feature","id":18,"geometry":{"type":"LineString","coordinates":[[59.55649191289924,36.285013897950016],[59.556163081619296,36.285088009003822]]},"properties":{"OBJECTID":18,"LAYER":"250p-mojood","capacity":"8\"","Shape_Length":30.672510536275652}},{"type":"Feature","id":19,"geometry":{"type":"LineString","coordinates":[[59.554474549306619,36.285468545575718],[59.556163081619296,36.285088009003822]]},"properties":{"OBJECTID":19,"LAYER":"250p-mojood","capacity":"8\"","Shape_Length":157.5007197477934}},{"type":"Feature","id":20,"geometry":{"type":"LineString","coordinates":[[59.554474549306619,36.285468545575718],[59.554143229628167,36.285543211739501],[59.550107769754156,36.284596318064679]]},"properties":{"OBJECTID":20,"LAYER":"250p-mojood","capacity":"8\"","Shape_Length":408.45457967716419}},{"type":"Feature","id":21,"geometry":{"type":"LineString","coordinates":[[59.55649191289924,36.285013897950016],[59.557041877051795,36.287221297704384],[59.561678436512011,36.297139916071849]]},"properties":{"OBJECTID":21,"LAYER":"250p-mojood","capacity":"16\"","Shape_Length":1427.0191482930047}},{"type":"Feature","id":22,"geometry":{"type":"LineString","coordinates":[[59.677701381222249,36.283339851112899],[59.680310910820438,36.282571512404395]]},"properties":{"OBJECTID":22,"LAYER":"250p-mojood","capacity":"4\"","Shape_Length":249.54107295847282}},{"type":"Feature","id":23,"geometry":{"type":"LineString","coordinates":[[59.677699708686511,36.283340258105497],[59.677701381222249,36.283339851112899]]},"properties":{"OBJECTID":23,"LAYER":"250p-mojood","capacity":"20\"","Shape_Length":0.15694983315538052}},{"type":"Feature","id":24,"geometry":{"type":"LineString","coordinates":[[59.660001125182845,36.287651845995526],[59.677699708686511,36.283340258105497]]},"properties":{"OBJECTID":24,"LAYER":"250p-mojood","capacity":"20\"","Shape_Length":1660.9302818227341}},{"type":"Feature","id":25,"geometry":{"type":"LineString","coordinates":[[59.677699708686511,36.283340258105497],[59.678183511646992,36.283542874489335]]},"properties":{"OBJECTID":25,"LAYER":"250p-mojood","capacity":"4\"","Shape_Length":48.95082264321104}},{"type":"Feature","id":26,"geometry":{"type":"LineString","coordinates":[[59.678183511646992,36.283542874489335],[59.678726985632323,36.28482326591876],[59.681893089872965,36.284221282171643]]},"properties":{"OBJECTID":26,"LAYER":"250p-mojood","capacity":"4\"","Shape_Length":442.54892915767084}},{"type":"Feature","id":27,"geometry":{"type":"LineString","coordinates":[[59.659034798020535,36.287887167729025],[59.660001125182845,36.287651845995526]]},"properties":{"OBJECTID":27,"LAYER":"250p-mojood","capacity":"20\"","Shape_Length":90.679689730880781}},{"type":"Feature","id":28,"geometry":{"type":"LineString","coordinates":[[59.624199145740867,36.328331807019723],[59.630131524701447,36.325346773973259],[59.636216818106973,36.321967511511147],[59.641718460265245,36.318955881045774],[59.654875527975875,36.311833101678644],[59.66075682864831,36.308089656176371],[59.664814088619103,36.305634623225139],[59.666216274580314,36.303895567920826],[59.666338286901428,36.302710542335575],[59.666133558362908,36.301467126715274],[59.665199462963081,36.300296310467189],[59.663075212438549,36.297615775305559],[59.660276349236533,36.288544048417641],[59.66019916771085,36.288293846281022],[59.660001125182845,36.287651845995526]]},"properties":{"OBJECTID":28,"LAYER":"250p-mojood","capacity":"16\"","Shape_Length":6586.0715304762998}},{"type":"Feature","id":29,"geometry":{"type":"LineString","coordinates":[[59.659232095722871,36.288463116907707],[59.659125273172577,36.288095734182541],[59.659034798020535,36.287887167729025]]},"properties":{"OBJECTID":29,"LAYER":"250p-mojood","capacity":"16\"","Shape_Length":66.429914580609136}},{"type":"Feature","id":30,"geometry":{"type":"LineString","coordinates":[[59.59019189526515,36.343565516471926],[59.597658329854852,36.340184059834137],[59.605310567958263,36.336896528979018],[59.616868441377378,36.330972558799822],[59.628403362330992,36.325240585071889],[59.631676079735222,36.323455973366158],[59.633477904170363,36.322345096398827],[59.641844456423485,36.31813433587358],[59.650414902019975,36.313580680142486],[59.65939757761398,36.30800294600504],[59.664687350651356,36.304930058959641],[59.66570926697937,36.303588869451076],[59.665650479727354,36.301862633558954],[59.664300400415328,36.300165198897105],[59.661729354500793,36.29705079489964],[59.659232095722871,36.288463116907707]]},"properties":{"OBJECTID":30,"LAYER":"250p-mojood","capacity":"16\"","Shape_Length":9942.5902928980231}},{"type":"Feature","id":31,"geometry":{"type":"LineString","coordinates":[[59.561678436512011,36.297139916071849],[59.563106633050836,36.300194555464884],[59.551917561279296,36.307592432581636],[59.540726351731124,36.314989336614921],[59.540807518888982,36.315297191951579]]},"properties":{"OBJECTID":31,"LAYER":"250p-mojood","capacity":"20\"","Shape_Length":2993.3499000208999}},{"type":"Feature","id":32,"geometry":{"type":"LineString","coordinates":[[59.383316802872379,36.316669115586571],[59.382873352664056,36.316553446576428]]},"properties":{"OBJECTID":32,"LAYER":"250p-mojood","capacity":"8\"","Shape_Length":41.846886380168918}},{"type":"Feature","id":33,"geometry":{"type":"LineString","coordinates":[[59.405833438205903,36.323526688087824],[59.403705860564955,36.323283631520702],[59.402324744617466,36.32310323983284],[59.401424510441863,36.322919986604184],[59.400637230149329,36.322614903667066],[59.39953045258062,36.322093939105144],[59.39883885529256,36.321610719044656],[59.397302116483168,36.320519391506906],[59.396944973239663,36.320287437764122],[59.396042243875982,36.320022388522425],[59.394481338562699,36.319600635434774],[59.389793857735285,36.318358388134094],[59.383316802872379,36.316669115586571]]},"properties":{"OBJECTID":33,"LAYER":"250p-mojood","capacity":"8\"","Shape_Length":2190.4454749555757}},{"type":"Feature","id":34,"geometry":{"type":"LineString","coordinates":[[59.540807518888982,36.315297191951579],[59.527654352080845,36.319354850795307],[59.501458051619423,36.327430736628287],[59.481624612609117,36.333540200504508],[59.461787907277568,36.339646482281765],[59.45934322472597,36.340318149860352]]},"properties":{"OBJECTID":34,"LAYER":"250p-mojood","capacity":"10\"","Shape_Length":7825.6883065892225}},{"type":"Feature","id":35,"geometry":{"type":"LineString","coordinates":[[59.540807518888982,36.315297191951579],[59.547139561776575,36.339304054370167],[59.547763627408678,36.341669183342972],[59.551522999271363,36.345751093640793],[59.561920373943863,36.3477457721688]]},"properties":{"OBJECTID":35,"LAYER":"250p-mojood","capacity":"20\"","Shape_Length":4517.4667946216086}},{"type":"Feature","id":36,"geometry":{"type":"LineString","coordinates":[[59.527351217094989,36.318689092526618],[59.526422262788927,36.316648762143174]]},"properties":{"OBJECTID":36,"LAYER":"250p-mojood","capacity":"8\"","Shape_Length":241.34110515060456}},{"type":"Feature","id":37,"geometry":{"type":"LineString","coordinates":[[59.527654352080845,36.319354850795307],[59.527369691500283,36.318729674876323],[59.527351217094989,36.318689092526618]]},"properties":{"OBJECTID":37,"LAYER":"250p-mojood","capacity":"8\"","Shape_Length":78.749852370223181}},{"type":"Feature","id":38,"geometry":{"type":"LineString","coordinates":[[59.43784623831354,36.341299225575987],[59.436518470087854,36.339590141170454],[59.435923533953428,36.338875755545608],[59.434911518759762,36.337582512287774],[59.433793618478411,36.336507373037556],[59.432025581012404,36.335241416561949],[59.425991675632261,36.331624706708411],[59.422560966809428,36.329667866276075],[59.420786860277026,36.328621217428889],[59.4176985222864,36.327314206614709],[59.410485670515186,36.324207449918951],[59.40927779574843,36.323813919584445],[59.405833438205903,36.323526688087824]]},"properties":{"OBJECTID":38,"LAYER":"250p-mojood","capacity":"8\"","Shape_Length":3580.6345905815915}},{"type":"Feature","id":39,"geometry":{"type":"LineString","coordinates":[[59.439792899683958,36.343756935364389],[59.439066422900147,36.342878272327077],[59.43784623831354,36.341299225575987]]},"properties":{"OBJECTID":39,"LAYER":"250p-mojood","capacity":"8\"","Shape_Length":324.00489601945236}},{"type":"Feature","id":40,"geometry":{"type":"LineString","coordinates":[[59.441015117595342,36.34526995193044],[59.440965026691245,36.34517454324844],[59.439792899683958,36.343756935364389]]},"properties":{"OBJECTID":40,"LAYER":"250p-mojood","capacity":"8\"","Shape_Length":200.79354970999441}},{"type":"Feature","id":41,"geometry":{"type":"LineString","coordinates":[[59.441015117595342,36.34526995193044],[59.439158948609204,36.345922194545444]]},"properties":{"OBJECTID":41,"LAYER":"250p-mojood","capacity":"8\"","Shape_Length":181.70054967101478}},{"type":"Feature","id":42,"geometry":{"type":"LineString","coordinates":[[59.439158948609204,36.345922194545444],[59.435139192739612,36.347334573633809]]},"properties":{"OBJECTID":42,"LAYER":"250p-mojood","capacity":"8\"","Shape_Length":393.48358020939361}},{"type":"Feature","id":43,"geometry":{"type":"LineString","coordinates":[[59.45934322472597,36.340318149860352],[59.450647582184217,36.343297242966933]]},"properties":{"OBJECTID":43,"LAYER":"250p-mojood","capacity":"8\"","Shape_Length":847.91195764511667}},{"type":"Feature","id":44,"geometry":{"type":"LineString","coordinates":[[59.450647582184217,36.343297242966933],[59.448184855449227,36.344143963453043],[59.445450636691923,36.344981887820012],[59.443371923461193,36.346336032526608],[59.442390333255823,36.347365022465084],[59.442026322016225,36.347195900365257],[59.441015117595342,36.34526995193044]]},"properties":{"OBJECTID":44,"LAYER":"250p-mojood","capacity":"8\"","Shape_Length":1156.5980612316439}},{"type":"Feature","id":45,"geometry":{"type":"LineString","coordinates":[[59.514040694672502,36.347673369542463],[59.514247445493233,36.345903277164844],[59.514321923311257,36.345265596154604],[59.50927073756101,36.345031226838778],[59.508526616509009,36.342062408928349],[59.501458051619423,36.327430736628287]]},"properties":{"OBJECTID":45,"LAYER":"250p-mojood","capacity":"16\"","Shape_Length":2802.5522604887815}},{"type":"Feature","id":46,"geometry":{"type":"LineString","coordinates":[[59.514247445493233,36.345903277164844],[59.513260227971514,36.345868294297858]]},"properties":{"OBJECTID":46,"LAYER":"250p-mojood","capacity":"12\"","Shape_Length":88.725977419079143}},{"type":"Feature","id":47,"geometry":{"type":"LineString","coordinates":[[59.513260227971514,36.345868294297858],[59.505815358397463,36.34564759064849],[59.501144094479557,36.346175202181108],[59.501224636500304,36.348691878706191],[59.49331956421986,36.351573305708428],[59.493080182385896,36.351733934669021],[59.492547817498654,36.35211090985117]]},"properties":{"OBJECTID":47,"LAYER":"250p-mojood","capacity":"12\"","Shape_Length":2241.7391135902449}},{"type":"Feature","id":48,"geometry":{"type":"LineString","coordinates":[[59.492547817498654,36.35211090985117],[59.513134323968856,36.351827407460483],[59.513558224562715,36.35180382111983],[59.514040694672502,36.347673369542463]]},"properties":{"OBJECTID":48,"LAYER":"250p-mojood","capacity":"16\"","Shape_Length":2347.1816935819743}},{"type":"Feature","id":49,"geometry":{"type":"LineString","coordinates":[[59.492547817498654,36.35211090985117],[59.492163348885299,36.352383146683081]]},"properties":{"OBJECTID":49,"LAYER":"250p-mojood","capacity":"12\"","Shape_Length":45.874270080765108}},{"type":"Feature","id":50,"geometry":{"type":"LineString","coordinates":[[59.624199145740867,36.328331807019723],[59.624271687762757,36.328678591028641],[59.624282590223615,36.328730711127932]]},"properties":{"OBJECTID":50,"LAYER":"250p-mojood","capacity":"16\"","Shape_Length":44.906781569732416}},{"type":"Feature","id":51,"geometry":{"type":"LineString","coordinates":[[59.547139561776575,36.339304054370167],[59.537642953531716,36.340899732023999],[59.537739512990342,36.341321923384491]]},"properties":{"OBJECTID":51,"LAYER":"250p-mojood","capacity":"20\"","Shape_Length":918.61603204650271}},{"type":"Feature","id":52,"geometry":{"type":"LineString","coordinates":[[59.588880909226177,36.344170836504659],[59.589496582210124,36.345018324662384],[59.605621620400974,36.337779851052048],[59.617407288133123,36.331748675318181],[59.624199145740867,36.328331807019723]]},"properties":{"OBJECTID":52,"LAYER":"250p-mojood","capacity":"16\"","Shape_Length":3735.7030063081456}},{"type":"Feature","id":53,"geometry":{"type":"LineString","coordinates":[[59.561920373943863,36.3477457721688],[59.565197214405082,36.348374205033181]]},"properties":{"OBJECTID":53,"LAYER":"250p-mojood","capacity":"20\"","Shape_Length":302.3775398119613}},{"type":"Feature","id":54,"geometry":{"type":"LineString","coordinates":[[59.565197214405082,36.348374205033181],[59.568424198947412,36.349009280861416]]},"properties":{"OBJECTID":54,"LAYER":"250p-mojood","capacity":"20\"","Shape_Length":298.19522265092519}},{"type":"Feature","id":55,"geometry":{"type":"LineString","coordinates":[[59.568424198947412,36.349009280861416],[59.572312722380353,36.349918357111541],[59.576103212564824,36.349836648137561],[59.579801998208893,36.348925014530501],[59.588880909226177,36.344170836504659],[59.589045471733229,36.34408465081605],[59.59019189526515,36.343565516471926]]},"properties":{"OBJECTID":55,"LAYER":"250p-mojood","capacity":"20\"","Shape_Length":2157.7268586440887}},{"type":"Feature","id":56,"geometry":{"type":"LineString","coordinates":[[59.563342465195234,36.350317063675845],[59.565197214405082,36.348374205033181]]},"properties":{"OBJECTID":56,"LAYER":"250p-mojood","capacity":"20\"","Shape_Length":272.46222860677108}},{"type":"Feature","id":57,"geometry":{"type":"LineString","coordinates":[[59.624282590223615,36.328730711127932],[59.625272544837792,36.333462682047504],[59.626066393061542,36.337182435032304],[59.625069895502456,36.338970069544196],[59.624794254452993,36.340200747223925],[59.624921202245048,36.341912861054581],[59.627212483616177,36.347193333626393],[59.629728421787377,36.350760712940591],[59.630850802068544,36.35383071126379],[59.628773790264496,36.354632487943825],[59.628259666434069,36.353766614786515]]},"properties":{"OBJECTID":57,"LAYER":"250p-mojood","capacity":"20\"","Shape_Length":3244.2292001339383}},{"type":"Feature","id":58,"geometry":{"type":"LineString","coordinates":[[59.553203024324098,36.357401921555557],[59.553711116255073,36.356918650135675],[59.556964739625947,36.354570132730352],[59.562248229978763,36.351463219754294],[59.563193714847642,36.350472876898614],[59.563342465195234,36.350317063675845]]},"properties":{"OBJECTID":58,"LAYER":"250p-mojood","capacity":"24\"","Shape_Length":1209.1186362412254}},{"type":"Feature","id":59,"geometry":{"type":"LineString","coordinates":[[59.492163348885299,36.352383146683081],[59.487206221765319,36.355854943502493],[59.483234360963849,36.358002682894487],[59.481823704303373,36.358979292882623]]},"properties":{"OBJECTID":59,"LAYER":"250p-mojood","capacity":"12\"","Shape_Length":1184.285996142524}},{"type":"Feature","id":60,"geometry":{"type":"LineString","coordinates":[[59.551310514391524,36.359096006315674],[59.552953843702824,36.357638920415866],[59.553203024324098,36.357401921555557]]},"properties":{"OBJECTID":60,"LAYER":"250p-mojood","capacity":"24\"","Shape_Length":253.43996338801961}},{"type":"Feature","id":61,"geometry":{"type":"LineString","coordinates":[[59.55111694719357,36.359278253284046],[59.55127497524316,36.359129469230268],[59.551310514391524,36.359096006315674]]},"properties":{"OBJECTID":61,"LAYER":"250p-mojood","capacity":"20\"","Shape_Length":26.667490702146324}},{"type":"Feature","id":62,"geometry":{"type":"LineString","coordinates":[[59.514040694672502,36.347673369542463],[59.532232035546308,36.356796340609243],[59.539010846711925,36.35633851717914],[59.54145969337651,36.357167243517125],[59.544116346520973,36.358066214933963],[59.55093595935616,36.359448657972074],[59.55111694719357,36.359278253284046]]},"properties":{"OBJECTID":62,"LAYER":"250p-mojood","capacity":"20\"","Shape_Length":3685.3264479483496}},{"type":"Feature","id":63,"geometry":{"type":"LineString","coordinates":[[59.6326197354405,36.359128028885443],[59.632751011533024,36.359480371330065]]},"properties":{"OBJECTID":63,"LAYER":"250p-mojood","capacity":"10\"","Shape_Length":40.846438232204534}},{"type":"Feature","id":64,"geometry":{"type":"LineString","coordinates":[[59.628095206090798,36.361772781733059],[59.6326197354405,36.359128028885443],[59.635031846200697,36.357717922936956],[59.638561246656941,36.355742296841534]]},"properties":{"OBJECTID":64,"LAYER":"250p-mojood","capacity":"36\"","Shape_Length":1153.7301265978381}},{"type":"Feature","id":65,"geometry":{"type":"LineString","coordinates":[[59.481823704303373,36.358979292882623],[59.485513316339492,36.36181510179189],[59.495136213201135,36.367588591425104]]},"properties":{"OBJECTID":65,"LAYER":"250p-mojood","capacity":"12\"","Shape_Length":1532.4541726184714}},{"type":"Feature","id":66,"geometry":{"type":"LineString","coordinates":[[59.495136213201135,36.367588591425104],[59.494287615944522,36.367940536554109]]},"properties":{"OBJECTID":66,"LAYER":"250p-mojood","capacity":"8\"","Shape_Length":85.604320066463274}},{"type":"Feature","id":67,"geometry":{"type":"LineString","coordinates":[[59.529535321512761,36.371015556684561],[59.527290206455881,36.369009975645028],[59.523969058726045,36.367813740909],[59.52376683168815,36.36848141602318]]},"properties":{"OBJECTID":67,"LAYER":"250p-mojood","capacity":"10\"","Shape_Length":702.91826594092879}},{"type":"Feature","id":68,"geometry":{"type":"LineString","coordinates":[[59.54145969337651,36.357167243517125],[59.536254233963071,36.364779199192753],[59.529535321512761,36.371015556684561]]},"properties":{"OBJECTID":68,"LAYER":"250p-mojood","capacity":"10\"","Shape_Length":1883.5749784059728}},{"type":"Feature","id":69,"geometry":{"type":"LineString","coordinates":[[59.494287615944522,36.367940536554109],[59.48331554644389,36.372505022519746]]},"properties":{"OBJECTID":69,"LAYER":"250p-mojood","capacity":"8\"","Shape_Length":1107.511289819483}},{"type":"Feature","id":70,"geometry":{"type":"LineString","coordinates":[[59.48331554644389,36.372505022519746],[59.48201851890218,36.373044695958356]]},"properties":{"OBJECTID":70,"LAYER":"250p-mojood","capacity":"8\"","Shape_Length":130.92203105278796}},{"type":"Feature","id":71,"geometry":{"type":"LineString","coordinates":[[59.55111694719357,36.359278253284046],[59.551809229120941,36.359644449345197],[59.551154486096394,36.362005136792305],[59.547252989475389,36.365831381397278],[59.545304391680936,36.36963140090112],[59.543212032903156,36.372954643835584],[59.541653609497729,36.376739736753883],[59.541465379436168,36.376684774570052]]},"properties":{"OBJECTID":71,"LAYER":"250p-mojood","capacity":"8\"","Shape_Length":2224.5461508494145}},{"type":"Feature","id":72,"geometry":{"type":"LineString","coordinates":[[59.66962483083676,36.375098117036579],[59.670447728178367,36.374952461731084],[59.670768780121847,36.375944448411602],[59.670329345729037,36.376202508683591],[59.669323948354894,36.376569079380594],[59.668944593872965,36.376875409308298],[59.668627270066338,36.377742738337609],[59.668410401439942,36.37815640183117],[59.668022226919099,36.378416206475798],[59.667864332132801,36.378701580825407],[59.667068545985337,36.380209289931251],[59.666994977629713,36.381098633067921],[59.666969226587142,36.38169724039691],[59.666327631502817,36.382602461127462],[59.665571379020669,36.383796727699966],[59.665369546938372,36.384162821325759]]},"properties":{"OBJECTID":72,"LAYER":"250p-mojood","capacity":"6\"","Shape_Length":1272.1150996053184}},{"type":"Feature","id":73,"geometry":{"type":"LineString","coordinates":[[59.541465379436168,36.376684774570052],[59.54048995456467,36.377181979571191],[59.535736587340409,36.379753497321126],[59.531684015238156,36.382020621847467],[59.530286144494617,36.382754360738744],[59.527655598016963,36.384320850649189],[59.527215721591134,36.384677807782907],[59.526242358721909,36.385387460651195],[59.523188482379929,36.388046197153287]]},"properties":{"OBJECTID":73,"LAYER":"250p-mojood","capacity":"10\"","Shape_Length":2078.1135816126771}},{"type":"Feature","id":74,"geometry":{"type":"LineString","coordinates":[[59.664877209580993,36.385110089387837],[59.664957931348503,36.384926868399909],[59.665369546938372,36.384162821325759]]},"properties":{"OBJECTID":74,"LAYER":"250p-mojood","capacity":"6\"","Shape_Length":114.09548407964316}},{"type":"Feature","id":75,"geometry":{"type":"LineString","coordinates":[[59.553203024324098,36.357401921555557],[59.553585339970176,36.358080547280821],[59.553650822038378,36.358196784558181],[59.554808085986586,36.360250853805233],[59.559189168980382,36.362229137900684],[59.56609744152582,36.373927089367626],[59.573007867994683,36.385624537793355],[59.573030600155214,36.385663007683299],[59.574119962162229,36.387506616328359]]},"properties":{"OBJECTID":75,"LAYER":"250p-mojood","capacity":"24\"","Shape_Length":3907.2315701108869}},{"type":"Feature","id":76,"geometry":{"type":"LineString","coordinates":[[59.574119962162229,36.387506616328359],[59.574527166930771,36.388195736579981]]},"properties":{"OBJECTID":76,"LAYER":"250p-mojood","capacity":"20\"","Shape_Length":84.770132019822242}},{"type":"Feature","id":77,"geometry":{"type":"LineString","coordinates":[[59.574527166930771,36.388195736579981],[59.574978791744662,36.387989594389005],[59.575370309003226,36.387863427696466],[59.575587547672889,36.388270812892884]]},"properties":{"OBJECTID":77,"LAYER":"250p-mojood","capacity":"20\"","Shape_Length":133.60790396358178}},{"type":"Feature","id":78,"geometry":{"type":"LineString","coordinates":[[59.575587547672889,36.388270812892884],[59.57581607944303,36.388658204545052]]},"properties":{"OBJECTID":78,"LAYER":"250p-mojood","capacity":"20\"","Shape_Length":47.639138943908009}},{"type":"Feature","id":79,"geometry":{"type":"LineString","coordinates":[[59.57581607944303,36.388658204545052],[59.578675335599243,36.387407695754796]]},"properties":{"OBJECTID":79,"LAYER":"250p-mojood","capacity":"20\"","Shape_Length":291.73320488068532}},{"type":"Feature","id":80,"geometry":{"type":"LineString","coordinates":[[59.573423726042627,36.389704435316368],[59.57581607944303,36.388658204545052]]},"properties":{"OBJECTID":80,"LAYER":"250p-mojood","capacity":"20\"","Shape_Length":244.08746817906743}},{"type":"Feature","id":81,"geometry":{"type":"LineString","coordinates":[[59.632751011533024,36.359480371330065],[59.634223515649857,36.362183661811677],[59.636416705995515,36.36489997051104],[59.638448880287108,36.367562196169949],[59.638682079665323,36.368054868368439],[59.638842050476974,36.368588782175344],[59.638876448759042,36.369206201014109],[59.638801334437048,36.370593768746019],[59.638516676714382,36.374897651204904],[59.638301271601819,36.376899740315167],[59.638013938599649,36.37790688162066],[59.636912070891618,36.381726161822499],[59.636577395580453,36.383084815147846],[59.636717649961042,36.384255206953533],[59.63715898457238,36.38564278718836],[59.638605810094361,36.390018371635101],[59.63866803206389,36.390208609155017]]},"properties":{"OBJECTID":81,"LAYER":"250p-mojood","capacity":"10\"","Shape_Length":3596.9875273231255}},{"type":"Feature","id":82,"geometry":{"type":"LineString","coordinates":[[59.63866803206389,36.390208609155017],[59.641793096273055,36.38956357042553],[59.648372768787425,36.389541799590738],[59.657994801726993,36.386951237079941],[59.658939858549509,36.387187985967564],[59.664085253313175,36.387492343437856],[59.664423580778021,36.386139710665709],[59.664877209580993,36.385110089387837]]},"properties":{"OBJECTID":82,"LAYER":"250p-mojood","capacity":"4\"","Shape_Length":2616.4265281134994}},{"type":"Feature","id":83,"geometry":{"type":"LineString","coordinates":[[59.523188482379929,36.388046197153287],[59.5220044867323,36.389112380433993],[59.519632584178069,36.391200286955566],[59.517458062521179,36.393154916329905],[59.515419194506123,36.394982818948023],[59.509054501515564,36.400658372237977]]},"properties":{"OBJECTID":83,"LAYER":"250p-mojood","capacity":"10\"","Shape_Length":1888.9568116710334}},{"type":"Feature","id":84,"geometry":{"type":"LineString","coordinates":[[59.471244697592681,36.411820606113658],[59.4726742074943,36.412765362439657]]},"properties":{"OBJECTID":84,"LAYER":"250p-mojood","capacity":"4\"","Shape_Length":165.65386057995076}},{"type":"Feature","id":85,"geometry":{"type":"LineString","coordinates":[[59.670768780121847,36.375944448411602],[59.67123907543305,36.376528335570953],[59.671887447674251,36.378689478402215],[59.673443421999004,36.383551580272282],[59.675464611595999,36.389970592322705],[59.677030958240032,36.394946650390999],[59.678637971481365,36.400162193794429],[59.678949843442844,36.400794853438136],[59.680043312654838,36.401816550980634],[59.682681136220069,36.404390171224975],[59.682901938323489,36.404612038598842],[59.683198748787262,36.405086249518362],[59.683639343896232,36.406393940715198],[59.684372797819087,36.408310899125247]]},"properties":{"OBJECTID":85,"LAYER":"250p-mojood","capacity":"8\"","Shape_Length":3843.8019536745496}},{"type":"Feature","id":86,"geometry":{"type":"LineString","coordinates":[[59.469804620556552,36.413242844502825],[59.471244697592681,36.411820606113658]]},"properties":{"OBJECTID":86,"LAYER":"250p-mojood","capacity":"4\"","Shape_Length":203.97940877856894}},{"type":"Feature","id":87,"geometry":{"type":"LineString","coordinates":[[59.509054501515564,36.400658372237977],[59.508409661517085,36.401233334596512],[59.506637917171375,36.402796002442805],[59.504835704422597,36.404410062233957],[59.503425418429529,36.40566666685136],[59.502752667312386,36.406274883437781],[59.501889467478144,36.407332669328085],[59.50036918282342,36.409119853659547],[59.499162728169175,36.410409927034578],[59.498495896987187,36.411097740630694],[59.49784527854198,36.411594825517049],[59.496451470473133,36.412381410508097],[59.495103188605228,36.413157171414312],[59.494367117070269,36.413528658559756],[59.493080796414347,36.41428027812443],[59.490989550451353,36.41543953194136],[59.488676939029759,36.416737574998656],[59.48735755788308,36.417452414405318],[59.484997298862233,36.419168804627532]]},"properties":{"OBJECTID":87,"LAYER":"250p-mojood","capacity":"10\"","Shape_Length":3008.3655491018721}},{"type":"Feature","id":88,"geometry":{"type":"LineString","coordinates":[[59.4726742074943,36.412765362439657],[59.473931279228225,36.413596124120936],[59.484639875623586,36.419520916773543]]},"properties":{"OBJECTID":88,"LAYER":"250p-mojood","capacity":"4\"","Shape_Length":1309.8100409683805}},{"type":"Feature","id":89,"geometry":{"type":"LineString","coordinates":[[59.484997298862233,36.419168804627532],[59.484639875623586,36.419520916773543]]},"properties":{"OBJECTID":89,"LAYER":"250p-mojood","capacity":"10\"","Shape_Length":50.549892682066705}},{"type":"Feature","id":90,"geometry":{"type":"LineString","coordinates":[[59.312096233799039,36.426385416542779],[59.311433880751125,36.425443785257286],[59.303786128293574,36.41494981072497],[59.30232913166639,36.412976054167103],[59.301169845700016,36.41141746657776],[59.299667379589273,36.409014420288457],[59.298705944954442,36.407317503079625],[59.298211344953167,36.40628691029989],[59.295824863009443,36.401527822977357],[59.295762947427875,36.401343132267925],[59.295832649809462,36.401072802331633],[59.295742601109261,36.400232037894575],[59.295550477811666,36.399521069312833],[59.295029532954544,36.398491604561208],[59.294860872637329,36.397777964377546],[59.294928904538551,36.39719077680811],[59.295142241704767,36.396663288498438],[59.295289208159119,36.396479656429563],[59.294293462159267,36.396207920809758]]},"properties":{"OBJECTID":90,"LAYER":"250p-mojood","capacity":"6\"","Shape_Length":3803.261332533988}},{"type":"Feature","id":91,"geometry":{"type":"LineString","coordinates":[[59.450609103731395,36.424920486182366],[59.454172618496109,36.422608479939797],[59.454392372077272,36.422808759210966]]},"properties":{"OBJECTID":91,"LAYER":"250p-mojood","capacity":"2\"","Shape_Length":439.60332750632284}},{"type":"Feature","id":92,"geometry":{"type":"LineString","coordinates":[[59.313624775369938,36.429060198902938],[59.313903809759807,36.428712270567189],[59.313462728905108,36.428128288715193],[59.312806561368753,36.427277266501164],[59.312096233799039,36.426385416542779]]},"properties":{"OBJECTID":92,"LAYER":"250p-mojood","capacity":"6\"","Shape_Length":350.93389130090088}},{"type":"Feature","id":93,"geometry":{"type":"LineString","coordinates":[[59.453025232589326,36.427293361230433],[59.450609103731395,36.424920486182366],[59.444697779905262,36.419114128649007]]},"properties":{"OBJECTID":93,"LAYER":"250p-mojood","capacity":"4\"","Shape_Length":1175.5975251323111}},{"type":"Feature","id":94,"geometry":{"type":"LineString","coordinates":[[59.454245210129081,36.428483127075332],[59.453025232589326,36.427293361230433]]},"properties":{"OBJECTID":94,"LAYER":"250p-mojood","capacity":"2\"","Shape_Length":171.4948930824763}},{"type":"Feature","id":95,"geometry":{"type":"LineString","coordinates":[[59.454245210129081,36.428483127075332],[59.456611293010099,36.426270915403762],[59.469804620556552,36.413242844502825]]},"properties":{"OBJECTID":95,"LAYER":"250p-mojood","capacity":"8\"","Shape_Length":2193.0684584277087}},{"type":"Feature","id":96,"geometry":{"type":"LineString","coordinates":[[59.453184367036847,36.42947492508474],[59.454245210129081,36.428483127075332]]},"properties":{"OBJECTID":96,"LAYER":"250p-mojood","capacity":"8\"","Shape_Length":145.50017280897367}},{"type":"Feature","id":97,"geometry":{"type":"LineString","coordinates":[[59.453090609423548,36.429562577347689],[59.453184367036847,36.42947492508474]]},"properties":{"OBJECTID":97,"LAYER":"250p-mojood","capacity":"8\"","Shape_Length":12.859042903478349}},{"type":"Feature","id":98,"geometry":{"type":"LineString","coordinates":[[59.453184367036847,36.42947492508474],[59.453295114203726,36.429671347038799],[59.453365585889912,36.429813158098398],[59.453130459846363,36.430241956189256]]},"properties":{"OBJECTID":98,"LAYER":"250p-mojood","capacity":"2\"","Shape_Length":92.972619718284108}},{"type":"Feature","id":99,"geometry":{"type":"LineString","coordinates":[[59.453130459846363,36.430241956189256],[59.453060319275586,36.430369883460457],[59.452309169496068,36.431003851215657]]},"properties":{"OBJECTID":99,"LAYER":"250p-mojood","capacity":"2\"","Shape_Length":112.94443491204184}},{"type":"Feature","id":100,"geometry":{"type":"LineString","coordinates":[[59.453090609423548,36.429562577347689],[59.451213950216093,36.431247693499884]]},"properties":{"OBJECTID":100,"LAYER":"250p-mojood","capacity":"8\"","Shape_Length":251.61434414187812}},{"type":"Feature","id":101,"geometry":{"type":"LineString","coordinates":[[59.452309169496068,36.431003851215657],[59.451235606683845,36.43193404965222]]},"properties":{"OBJECTID":101,"LAYER":"250p-mojood","capacity":"8\"","Shape_Length":141.17236450172462}},{"type":"Feature","id":102,"geometry":{"type":"LineString","coordinates":[[59.684372797819087,36.408310899125247],[59.687094030916846,36.415054225167765],[59.690003822234132,36.420746385257821],[59.691500719746337,36.423841457984615],[59.692783642559718,36.4265118601365],[59.694352853675362,36.428714802724286],[59.696490152708371,36.431194823290674]]},"properties":{"OBJECTID":102,"LAYER":"250p-mojood","capacity":"8\"","Shape_Length":2775.4442745421002}},{"type":"Feature","id":103,"geometry":{"type":"LineString","coordinates":[[59.696490152708371,36.431194823290674],[59.696551554212661,36.431266064956652]]},"properties":{"OBJECTID":103,"LAYER":"250p-mojood","capacity":"8\"","Shape_Length":9.6369472646168504}},{"type":"Feature","id":104,"geometry":{"type":"LineString","coordinates":[[59.443529592695562,36.438610045230959],[59.443121988304142,36.438247223350743]]},"properties":{"OBJECTID":104,"LAYER":"250p-mojood","capacity":"6\"","Shape_Length":54.38527064700618}},{"type":"Feature","id":105,"geometry":{"type":"LineString","coordinates":[[59.442078623408207,36.438758790489729],[59.44131444606321,36.438465833610188]]},"properties":{"OBJECTID":105,"LAYER":"250p-mojood","capacity":"6\"","Shape_Length":75.852773161483896}},{"type":"Feature","id":106,"geometry":{"type":"LineString","coordinates":[[59.657056701975911,36.433990898425598],[59.657627015287382,36.434165902397204]]},"properties":{"OBJECTID":106,"LAYER":"250p-mojood","capacity":"2\"","Shape_Length":54.717799691187366}},{"type":"Feature","id":107,"geometry":{"type":"LineString","coordinates":[[59.698368191840551,36.433368540769358],[59.696551554212661,36.431266064956652]]},"properties":{"OBJECTID":107,"LAYER":"250p-mojood","capacity":"8\"","Shape_Length":284.63748924349738}},{"type":"Feature","id":108,"geometry":{"type":"LineString","coordinates":[[59.44131444606321,36.438465833610188],[59.440459804888548,36.439100398112473]]},"properties":{"OBJECTID":108,"LAYER":"250p-mojood","capacity":"6\"","Shape_Length":104.08852717879982}},{"type":"Feature","id":109,"geometry":{"type":"LineString","coordinates":[[59.451213950216093,36.431247693499884],[59.442078623408207,36.438758790489729],[59.441958430260755,36.438857597910271],[59.441099345956665,36.439575758354941]]},"properties":{"OBJECTID":109,"LAYER":"250p-mojood","capacity":"8\"","Shape_Length":1295.0730710671542}},{"type":"Feature","id":110,"geometry":{"type":"LineString","coordinates":[[59.657627015287382,36.434165902397204],[59.660718212387941,36.434837486254992],[59.661466880963061,36.434820787062321],[59.664281703842093,36.434855761432551]]},"properties":{"OBJECTID":110,"LAYER":"250p-mojood","capacity":"2\"","Shape_Length":606.78294538245848}},{"type":"Feature","id":111,"geometry":{"type":"LineString","coordinates":[[59.441099345956665,36.439575758354941],[59.440848176135823,36.439783034538827]]},"properties":{"OBJECTID":111,"LAYER":"250p-mojood","capacity":"6\"","Shape_Length":32.196024717838036}},{"type":"Feature","id":112,"geometry":{"type":"LineString","coordinates":[[59.698368191840551,36.433368540769358],[59.699800269187755,36.435025979140825]]},"properties":{"OBJECTID":112,"LAYER":"250p-mojood","capacity":"8\"","Shape_Length":224.3844782122809}},{"type":"Feature","id":113,"geometry":{"type":"LineString","coordinates":[[59.438500160099593,36.442654741674517],[59.438074993522569,36.44226250659387]]},"properties":{"OBJECTID":113,"LAYER":"250p-mojood","capacity":"2\"","Shape_Length":57.868729476538221}},{"type":"Feature","id":114,"geometry":{"type":"LineString","coordinates":[[59.63866803206389,36.390208609155017],[59.639685096466955,36.393317904740364],[59.641751028841774,36.399592145033196],[59.644010524841441,36.406025103478157],[59.645727133514484,36.410986747174505],[59.647342445744258,36.415614614674965],[59.648454196285371,36.419194020522831],[59.649171441672316,36.421588050521912],[59.649514514324984,36.422185995259873],[59.650719609124565,36.423608178468285],[59.652939955342497,36.426011985497233],[59.654608385223078,36.428118574659209],[59.655096549668258,36.428999843840629],[59.65630264942218,36.431423317916476],[59.6568672031079,36.432714293648289],[59.657038704181382,36.433592983156871],[59.657056701975911,36.433990898425598],[59.657139349609281,36.435818191926323],[59.657342714916702,36.439842498497313]]},"properties":{"OBJECTID":114,"LAYER":"250p-mojood","capacity":"10\"","Shape_Length":5825.7732873950363}},{"type":"Feature","id":115,"geometry":{"type":"LineString","coordinates":[[59.451235606683845,36.43193404965222],[59.451212569306854,36.431954014984406],[59.446872163800833,36.435589782924303],[59.457108140376192,36.443609577979203],[59.45532883979515,36.444823029413683]]},"properties":{"OBJECTID":115,"LAYER":"250p-mojood","capacity":"8\"","Shape_Length":2051.1467749575436}},{"type":"Feature","id":116,"geometry":{"type":"LineString","coordinates":[[59.434640961256875,36.446001737884451],[59.434177851304426,36.44544486749821]]},"properties":{"OBJECTID":116,"LAYER":"250p-mojood","capacity":"2\"","Shape_Length":74.461276421161557}},{"type":"Feature","id":117,"geometry":{"type":"LineString","coordinates":[[59.452760862485647,36.446192635857678],[59.450601534069698,36.444343168741476],[59.447850360511239,36.442118817908643],[59.445724057213084,36.440436827918887],[59.443529592695562,36.438610045230959]]},"properties":{"OBJECTID":117,"LAYER":"250p-mojood","capacity":"4\"","Shape_Length":1180.6059738052793}},{"type":"Feature","id":118,"geometry":{"type":"LineString","coordinates":[[59.440459804888548,36.439100398112473],[59.44022735547393,36.439272458110331],[59.440209038592826,36.439288269049747],[59.431860487198456,36.446818630336125]]},"properties":{"OBJECTID":118,"LAYER":"250p-mojood","capacity":"2\"","Shape_Length":1152.7237245900872}},{"type":"Feature","id":119,"geometry":{"type":"LineString","coordinates":[[59.431860487198456,36.446818630336125],[59.431860437208861,36.446818672814288]]},"properties":{"OBJECTID":119,"LAYER":"250p-mojood","capacity":"2\"","Shape_Length":0.0065053831898138348}},{"type":"Feature","id":120,"geometry":{"type":"LineString","coordinates":[[59.453002922190407,36.446409162619872],[59.452760862485647,36.446192635857678]]},"properties":{"OBJECTID":120,"LAYER":"250p-mojood","capacity":"8\"","Shape_Length":32.383241900983478}},{"type":"Feature","id":121,"geometry":{"type":"LineString","coordinates":[[59.45532883979515,36.444823029413683],[59.453002922190407,36.446409162619872]]},"properties":{"OBJECTID":121,"LAYER":"250p-mojood","capacity":"8\"","Shape_Length":272.93206375760155}},{"type":"Feature","id":122,"geometry":{"type":"LineString","coordinates":[[59.710297413334025,36.441017605263156],[59.70949323503558,36.441475541296846]]},"properties":{"OBJECTID":122,"LAYER":"250p-mojood","capacity":"10\"","Shape_Length":88.23822863803467}},{"type":"Feature","id":123,"geometry":{"type":"LineString","coordinates":[[59.707400648451284,36.442236006266207],[59.70949323503558,36.441475541296846]]},"properties":{"OBJECTID":123,"LAYER":"250p-mojood","capacity":"8\"","Shape_Length":205.78858156722654}},{"type":"Feature","id":124,"geometry":{"type":"LineString","coordinates":[[59.450071483747628,36.448023379246116],[59.447128775985846,36.445617091830478],[59.44521211433176,36.444070084451596],[59.442917732995824,36.442226283048036],[59.440685818246862,36.440228100126305]]},"properties":{"OBJECTID":124,"LAYER":"250p-mojood","capacity":"4\"","Shape_Length":1207.3058755317707}},{"type":"Feature","id":125,"geometry":{"type":"LineString","coordinates":[[59.450325251814299,36.448234640914968],[59.450071483747628,36.448023379246116]]},"properties":{"OBJECTID":125,"LAYER":"250p-mojood","capacity":"8\"","Shape_Length":32.673863430607014}},{"type":"Feature","id":126,"geometry":{"type":"LineString","coordinates":[[59.453002922190407,36.446409162619872],[59.452584203541939,36.446694691074946],[59.450325251814299,36.448234640914968]]},"properties":{"OBJECTID":126,"LAYER":"250p-mojood","capacity":"8\"","Shape_Length":314.16586093874361}},{"type":"Feature","id":127,"geometry":{"type":"LineString","coordinates":[[59.450325251814299,36.448234640914968],[59.449879922544234,36.44853821950479]]},"properties":{"OBJECTID":127,"LAYER":"250p-mojood","capacity":"8\"","Shape_Length":52.24768005584594}},{"type":"Feature","id":128,"geometry":{"type":"LineString","coordinates":[[59.440057190967345,36.44784933677677],[59.439957386885226,36.447768882562642],[59.439846549114819,36.447679536519402],[59.438368662708349,36.448840651328418],[59.438159142896723,36.448844933517655],[59.438079792318426,36.447726601723588],[59.438159611492694,36.445801207699496],[59.437978598871922,36.443737164049537]]},"properties":{"OBJECTID":128,"LAYER":"250p-mojood","capacity":"2\"","Shape_Length":798.12250714226275}},{"type":"Feature","id":129,"geometry":{"type":"LineString","coordinates":[[59.441661415760464,36.449142452263821],[59.440057190967345,36.44784933677677]]},"properties":{"OBJECTID":129,"LAYER":"250p-mojood","capacity":"4\"","Shape_Length":203.19960751516652}},{"type":"Feature","id":130,"geometry":{"type":"LineString","coordinates":[[59.446566342006037,36.449153696699199],[59.445367263925164,36.448201616480382],[59.442465047985351,36.44581767071179],[59.439897207203323,36.443754623508759],[59.438500160099593,36.442654741674517]]},"properties":{"OBJECTID":130,"LAYER":"250p-mojood","capacity":"4\"","Shape_Length":1021.5258698164996}},{"type":"Feature","id":131,"geometry":{"type":"LineString","coordinates":[[59.449879922544234,36.44853821950479],[59.450886365870765,36.449402163855659]]},"properties":{"OBJECTID":131,"LAYER":"250p-mojood","capacity":"8\"","Shape_Length":131.67656169746118}},{"type":"Feature","id":132,"geometry":{"type":"LineString","coordinates":[[59.447699221902646,36.450030234046075],[59.446566342006037,36.449153696699199]]},"properties":{"OBJECTID":132,"LAYER":"250p-mojood","capacity":"8\"","Shape_Length":140.65303348581006}},{"type":"Feature","id":133,"geometry":{"type":"LineString","coordinates":[[59.449879922544234,36.44853821950479],[59.448861558433983,36.4492324065369],[59.447699221902646,36.450030234046075]]},"properties":{"OBJECTID":133,"LAYER":"250p-mojood","capacity":"8\"","Shape_Length":256.23635082740833}},{"type":"Feature","id":134,"geometry":{"type":"LineString","coordinates":[[59.443855666220372,36.450918169420035],[59.442038354865893,36.449446281030689],[59.441661415760464,36.449142452263821]]},"properties":{"OBJECTID":134,"LAYER":"250p-mojood","capacity":"4\"","Shape_Length":278.48236300816478}},{"type":"Feature","id":135,"geometry":{"type":"LineString","coordinates":[[59.445026771919267,36.451864492383159],[59.443855666220372,36.450918169420035]]},"properties":{"OBJECTID":135,"LAYER":"250p-mojood","capacity":"8\"","Shape_Length":148.51884009993461}},{"type":"Feature","id":136,"geometry":{"type":"LineString","coordinates":[[59.447699221902646,36.450030234046075],[59.445026771919267,36.451864492383159]]},"properties":{"OBJECTID":136,"LAYER":"250p-mojood","capacity":"8\"","Shape_Length":314.42905668921401}},{"type":"Feature","id":137,"geometry":{"type":"LineString","coordinates":[[59.400802493439265,36.45308897048271],[59.401440020515061,36.452455007544167]]},"properties":{"OBJECTID":137,"LAYER":"250p-mojood","capacity":"4\"","Shape_Length":90.653740922569014}},{"type":"Feature","id":138,"geometry":{"type":"LineString","coordinates":[[59.424706068384737,36.45280952060822],[59.431860437208861,36.446818672814288]]},"properties":{"OBJECTID":138,"LAYER":"250p-mojood","capacity":"4\"","Shape_Length":923.91932282274558}},{"type":"Feature","id":139,"geometry":{"type":"LineString","coordinates":[[59.707400648451284,36.442236006266207],[59.705738447623546,36.442397244705745],[59.704389997181501,36.442357001917124],[59.702654110649192,36.442014605885362],[59.701392595314672,36.441954659201734],[59.700236463789139,36.441999517836429],[59.699245245184898,36.442154736001065],[59.697452427055531,36.442248404873688],[59.695630026340382,36.443530588968095],[59.694601813457766,36.444200033918342],[59.693588258049253,36.444935904344995],[59.693075210336183,36.445301581158276],[59.692645294805359,36.445537903701748],[59.689938021212541,36.4474019283508]]},"properties":{"OBJECTID":139,"LAYER":"250p-mojood","capacity":"8\"","Shape_Length":1784.6056704285459}},{"type":"Feature","id":140,"geometry":{"type":"LineString","coordinates":[[59.450886365870765,36.449402163855659],[59.451317897061102,36.449778428897055],[59.454512187565065,36.452563915920642]]},"properties":{"OBJECTID":140,"LAYER":"250p-mojood","capacity":"8\"","Shape_Length":478.3732153910122}},{"type":"Feature","id":141,"geometry":{"type":"LineString","coordinates":[[59.432584255109717,36.447500206597631],[59.432434050789588,36.447317260003203],[59.428342096911187,36.450764405161017],[59.428222868631337,36.450867637293861],[59.425255554019557,36.453326951946437]]},"properties":{"OBJECTID":141,"LAYER":"250p-mojood","capacity":"4\"","Shape_Length":951.29923191056855}},{"type":"Feature","id":142,"geometry":{"type":"LineString","coordinates":[[59.440737710196913,36.454458832812506],[59.438810027466936,36.451725761480901],[59.43729494048776,36.449494041385719],[59.434640961256875,36.446001737884451]]},"properties":{"OBJECTID":142,"LAYER":"250p-mojood","capacity":"4\"","Shape_Length":1086.4577951068595}},{"type":"Feature","id":143,"geometry":{"type":"LineString","coordinates":[[59.403528799735462,36.455277857457524],[59.401878527294201,36.454104255318605],[59.401734473829222,36.453667770748616],[59.400802493439265,36.45308897048271]]},"properties":{"OBJECTID":143,"LAYER":"250p-mojood","capacity":"4\"","Shape_Length":352.66183929864343}},{"type":"Feature","id":144,"geometry":{"type":"LineString","coordinates":[[59.440950325078674,36.454731698329113],[59.440737710196913,36.454458832812506]]},"properties":{"OBJECTID":144,"LAYER":"250p-mojood","capacity":"4\"","Shape_Length":35.785190070970259}},{"type":"Feature","id":145,"geometry":{"type":"LineString","coordinates":[[59.445026771919267,36.451864492383159],[59.440950325078674,36.454731698329113]]},"properties":{"OBJECTID":145,"LAYER":"250p-mojood","capacity":"8\"","Shape_Length":484.62392521192015}},{"type":"Feature","id":146,"geometry":{"type":"LineString","coordinates":[[59.439215910400726,36.455474611630521],[59.436651697615034,36.45242794095094],[59.434847384391375,36.45025643735012],[59.432584255109717,36.447500206597631]]},"properties":{"OBJECTID":146,"LAYER":"250p-mojood","capacity":"4\"","Shape_Length":1066.2728284477553}},{"type":"Feature","id":147,"geometry":{"type":"LineString","coordinates":[[59.420625401980146,36.455899973518576],[59.424706068384737,36.45280952060822]]},"properties":{"OBJECTID":147,"LAYER":"250p-mojood","capacity":"6\"","Shape_Length":501.51017203506882}},{"type":"Feature","id":148,"geometry":{"type":"LineString","coordinates":[[59.43945348976446,36.455784425799379],[59.439215910400726,36.455474611630521]]},"properties":{"OBJECTID":148,"LAYER":"250p-mojood","capacity":"4\"","Shape_Length":40.448997219210618}},{"type":"Feature","id":149,"geometry":{"type":"LineString","coordinates":[[59.440950325078674,36.454731698329113],[59.43945348976446,36.455784425799379]]},"properties":{"OBJECTID":149,"LAYER":"250p-mojood","capacity":"8\"","Shape_Length":177.94064973106765}},{"type":"Feature","id":150,"geometry":{"type":"LineString","coordinates":[[59.683658848835897,36.451968765064585],[59.683466276587936,36.451773902477164]]},"properties":{"OBJECTID":150,"LAYER":"250p-mojood","capacity":"6\"","Shape_Length":27.678079887643026}},{"type":"Feature","id":151,"geometry":{"type":"LineString","coordinates":[[59.689938021212541,36.4474019283508],[59.688183845668043,36.448609644974155],[59.683658848835897,36.451968765064585]]},"properties":{"OBJECTID":151,"LAYER":"250p-mojood","capacity":"6\"","Shape_Length":757.77097109820465}},{"type":"Feature","id":152,"geometry":{"type":"LineString","coordinates":[[59.406744724456253,36.457953157960624],[59.406294466647225,36.457660986106895],[59.406474747259587,36.457507956120239],[59.403528799735462,36.455277857457524]]},"properties":{"OBJECTID":152,"LAYER":"250p-mojood","capacity":"4\"","Shape_Length":437.19662149591579}},{"type":"Feature","id":153,"geometry":{"type":"LineString","coordinates":[[59.684826479728265,36.453150230307223],[59.683658848835897,36.451968765064585]]},"properties":{"OBJECTID":153,"LAYER":"250p-mojood","capacity":"6\"","Shape_Length":167.81650836647856}},{"type":"Feature","id":154,"geometry":{"type":"LineString","coordinates":[[59.684989224073739,36.453317392965062],[59.684826479728265,36.453150230307223]]},"properties":{"OBJECTID":154,"LAYER":"250p-mojood","capacity":"6\"","Shape_Length":23.606823922971724}},{"type":"Feature","id":155,"geometry":{"type":"LineString","coordinates":[[59.311368086473102,36.461767207340792],[59.30980352616114,36.457754146813386],[59.308983065952084,36.454805467996025],[59.304386205540908,36.44219294267932],[59.304899455857992,36.441534984470152],[59.313624775369938,36.429060198902938]]},"properties":{"OBJECTID":155,"LAYER":"250p-mojood","capacity":"6\"","Shape_Length":3938.1263314788221}},{"type":"Feature","id":156,"geometry":{"type":"LineString","coordinates":[[59.311561040640683,36.462204430460197],[59.311554964380363,36.462190658155656],[59.311368086473102,36.461767207340792]]},"properties":{"OBJECTID":156,"LAYER":"250p-mojood","capacity":"6\"","Shape_Length":51.514764018748949}},{"type":"Feature","id":157,"geometry":{"type":"LineString","coordinates":[[59.398092765550714,36.461165019888071],[59.397915119201485,36.461004421838155]]},"properties":{"OBJECTID":157,"LAYER":"250p-mojood","capacity":"4\"","Shape_Length":23.902821482748383}},{"type":"Feature","id":158,"geometry":{"type":"LineString","coordinates":[[59.412241388369914,36.46177129508019],[59.406744724456253,36.457953157960624]]},"properties":{"OBJECTID":158,"LAYER":"250p-mojood","capacity":"4\"","Shape_Length":649.93795748153457}},{"type":"Feature","id":159,"geometry":{"type":"LineString","coordinates":[[59.43945348976446,36.455784425799379],[59.438871552518442,36.456193689876201],[59.432687899947624,36.460369152173655],[59.431199856340889,36.461387895111024]]},"properties":{"OBJECTID":159,"LAYER":"250p-mojood","capacity":"8\"","Shape_Length":966.6373924678212}},{"type":"Feature","id":160,"geometry":{"type":"LineString","coordinates":[[59.431051033061507,36.461489782045156],[59.430685817735672,36.461204867816726],[59.430308684833889,36.461480982622483],[59.42938059899214,36.460788148699763],[59.424548039157344,36.457198786573926],[59.421263183934798,36.456111155947887],[59.420625401980146,36.455899973518576]]},"properties":{"OBJECTID":160,"LAYER":"250p-mojood","capacity":"8\"","Shape_Length":1173.1111648119722}},{"type":"Feature","id":161,"geometry":{"type":"LineString","coordinates":[[59.431199856340889,36.461387895111024],[59.431051033061507,36.461489782045156]]},"properties":{"OBJECTID":161,"LAYER":"250p-mojood","capacity":"8\"","Shape_Length":17.48981190597399}},{"type":"Feature","id":162,"geometry":{"type":"LineString","coordinates":[[59.431051033061507,36.461489782045156],[59.430856222723371,36.461623149593031]]},"properties":{"OBJECTID":162,"LAYER":"250p-mojood","capacity":"8\"","Shape_Length":22.894011693126647}},{"type":"Feature","id":163,"geometry":{"type":"LineString","coordinates":[[59.412554034476848,36.462011645704521],[59.412241388369914,36.46177129508019]]},"properties":{"OBJECTID":163,"LAYER":"250p-mojood","capacity":"6\"","Shape_Length":38.693945486344006}},{"type":"Feature","id":164,"geometry":{"type":"LineString","coordinates":[[59.412554034476848,36.462011645704521],[59.420625401980146,36.455899973518576]]},"properties":{"OBJECTID":164,"LAYER":"250p-mojood","capacity":"6\"","Shape_Length":991.8464652683258}},{"type":"Feature","id":165,"geometry":{"type":"LineString","coordinates":[[59.398787414093341,36.461793014389499],[59.397955935363768,36.462326973988304]]},"properties":{"OBJECTID":165,"LAYER":"250p-mojood","capacity":"4\"","Shape_Length":95.228801116599939}},{"type":"Feature","id":166,"geometry":{"type":"LineString","coordinates":[[59.397955935363768,36.462326973988304],[59.396742814485641,36.463100388958019]]},"properties":{"OBJECTID":166,"LAYER":"250p-mojood","capacity":"4\"","Shape_Length":138.5494429468321}},{"type":"Feature","id":167,"geometry":{"type":"LineString","coordinates":[[59.657342714916702,36.439842498497313],[59.657484935534768,36.442024174398618],[59.65825482448335,36.444346523318231],[59.659467233880939,36.447557325139378],[59.660467052411789,36.450305337567819],[59.661974003216429,36.45426134316677],[59.663236177652884,36.457584669815439]]},"properties":{"OBJECTID":167,"LAYER":"250p-mojood","capacity":"8\"","Shape_Length":2045.2296021144721}},{"type":"Feature","id":168,"geometry":{"type":"LineString","coordinates":[[59.410040577766317,36.463914545149962],[59.412554034476848,36.462011645704521]]},"properties":{"OBJECTID":168,"LAYER":"250p-mojood","capacity":"6\"","Shape_Length":308.83308422899609}},{"type":"Feature","id":169,"geometry":{"type":"LineString","coordinates":[[59.410040577766317,36.463914545149962],[59.406858676163353,36.465481092867357]]},"properties":{"OBJECTID":169,"LAYER":"250p-mojood","capacity":"6\"","Shape_Length":334.06060089243073}},{"type":"Feature","id":170,"geometry":{"type":"LineString","coordinates":[[59.403822474686912,36.466246391750147],[59.401745979759589,36.46446753361878],[59.398787414093341,36.461793014389499],[59.398092765550714,36.461165019888071]]},"properties":{"OBJECTID":170,"LAYER":"250p-mojood","capacity":"6\"","Shape_Length":762.88590864328876}},{"type":"Feature","id":171,"geometry":{"type":"LineString","coordinates":[[59.406858676163353,36.465481092867357],[59.406657349314401,36.465580211311632],[59.406026233154876,36.465555112624109],[59.403822474686912,36.466246391750147]]},"properties":{"OBJECTID":171,"LAYER":"250p-mojood","capacity":"6\"","Shape_Length":289.71494732488298}},{"type":"Feature","id":172,"geometry":{"type":"LineString","coordinates":[[59.403822474686912,36.466246391750147],[59.402534539222046,36.466753689220532]]},"properties":{"OBJECTID":172,"LAYER":"250p-mojood","capacity":"6\"","Shape_Length":128.45380334938181}},{"type":"Feature","id":173,"geometry":{"type":"LineString","coordinates":[[59.402534539222046,36.466753689220532],[59.401191896089536,36.46728251288021]]},"properties":{"OBJECTID":173,"LAYER":"250p-mojood","capacity":"4\"","Shape_Length":133.90825178801035}},{"type":"Feature","id":174,"geometry":{"type":"LineString","coordinates":[[59.401191896089536,36.46728251288021],[59.395528381640219,36.469522727411935]]},"properties":{"OBJECTID":174,"LAYER":"250p-mojood","capacity":"4\"","Shape_Length":565.30533781532915}},{"type":"Feature","id":175,"geometry":{"type":"LineString","coordinates":[[59.683466276587936,36.451773902477164],[59.681521302502098,36.453231907083548],[59.675184135821254,36.457555268960434],[59.669757388396881,36.461287782018374],[59.666140959675694,36.463790147778766]]},"properties":{"OBJECTID":175,"LAYER":"250p-mojood","capacity":"6\"","Shape_Length":2047.7645544224408}},{"type":"Feature","id":176,"geometry":{"type":"LineString","coordinates":[[59.663236177652884,36.457584669815439],[59.665668180567806,36.464125315382759]]},"properties":{"OBJECTID":176,"LAYER":"250p-mojood","capacity":"8\"","Shape_Length":758.05960662393647}},{"type":"Feature","id":177,"geometry":{"type":"LineString","coordinates":[[59.666140959675694,36.463790147778766],[59.665668180567806,36.464125315382759]]},"properties":{"OBJECTID":177,"LAYER":"250p-mojood","capacity":"8\"","Shape_Length":56.400262948611655}},{"type":"Feature","id":178,"geometry":{"type":"LineString","coordinates":[[59.733689594870292,36.464572965429461],[59.732983713958994,36.463225743177595],[59.732313431906256,36.462031673230307]]},"properties":{"OBJECTID":178,"LAYER":"250p-mojood","capacity":"10\"","Shape_Length":307.92744395737805}},{"type":"Feature","id":179,"geometry":{"type":"LineString","coordinates":[[59.699800269187755,36.435025979140825],[59.701252662213079,36.436694520487244],[59.702042183928342,36.437513029105595],[59.706415119511746,36.43907264229999],[59.70930550853933,36.440191766994488],[59.710010470298506,36.440665150398303],[59.710297413334025,36.441017605263156],[59.710458947643076,36.441216022113039],[59.711792040650018,36.442843994911854],[59.71231686168349,36.443344714904427],[59.713123759322798,36.443619303278808],[59.713677006573505,36.444171793023855],[59.714447072208017,36.44518373344804],[59.716034550502776,36.44765065680788],[59.717251263431322,36.449401616481524],[59.719798811080196,36.452084891228111],[59.722928113513525,36.455018399647123],[59.725804664772461,36.457618216896989],[59.728452920981795,36.459835617700726],[59.729413139070488,36.460696313097657],[59.729937619361863,36.461377679578277],[59.730444944166457,36.46227495441007],[59.730746518541437,36.463143946040695],[59.730803761864614,36.463850522210784],[59.730983050431959,36.464934503594513],[59.731443742114323,36.465214909743011],[59.731718628009233,36.465313799679222],[59.733365679511877,36.465104453152982],[59.733982759556881,36.465113845709155],[59.733689594870292,36.464572965429461]]},"properties":{"OBJECTID":179,"LAYER":"250p-mojood","capacity":"10\"","Shape_Length":4834.3065746869415}},{"type":"Feature","id":180,"geometry":{"type":"LineString","coordinates":[[59.680483153299306,36.479119953369],[59.680196522896907,36.478175093866163],[59.68004329892505,36.477012743214338],[59.679848671781834,36.475118884765266],[59.679754767729357,36.473886097199056],[59.67997813121417,36.472951931635663],[59.68021594971033,36.472669133849422],[59.682893177371206,36.470563178239182],[59.691116540510144,36.464467960580166],[59.699702470255296,36.458205606941213]]},"properties":{"OBJECTID":180,"LAYER":"250p-mojood","capacity":"4\"","Shape_Length":3102.3087714535991}},{"type":"Feature","id":181,"geometry":{"type":"LineString","coordinates":[[59.323103152587748,36.487638444580803],[59.322505962963113,36.486417120054149],[59.32175511001455,36.484723620513876],[59.318937683165089,36.478546415567067],[59.318100173192697,36.476765440730453],[59.314939564699074,36.469859209441033],[59.31238272044687,36.464066288629404],[59.311561040640683,36.462204430460197]]},"properties":{"OBJECTID":181,"LAYER":"250p-mojood","capacity":"6\"","Shape_Length":3006.4401715941676}},{"type":"Feature","id":182,"geometry":{"type":"LineString","coordinates":[[59.680881642679545,36.480305075107793],[59.680564511474522,36.479388153933101],[59.680483153299306,36.479119953369]]},"properties":{"OBJECTID":182,"LAYER":"250p-mojood","capacity":"8\"","Shape_Length":136.32726940009579}},{"type":"Feature","id":183,"geometry":{"type":"LineString","coordinates":[[59.665668180567806,36.464125315382759],[59.665700630344332,36.464212575933828],[59.667359266815986,36.468554821084922],[59.668134487140563,36.46991850025104],[59.670249420733434,36.472202369106242],[59.673586386986265,36.475432932353577],[59.675305453187555,36.477160999257805],[59.676870786842962,36.478357290722208],[59.6786481472624,36.479244407136001],[59.680881642679545,36.480305075107793],[59.682031146649557,36.48085093325809],[59.682067117176452,36.480868013622157]]},"properties":{"OBJECTID":183,"LAYER":"250p-mojood","capacity":"8\"","Shape_Length":2446.7614417016757}},{"type":"Feature","id":184,"geometry":{"type":"LineString","coordinates":[[59.682067117176452,36.480868013622157],[59.683440566037191,36.481520190901385]]},"properties":{"OBJECTID":184,"LAYER":"250p-mojood","capacity":"6\"","Shape_Length":142.82355651937266}},{"type":"Feature","id":185,"geometry":{"type":"LineString","coordinates":[[59.325195438811136,36.491842743270276],[59.324111496035094,36.489884865971746],[59.323103152587748,36.487638444580803]]},"properties":{"OBJECTID":185,"LAYER":"250p-mojood","capacity":"6\"","Shape_Length":503.19978625320232}},{"type":"Feature","id":186,"geometry":{"type":"LineString","coordinates":[[59.683440566037191,36.481520190901385],[59.684354798900216,36.481954297329793],[59.691479735487022,36.485255377354648]]},"properties":{"OBJECTID":186,"LAYER":"250p-mojood","capacity":"6\"","Shape_Length":831.3875021293552}},{"type":"Feature","id":187,"geometry":{"type":"LineString","coordinates":[[59.691479735487022,36.485255377354648],[59.691411959754497,36.485350457309103]]},"properties":{"OBJECTID":187,"LAYER":"250p-mojood","capacity":"6\"","Shape_Length":12.177776126623987}},{"type":"Feature","id":188,"geometry":{"type":"LineString","coordinates":[[59.691411959754497,36.485350457309103],[59.69168253668267,36.485386870404888]]},"properties":{"OBJECTID":188,"LAYER":"250p-mojood","capacity":"6\"","Shape_Length":24.588014454525393}},{"type":"Feature","id":189,"geometry":{"type":"LineString","coordinates":[[59.69168253668267,36.485386870404888],[59.691974381955923,36.485010852586221],[59.691966610870857,36.484346059167386],[59.691728885018883,36.482762879717619],[59.691792010285546,36.482531884985285],[59.692055801197093,36.482144623059902],[59.693317108044063,36.481031737663876],[59.694182431449327,36.480433425018546],[59.698175768069234,36.478448675239036],[59.70074428305572,36.477392807455033],[59.701449001811547,36.476889862594383],[59.702478842223528,36.475986774565385]]},"properties":{"OBJECTID":189,"LAYER":"250p-mojood","capacity":"4\"","Shape_Length":1544.2810090154985}},{"type":"Feature","id":190,"geometry":{"type":"LineString","coordinates":[[59.691411959754497,36.485350457309103],[59.691300596378582,36.485509284331272]]},"properties":{"OBJECTID":190,"LAYER":"250p-mojood","capacity":"6\"","Shape_Length":20.260094448191506}},{"type":"Feature","id":191,"geometry":{"type":"LineString","coordinates":[[59.32671780745779,36.495476083341515],[59.325959405954727,36.493735858973672],[59.325195438811136,36.491842743270276]]},"properties":{"OBJECTID":191,"LAYER":"250p-mojood","capacity":"6\"","Shape_Length":425.71961873724723}},{"type":"Feature","id":192,"geometry":{"type":"LineString","coordinates":[[59.329130575415057,36.500803244170712],[59.327757027532783,36.497760853994841],[59.326718089243933,36.495476696135405],[59.32671780745779,36.495476083341515]]},"properties":{"OBJECTID":192,"LAYER":"250p-mojood","capacity":"8\"","Shape_Length":629.51556846391463}},{"type":"Feature","id":193,"geometry":{"type":"LineString","coordinates":[[59.330438002278882,36.50373877178702],[59.329130575415057,36.500803244170712]]},"properties":{"OBJECTID":193,"LAYER":"250p-mojood","capacity":"8\"","Shape_Length":346.21625419987555}},{"type":"Feature","id":194,"geometry":{"type":"LineString","coordinates":[[59.691300596378582,36.485509284331272],[59.700369897270107,36.48918227059486],[59.703693028023316,36.490556922031466],[59.706712855852523,36.491865417299145],[59.707909261925323,36.492622694108981],[59.708815171932997,36.493417907800797],[59.713059227050074,36.497020355411941],[59.713112931928137,36.497077023222687]]},"properties":{"OBJECTID":194,"LAYER":"250p-mojood","capacity":"6\"","Shape_Length":2367.2933705295045}},{"type":"Feature","id":195,"geometry":{"type":"LineString","coordinates":[[59.713112931928137,36.497077023222687],[59.713562305044988,36.497551200648211]]},"properties":{"OBJECTID":195,"LAYER":"250p-mojood","capacity":"6\"","Shape_Length":66.276427862067905}},{"type":"Feature","id":196,"geometry":{"type":"LineString","coordinates":[[59.713112931928137,36.497077023222687],[59.712863605115523,36.497298800742939],[59.712614695746865,36.497427268414739],[59.711526039667234,36.497708221875669]]},"properties":{"OBJECTID":196,"LAYER":"250p-mojood","capacity":"4\"","Shape_Length":162.15604141509615}},{"type":"Feature","id":197,"geometry":{"type":"LineString","coordinates":[[59.711526039667234,36.497708221875669],[59.710271389286042,36.498031384440061],[59.708449144383223,36.498583857545675]]},"properties":{"OBJECTID":197,"LAYER":"250p-mojood","capacity":"4\"","Shape_Length":292.47737924188584}},{"type":"Feature","id":198,"geometry":{"type":"LineString","coordinates":[[59.708449144383223,36.498583857545675],[59.708071662547162,36.498747180582775]]},"properties":{"OBJECTID":198,"LAYER":"250p-mojood","capacity":"4\"","Shape_Length":38.382152117730051}},{"type":"Feature","id":199,"geometry":{"type":"LineString","coordinates":[[59.332297233683491,36.507541928816366],[59.330438002278882,36.50373877178702]]},"properties":{"OBJECTID":199,"LAYER":"250p-mojood","capacity":"8\"","Shape_Length":453.77056235624207}},{"type":"Feature","id":200,"geometry":{"type":"LineString","coordinates":[[59.332992397318222,36.507346529744872],[59.332297233683491,36.507541928816366]]},"properties":{"OBJECTID":200,"LAYER":"250p-mojood","capacity":"10\"","Shape_Length":65.950514695939447}},{"type":"Feature","id":201,"geometry":{"type":"LineString","coordinates":[[59.708449144383223,36.498583857545675],[59.709512240821923,36.500307420134959]]},"properties":{"OBJECTID":201,"LAYER":"250p-mojood","capacity":"4\"","Shape_Length":213.73335195135817}},{"type":"Feature","id":202,"geometry":{"type":"LineString","coordinates":[[59.332297233683491,36.507541928816366],[59.332870318107425,36.508850034851449],[59.33484930165438,36.513028492270074],[59.333984390148515,36.513800940019415],[59.335384116719844,36.515132508205774]]},"properties":{"OBJECTID":202,"LAYER":"250p-mojood","capacity":"10\"","Shape_Length":959.84122898475027}},{"type":"Feature","id":203,"geometry":{"type":"LineString","coordinates":[[59.335384116719844,36.515132508205774],[59.336159008304101,36.514566408595272]]},"properties":{"OBJECTID":203,"LAYER":"250p-mojood","capacity":"10\"","Shape_Length":93.629393122180133}},{"type":"Feature","id":204,"geometry":{"type":"LineString","coordinates":[[59.335384116719844,36.515132508205774],[59.334023467590001,36.51610961650772],[59.333011633448002,36.516846979331142],[59.330112127405563,36.518896082038559],[59.328547593318433,36.519677249788472],[59.326256358689193,36.520141340331868],[59.3233968985937,36.520651953969228]]},"properties":{"OBJECTID":204,"LAYER":"250p-mojood","capacity":"10\"","Shape_Length":1269.262359800852}},{"type":"Feature","id":205,"geometry":{"type":"LineString","coordinates":[[59.3233968985937,36.520651953969228],[59.323168301813212,36.520692772627726],[59.319936595439252,36.521194761047802],[59.318455698235908,36.52175524256446],[59.315532505198711,36.52285840927167],[59.309127255878472,36.525387120540756],[59.307469905734081,36.526041340760379]]},"properties":{"OBJECTID":205,"LAYER":"250p-mojood","capacity":"8\"","Shape_Length":1555.3201282310927}},{"type":"Feature","id":206,"geometry":{"type":"LineString","coordinates":[[59.309127255878472,36.525387120540756],[59.309296102996107,36.525596289791174],[59.309109192832565,36.525811072306446],[59.310376523121917,36.526750499445441],[59.313356301900527,36.528629396896747],[59.313874158452521,36.528166404823985]]},"properties":{"OBJECTID":206,"LAYER":"250p-mojood","capacity":"8\"","Shape_Length":618.89177830033532}}]}