{"type":"FeatureCollection","features":[{"type":"Feature","id":1,"geometry":{"type":"LineString","coordinates":[[59.310444673792084,36.394185652500553],[59.309839565559606,36.394135589743584]]},"properties":{"OBJECTID":1,"LAYER":"259P-PISHNAHAD","Distance":174.13950980999999,"capacity":"10\"","Shape_Length":54.576539952308366}},{"type":"Feature","id":2,"geometry":{"type":"LineString","coordinates":[[59.377878860439722,36.405495288936478],[59.3742022834452,36.407269601218921],[59.367573576865375,36.409920155833859],[59.36296105599294,36.411896363411813],[59.360479893573398,36.412989683851876],[59.359142343766052,36.413142374059156],[59.357795542437692,36.412989453646716],[59.35596385822997,36.412698905501692],[59.354494855149497,36.412025613341768],[59.353578928457026,36.411896498146263],[59.352111518554111,36.411821069155373],[59.350634911874984,36.411713764440186],[59.350051594563205,36.411433427315728],[59.34893497946014,36.410599281303178],[59.348035020344746,36.409983540137198],[59.346423799264343,36.409214291345897],[59.345298199015502,36.408587740467134],[59.343466315931913,36.407248020221132],[59.339623428340524,36.40456224760328],[59.339289571007463,36.404328904898392],[59.336573808686644,36.402092220725862],[59.334673908102843,36.400730215862716],[59.332220836580099,36.399114403970913],[59.331963669789637,36.39894500548084],[59.330599932966798,36.398098654707617],[59.330491481195132,36.398031348527688],[59.330318704147423,36.397980742880634],[59.328224339964237,36.3973672752239],[59.328074716281094,36.397309680170522],[59.32685440197158,36.396839928945184],[59.325397330205341,36.39627901272123],[59.324279685629449,36.395848748982182],[59.324271514749753,36.395845603858866],[59.323921451356568,36.39569238024162],[59.322140026284679,36.394912635052378],[59.321485399578002,36.394693519633613],[59.321463830887474,36.394686296834188],[59.321404939907914,36.394685088725197],[59.320456081098463,36.394665607571106],[59.318399520558707,36.39445021436805],[59.31692451164507,36.394562595234916],[59.315184763086911,36.394218558784807],[59.313237770268614,36.393967646555105],[59.312170885324548,36.394035579545843],[59.310444673792084,36.394185652500553]]},"properties":{"OBJECTID":2,"LAYER":"259P-PISHNAHAD","Distance":24.613663509999999,"capacity":"10\"","Shape_Length":6937.2623067558379}},{"type":"Feature","id":3,"geometry":{"type":"LineString","coordinates":[[59.417086989936266,36.373784220555052],[59.417916242349229,36.37144726447859],[59.418234137410806,36.369891435298186],[59.418274222971817,36.368167412902743],[59.418350926870382,36.364365219438234],[59.418422146219235,36.363895334971737],[59.41868445985898,36.363295078096257],[59.419186492715326,36.362635465498528],[59.419708089855362,36.3622244004343],[59.42036508827573,36.361852300896622],[59.423795195539583,36.360533661393717],[59.434452884081637,36.356189832858789],[59.436730024941632,36.355134145699047],[59.437187438422569,36.354668465184112],[59.43928899272381,36.351833891166976],[59.44225758987978,36.347683128590532],[59.442375356872347,36.347426449248054],[59.442343736151791,36.347420737255334]]},"properties":{"OBJECTID":3,"LAYER":"259P-PISHNAHAD","Distance":152.40164068999999,"capacity":"12\"","Shape_Length":4051.0750465682654}},{"type":"Feature","id":4,"geometry":{"type":"LineString","coordinates":[[59.37982544975705,36.404767671329004],[59.377878860439722,36.405495288936478]]},"properties":{"OBJECTID":4,"LAYER":"259P-PISHNAHAD","Distance":81.894173170000002,"capacity":"10\"","Shape_Length":192.40463045407128}},{"type":"Feature","id":5,"geometry":{"type":"LineString","coordinates":[[59.381285966101892,36.404221713442219],[59.37982544975705,36.404767671329004]]},"properties":{"OBJECTID":5,"LAYER":"259P-PISHNAHAD","Distance":301.21617727,"capacity":"12\"","Shape_Length":144.36272549934293}},{"type":"Feature","id":6,"geometry":{"type":"LineString","coordinates":[[59.382673186184483,36.403723560442955],[59.385274596814668,36.402804171149633],[59.387421203218537,36.401891516251027],[59.390338518818538,36.400047618813403],[59.396321004612254,36.396300748608212],[59.406589308769959,36.38960498448759],[59.411193285368604,36.386546855181187],[59.413320748573227,36.384858363675797],[59.413827522996044,36.383769878922784],[59.415268104495183,36.379526018329187],[59.417086989936266,36.373784220555052]]},"properties":{"OBJECTID":6,"LAYER":"259P-PISHNAHAD","Distance":37.803357519999999,"capacity":"12\"","Shape_Length":4744.8330012592914}},{"type":"Feature","id":7,"geometry":{"type":"LineString","coordinates":[[59.381979185264974,36.403968818451737],[59.382048769657274,36.403944227592888],[59.382673186184483,36.403723560442955]]},"properties":{"OBJECTID":7,"LAYER":"259P-PISHNAHAD","Distance":123.58319116,"capacity":"12\"","Shape_Length":67.953115155759093}},{"type":"Feature","id":8,"geometry":{"type":"LineString","coordinates":[[59.381673537591453,36.404076833175488],[59.381683116624323,36.40407344872775],[59.381979185264974,36.403968818451737],[59.382048769657274,36.403944227592888]]},"properties":{"OBJECTID":8,"LAYER":"259P-PISHNAHAD","Distance":182.75181942,"capacity":"12\"","Shape_Length":36.740765467486035}},{"type":"Feature","id":9,"geometry":{"type":"LineString","coordinates":[[59.381673537591453,36.404076833175488],[59.381285966101892,36.404221713442219]]},"properties":{"OBJECTID":9,"LAYER":"259P-PISHNAHAD","Distance":218.82971903000001,"capacity":"12\"","Shape_Length":38.309198919029683}},{"type":"Feature","id":10,"geometry":{"type":"LineString","coordinates":[[59.408787261318516,36.425062306448886],[59.401969683670195,36.422376443253142],[59.40037817542698,36.421887659054974],[59.394632263115753,36.419506714416464],[59.392880738246077,36.417830151994423],[59.392022467488957,36.416997672988316],[59.386962178812048,36.40909541172698],[59.384040166350239,36.407385047812205],[59.381683116624323,36.40407344872775]]},"properties":{"OBJECTID":10,"LAYER":"259P-PISHNAHAD","Distance":47.337822070000001,"capacity":"16\"","Shape_Length":3511.206415490069}},{"type":"Feature","id":11,"geometry":{"type":"LineString","coordinates":[[59.464612389972444,36.438400786803847],[59.464759071105249,36.438261216323951]]},"properties":{"OBJECTID":11,"LAYER":"259P-PISHNAHAD","Distance":41.333219450000001,"capacity":"10\"","Shape_Length":20.322512052840835}},{"type":"Feature","id":12,"geometry":{"type":"LineString","coordinates":[[59.440042210625101,36.439158651230528],[59.440980459493616,36.43833766256207],[59.441165734984146,36.438175541342552],[59.436892492032641,36.436446101081522],[59.426813329975602,36.432407554807988],[59.413926529302763,36.427187759404774],[59.408787261318516,36.425062306448886]]},"properties":{"OBJECTID":12,"LAYER":"259P-PISHNAHAD","Distance":183.19635599,"capacity":"16\"","Shape_Length":3396.749312037532}},{"type":"Feature","id":13,"geometry":{"type":"LineString","coordinates":[[59.34370269110731,36.509642901858292],[59.342340826345882,36.510634505880915]]},"properties":{"OBJECTID":13,"LAYER":"259P-PISHNAHAD","Distance":1684.5332331699999,"capacity":"10\"","Shape_Length":164.31244277713691}},{"type":"Feature","id":14,"geometry":{"type":"LineString","coordinates":[[59.39500141373626,36.473237671382996],[59.391026060182917,36.475925819420461],[59.386031997488118,36.479437669063749],[59.381094915064658,36.482873932629417],[59.370691175848691,36.490255221680449],[59.365274397289127,36.494138244967417],[59.359265672956688,36.49845167688833],[59.353859672979404,36.502223004643049],[59.346939331468306,36.507334397529156],[59.34370269110731,36.509642901858292],[59.343579018246935,36.509731104627441]]},"properties":{"OBJECTID":14,"LAYER":"259P-PISHNAHAD","Distance":27.089328340000002,"capacity":"10\"","Shape_Length":6135.5289849724377}},{"type":"Feature","id":15,"geometry":{"type":"LineString","coordinates":[[59.417608187399665,36.459122159752724],[59.414356461355474,36.461818442851651],[59.406240022979212,36.4664907333513],[59.397220497995022,36.471765457107338],[59.39500141373626,36.473237671382996]]},"properties":{"OBJECTID":15,"LAYER":"259P-PISHNAHAD","Distance":25.124010070000001,"capacity":"10\"","Shape_Length":2566.9169336775717}},{"type":"Feature","id":16,"geometry":{"type":"LineString","coordinates":[[59.421021111890866,36.456311446444921],[59.420237976748787,36.456959397686099]]},"properties":{"OBJECTID":16,"LAYER":"259P-PISHNAHAD","Distance":1143.7404619199999,"capacity":"10\"","Shape_Length":100.50694575307455}},{"type":"Feature","id":17,"geometry":{"type":"LineString","coordinates":[[59.420237976748787,36.456959397686099],[59.417608187399665,36.459122159752724]]},"properties":{"OBJECTID":17,"LAYER":"259P-PISHNAHAD","Distance":807.58973290999995,"capacity":"10\"","Shape_Length":336.46498148297837}},{"type":"Feature","id":18,"geometry":{"type":"LineString","coordinates":[[59.44031651664146,36.439371772243284],[59.440209038592826,36.439288269049747],[59.440042210625101,36.439158651230528]]},"properties":{"OBJECTID":18,"LAYER":"259P-PISHNAHAD","Distance":353.27504035999999,"capacity":"10\"","Shape_Length":34.126662674723789}},{"type":"Feature","id":19,"geometry":{"type":"LineString","coordinates":[[59.439382323686452,36.44124382947583],[59.438074993522569,36.44226250659387],[59.437473061728852,36.442731524836603],[59.434177851304426,36.44544486749821],[59.429253070500778,36.44949951855456],[59.421263183934798,36.456111155947887],[59.421021111890866,36.456311446444921]]},"properties":{"OBJECTID":19,"LAYER":"259P-PISHNAHAD","Distance":17.465095569999999,"capacity":"10\"","Shape_Length":2346.8450879022475}},{"type":"Feature","id":20,"geometry":{"type":"LineString","coordinates":[[59.440151990206864,36.44064408294507],[59.439382323686452,36.44124382947583]]},"properties":{"OBJECTID":20,"LAYER":"259P-PISHNAHAD","Distance":214.4013459,"capacity":"10\"","Shape_Length":95.889108907563482}},{"type":"Feature","id":21,"geometry":{"type":"LineString","coordinates":[[59.441046837418199,36.439946775067298],[59.440848791197631,36.439783511353838],[59.440848176135823,36.439783034538827],[59.440748042105248,36.439705577949056],[59.44031651664146,36.439371772243284]]},"properties":{"OBJECTID":21,"LAYER":"259P-PISHNAHAD","Distance":340.22673112000001,"capacity":"10\"","Shape_Length":91.454293288524724}},{"type":"Feature","id":22,"geometry":{"type":"LineString","coordinates":[[59.455071091904749,36.429008423852665],[59.455031781669391,36.428973622027229],[59.454974625183162,36.428923022834695],[59.454484212123184,36.428718482555809],[59.453952529221226,36.429077592091325],[59.453304031103663,36.429663268458931],[59.453295114203726,36.429671347038799],[59.452714405917739,36.430197321564037],[59.452684934921571,36.430224013209063],[59.452598187577422,36.430302582970178],[59.451362877842094,36.431400048727767],[59.449644087422691,36.43286911436897]]},"properties":{"OBJECTID":22,"LAYER":"259P-PISHNAHAD","Distance":696.74705478999999,"capacity":"20\"","Shape_Length":695.84176468882981}},{"type":"Feature","id":23,"geometry":{"type":"LineString","coordinates":[[59.449644087422691,36.43286911436897],[59.443121988304142,36.438247223350743],[59.442025524091797,36.439151257643537],[59.441845630516042,36.439299579521347],[59.441298789535715,36.439750437582539],[59.441046837418199,36.439946775067298],[59.440820958289066,36.440122790930111],[59.440685818246862,36.440228100126305],[59.440151990206864,36.44064408294507]]},"properties":{"OBJECTID":23,"LAYER":"259P-PISHNAHAD","Distance":16.939606999999999,"capacity":"20\"","Shape_Length":1212.1956592917445}},{"type":"Feature","id":24,"geometry":{"type":"LineString","coordinates":[[59.473531228792112,36.447253895192105],[59.472082472379036,36.44587077634953],[59.466729839314077,36.440531802321644],[59.464439718727434,36.438314369679603],[59.459781566803358,36.43365744899566],[59.455031781669391,36.428973622027229],[59.45498548218206,36.428927962916759]]},"properties":{"OBJECTID":24,"LAYER":"259P-PISHNAHAD","Distance":34.28207295,"capacity":"20\"","Shape_Length":2627.4764222806994}},{"type":"Feature","id":25,"geometry":{"type":"LineString","coordinates":[[59.492745556341582,36.466456025504648],[59.489500906634511,36.463253762500685],[59.484210195442827,36.457950892734232],[59.47612072493564,36.44987721419632],[59.473531228792112,36.447253895192105]]},"properties":{"OBJECTID":25,"LAYER":"259P-PISHNAHAD","Distance":30.27194055,"capacity":"10\"","Shape_Length":2740.4795295850199}},{"type":"Feature","id":26,"geometry":{"type":"LineString","coordinates":[[59.498393702711539,36.472086374976683],[59.492745556341582,36.466456025504648]]},"properties":{"OBJECTID":26,"LAYER":"259P-PISHNAHAD","Distance":39.941137820000002,"capacity":"10\"","Shape_Length":804.30127629391529}},{"type":"Feature","id":27,"geometry":{"type":"LineString","coordinates":[[59.498515647623556,36.472207571949852],[59.498393702711539,36.472086374976683]]},"properties":{"OBJECTID":27,"LAYER":"259P-PISHNAHAD","Distance":103.6112016,"capacity":"8\"","Shape_Length":17.333496752364074}}]}